<?xml version="1.0" encoding="UTF-8"?>
<gpx version="1.1" creator="pilegrimsleden-osm-extractor 1.0" xmlns="http://www.topografix.com/GPX/1/1">
  <trk><name>Kystpilegrimsleia</name><trkseg>
    <trkpt lat="63.4313480" lon="10.3748330"></trkpt>
    <trkpt lat="63.4315804" lon="10.3749154"></trkpt>
    <trkpt lat="63.4313480" lon="10.3748330"></trkpt>
    <trkpt lat="63.4312957" lon="10.3748144"></trkpt>
    <trkpt lat="63.4312711" lon="10.3748039"></trkpt>
    <trkpt lat="63.4312538" lon="10.3747971"></trkpt>
    <trkpt lat="63.4312214" lon="10.3747823"></trkpt>
    <trkpt lat="63.4312127" lon="10.3747787"></trkpt>
    <trkpt lat="63.4311906" lon="10.3747695"></trkpt>
    <trkpt lat="63.4311955" lon="10.3751440"></trkpt>
    <trkpt lat="63.4312003" lon="10.3760776"></trkpt>
    <trkpt lat="63.4312027" lon="10.3764649"></trkpt>
    <trkpt lat="63.4312173" lon="10.3767728"></trkpt>
    <trkpt lat="63.4312531" lon="10.3770508"></trkpt>
    <trkpt lat="63.4313132" lon="10.3773816"></trkpt>
    <trkpt lat="63.4313735" lon="10.3777088"></trkpt>
    <trkpt lat="63.4314159" lon="10.3779331"></trkpt>
    <trkpt lat="63.4315738" lon="10.3787609"></trkpt>
    <trkpt lat="63.4316005" lon="10.3788018"></trkpt>
    <trkpt lat="63.4316283" lon="10.3788779"></trkpt>
    <trkpt lat="63.4316948" lon="10.3791760"></trkpt>
    <trkpt lat="63.4317285" lon="10.3793272"></trkpt>
    <trkpt lat="63.4316740" lon="10.3793992"></trkpt>
    <trkpt lat="63.4315893" lon="10.3795101"></trkpt>
    <trkpt lat="63.4315198" lon="10.3795861"></trkpt>
    <trkpt lat="63.4314160" lon="10.3796965"></trkpt>
    <trkpt lat="63.4312962" lon="10.3798415"></trkpt>
    <trkpt lat="63.4313017" lon="10.3801541"></trkpt>
    <trkpt lat="63.4312502" lon="10.3801722"></trkpt>
    <trkpt lat="63.4312912" lon="10.3813565"></trkpt>
    <trkpt lat="63.4312971" lon="10.3815277"></trkpt>
    <trkpt lat="63.4313509" lon="10.3821889"></trkpt>
    <trkpt lat="63.4313605" lon="10.3823145"></trkpt>
    <trkpt lat="63.4314174" lon="10.3830562"></trkpt>
    <trkpt lat="63.4314748" lon="10.3839805"></trkpt>
    <trkpt lat="63.4314931" lon="10.3842504"></trkpt>
    <trkpt lat="63.4315161" lon="10.3844981"></trkpt>
    <trkpt lat="63.4315467" lon="10.3848293"></trkpt>
    <trkpt lat="63.4315839" lon="10.3851478"></trkpt>
    <trkpt lat="63.4315984" lon="10.3852669"></trkpt>
    <trkpt lat="63.4316578" lon="10.3857546"></trkpt>
    <trkpt lat="63.4317334" lon="10.3862491"></trkpt>
    <trkpt lat="63.4317922" lon="10.3865742"></trkpt>
    <trkpt lat="63.4318094" lon="10.3866693"></trkpt>
    <trkpt lat="63.4319122" lon="10.3871284"></trkpt>
    <trkpt lat="63.4319180" lon="10.3871543"></trkpt>
    <trkpt lat="63.4319424" lon="10.3872631"></trkpt>
    <trkpt lat="63.4319691" lon="10.3873897"></trkpt>
    <trkpt lat="63.4323723" lon="10.3890587"></trkpt>
    <trkpt lat="63.4324137" lon="10.3892038"></trkpt>
    <trkpt lat="63.4324407" lon="10.3892989"></trkpt>
    <trkpt lat="63.4326478" lon="10.3891124"></trkpt>
    <trkpt lat="63.4328394" lon="10.3889396"></trkpt>
    <trkpt lat="63.4328886" lon="10.3890414"></trkpt>
    <trkpt lat="63.4330268" lon="10.3894324"></trkpt>
    <trkpt lat="63.4331600" lon="10.3898861"></trkpt>
    <trkpt lat="63.4333681" lon="10.3905521"></trkpt>
    <trkpt lat="63.4334603" lon="10.3908963"></trkpt>
    <trkpt lat="63.4335182" lon="10.3908367"></trkpt>
    <trkpt lat="63.4335991" lon="10.3911371"></trkpt>
    <trkpt lat="63.4336328" lon="10.3912787"></trkpt>
    <trkpt lat="63.4338674" lon="10.3918781"></trkpt>
    <trkpt lat="63.4338755" lon="10.3919037"></trkpt>
    <trkpt lat="63.4339918" lon="10.3922107"></trkpt>
    <trkpt lat="63.4340780" lon="10.3924956"></trkpt>
    <trkpt lat="63.4339539" lon="10.3926551"></trkpt>
    <trkpt lat="63.4338742" lon="10.3926548"></trkpt>
    <trkpt lat="63.4337939" lon="10.3927208"></trkpt>
    <trkpt lat="63.4338782" lon="10.3930652"></trkpt>
    <trkpt lat="63.4338895" lon="10.3933598"></trkpt>
    <trkpt lat="63.4338835" lon="10.3934374"></trkpt>
    <trkpt lat="63.4338829" lon="10.3934853"></trkpt>
    <trkpt lat="63.4339341" lon="10.3936006"></trkpt>
    <trkpt lat="63.4339833" lon="10.3935934"></trkpt>
    <trkpt lat="63.4340215" lon="10.3936350"></trkpt>
    <trkpt lat="63.4341750" lon="10.3941780"></trkpt>
    <trkpt lat="63.4343266" lon="10.3947178"></trkpt>
    <trkpt lat="63.4344427" lon="10.3952760"></trkpt>
    <trkpt lat="63.4344833" lon="10.3955406"></trkpt>
    <trkpt lat="63.4345076" lon="10.3957178"></trkpt>
    <trkpt lat="63.4345302" lon="10.3959507"></trkpt>
    <trkpt lat="63.4345700" lon="10.3965774"></trkpt>
    <trkpt lat="63.4345936" lon="10.3968186"></trkpt>
    <trkpt lat="63.4346161" lon="10.3970972"></trkpt>
    <trkpt lat="63.4346244" lon="10.3972318"></trkpt>
    <trkpt lat="63.4346963" lon="10.3984876"></trkpt>
    <trkpt lat="63.4347283" lon="10.3990672"></trkpt>
    <trkpt lat="63.4347704" lon="10.3994795"></trkpt>
    <trkpt lat="63.4347982" lon="10.3998835"></trkpt>
    <trkpt lat="63.4347973" lon="10.3999627"></trkpt>
    <trkpt lat="63.4347965" lon="10.4000256"></trkpt>
    <trkpt lat="63.4347993" lon="10.4001140"></trkpt>
    <trkpt lat="63.4348014" lon="10.4001795"></trkpt>
    <trkpt lat="63.4348033" lon="10.4002853"></trkpt>
    <trkpt lat="63.4348297" lon="10.4003430"></trkpt>
    <trkpt lat="63.4356834" lon="10.4000248"></trkpt>
    <trkpt lat="63.4365370" lon="10.3997065"></trkpt>
    <trkpt lat="63.4373907" lon="10.3993883"></trkpt>
    <trkpt lat="63.4376137" lon="10.3988601"></trkpt>
    <trkpt lat="63.4377235" lon="10.3987297"></trkpt>
    <trkpt lat="63.4378563" lon="10.3983632"></trkpt>
    <trkpt lat="63.4373907" lon="10.3993883"></trkpt>
    <trkpt lat="63.4371591" lon="10.3994045"></trkpt>
    <trkpt lat="63.4370504" lon="10.3994499"></trkpt>
    <trkpt lat="63.4367182" lon="10.3996851"></trkpt>
    <trkpt lat="63.4364587" lon="10.3999754"></trkpt>
    <trkpt lat="63.4364029" lon="10.4000219"></trkpt>
    <trkpt lat="63.4361871" lon="10.4001847"></trkpt>
    <trkpt lat="63.4361467" lon="10.4002102"></trkpt>
    <trkpt lat="63.4360619" lon="10.4002497"></trkpt>
    <trkpt lat="63.4360158" lon="10.4002712"></trkpt>
    <trkpt lat="63.4359733" lon="10.4002750"></trkpt>
    <trkpt lat="63.4359417" lon="10.4002778"></trkpt>
    <trkpt lat="63.4358798" lon="10.4002857"></trkpt>
    <trkpt lat="63.4358321" lon="10.4002893"></trkpt>
    <trkpt lat="63.4358158" lon="10.4002905"></trkpt>
    <trkpt lat="63.4356998" lon="10.4002020"></trkpt>
    <trkpt lat="63.4357753" lon="10.4002611"></trkpt>
    <trkpt lat="63.4357681" lon="10.4006198"></trkpt>
    <trkpt lat="63.4356998" lon="10.4002020"></trkpt>
    <trkpt lat="63.4356183" lon="10.4001878"></trkpt>
    <trkpt lat="63.4352119" lon="10.4002406"></trkpt>
    <trkpt lat="63.4348570" lon="10.4002965"></trkpt>
    <trkpt lat="63.4348297" lon="10.4003430"></trkpt>
    <trkpt lat="63.4348319" lon="10.4004184"></trkpt>
    <trkpt lat="63.4348497" lon="10.4012305"></trkpt>
    <trkpt lat="63.4348678" lon="10.4032095"></trkpt>
    <trkpt lat="63.4348511" lon="10.4035548"></trkpt>
    <trkpt lat="63.4348368" lon="10.4037295"></trkpt>
    <trkpt lat="63.4348194" lon="10.4039435"></trkpt>
    <trkpt lat="63.4347496" lon="10.4040755"></trkpt>
    <trkpt lat="63.4347436" lon="10.4041218"></trkpt>
    <trkpt lat="63.4347514" lon="10.4041850"></trkpt>
    <trkpt lat="63.4347340" lon="10.4044322"></trkpt>
    <trkpt lat="63.4347394" lon="10.4045576"></trkpt>
    <trkpt lat="63.4347325" lon="10.4047581"></trkpt>
    <trkpt lat="63.4346656" lon="10.4047909"></trkpt>
    <trkpt lat="63.4346431" lon="10.4047784"></trkpt>
    <trkpt lat="63.4345957" lon="10.4047520"></trkpt>
    <trkpt lat="63.4345472" lon="10.4047118"></trkpt>
    <trkpt lat="63.4345382" lon="10.4047043"></trkpt>
    <trkpt lat="63.4344851" lon="10.4047426"></trkpt>
    <trkpt lat="63.4342390" lon="10.4045328"></trkpt>
    <trkpt lat="63.4343468" lon="10.4033621"></trkpt>
    <trkpt lat="63.4338948" lon="10.4030011"></trkpt>
    <trkpt lat="63.4338680" lon="10.4029173"></trkpt>
    <trkpt lat="63.4333990" lon="10.4025016"></trkpt>
    <trkpt lat="63.4334059" lon="10.4024471"></trkpt>
    <trkpt lat="63.4334089" lon="10.4024232"></trkpt>
    <trkpt lat="63.4333915" lon="10.4023956"></trkpt>
    <trkpt lat="63.4333982" lon="10.4020359"></trkpt>
    <trkpt lat="63.4333836" lon="10.4020366"></trkpt>
    <trkpt lat="63.4333277" lon="10.4020314"></trkpt>
    <trkpt lat="63.4332725" lon="10.4020263"></trkpt>
    <trkpt lat="63.4332589" lon="10.4020228"></trkpt>
    <trkpt lat="63.4332346" lon="10.4021883"></trkpt>
    <trkpt lat="63.4332297" lon="10.4022929"></trkpt>
    <trkpt lat="63.4326678" lon="10.4016405"></trkpt>
    <trkpt lat="63.4325825" lon="10.4015413"></trkpt>
    <trkpt lat="63.4324475" lon="10.4014661"></trkpt>
    <trkpt lat="63.4319797" lon="10.4013333"></trkpt>
    <trkpt lat="63.4319037" lon="10.4012704"></trkpt>
    <trkpt lat="63.4318582" lon="10.4012338"></trkpt>
    <trkpt lat="63.4318262" lon="10.4012218"></trkpt>
    <trkpt lat="63.4316782" lon="10.4012022"></trkpt>
    <trkpt lat="63.4315604" lon="10.4011826"></trkpt>
    <trkpt lat="63.4313166" lon="10.4012388"></trkpt>
    <trkpt lat="63.4312320" lon="10.4011746"></trkpt>
    <trkpt lat="63.4312011" lon="10.4011583"></trkpt>
    <trkpt lat="63.4309824" lon="10.4010490"></trkpt>
    <trkpt lat="63.4309759" lon="10.4008196"></trkpt>
    <trkpt lat="63.4309531" lon="10.4006177"></trkpt>
    <trkpt lat="63.4309626" lon="10.4002996"></trkpt>
    <trkpt lat="63.4309636" lon="10.4002665"></trkpt>
    <trkpt lat="63.4309672" lon="10.4001444"></trkpt>
    <trkpt lat="63.4309677" lon="10.4000832"></trkpt>
    <trkpt lat="63.4309686" lon="10.3999806"></trkpt>
    <trkpt lat="63.4308784" lon="10.3999745"></trkpt>
    <trkpt lat="63.4304795" lon="10.3999495"></trkpt>
    <trkpt lat="63.4304340" lon="10.3999467"></trkpt>
    <trkpt lat="63.4304375" lon="10.3998637"></trkpt>
    <trkpt lat="63.4303654" lon="10.3998514"></trkpt>
    <trkpt lat="63.4303229" lon="10.3998442"></trkpt>
    <trkpt lat="63.4302844" lon="10.3998394"></trkpt>
    <trkpt lat="63.4302666" lon="10.3998372"></trkpt>
    <trkpt lat="63.4302722" lon="10.3996779"></trkpt>
    <trkpt lat="63.4302961" lon="10.3990270"></trkpt>
    <trkpt lat="63.4300888" lon="10.3989897"></trkpt>
    <trkpt lat="63.4299950" lon="10.3989643"></trkpt>
    <trkpt lat="63.4300033" lon="10.3986795"></trkpt>
    <trkpt lat="63.4298541" lon="10.3986546"></trkpt>
    <trkpt lat="63.4297601" lon="10.3980609"></trkpt>
    <trkpt lat="63.4297296" lon="10.3980598"></trkpt>
    <trkpt lat="63.4295369" lon="10.3980569"></trkpt>
    <trkpt lat="63.4293235" lon="10.3980766"></trkpt>
    <trkpt lat="63.4289075" lon="10.3980885"></trkpt>
    <trkpt lat="63.4288606" lon="10.3981118"></trkpt>
    <trkpt lat="63.4288126" lon="10.3981304"></trkpt>
    <trkpt lat="63.4284151" lon="10.3982838"></trkpt>
    <trkpt lat="63.4282597" lon="10.3983587"></trkpt>
    <trkpt lat="63.4279002" lon="10.3985524"></trkpt>
    <trkpt lat="63.4278955" lon="10.3984364"></trkpt>
    <trkpt lat="63.4278650" lon="10.3984489"></trkpt>
    <trkpt lat="63.4278372" lon="10.3984602"></trkpt>
    <trkpt lat="63.4278063" lon="10.3984728"></trkpt>
    <trkpt lat="63.4277799" lon="10.3984836"></trkpt>
    <trkpt lat="63.4277893" lon="10.3986193"></trkpt>
    <trkpt lat="63.4277736" lon="10.3986259"></trkpt>
    <trkpt lat="63.4277041" lon="10.3985257"></trkpt>
    <trkpt lat="63.4274712" lon="10.3980484"></trkpt>
    <trkpt lat="63.4272224" lon="10.3971680"></trkpt>
    <trkpt lat="63.4271760" lon="10.3968691"></trkpt>
    <trkpt lat="63.4271642" lon="10.3967270"></trkpt>
    <trkpt lat="63.4271388" lon="10.3964218"></trkpt>
    <trkpt lat="63.4271224" lon="10.3961308"></trkpt>
    <trkpt lat="63.4271163" lon="10.3960243"></trkpt>
    <trkpt lat="63.4271080" lon="10.3958309"></trkpt>
    <trkpt lat="63.4270756" lon="10.3951034"></trkpt>
    <trkpt lat="63.4270577" lon="10.3949388"></trkpt>
    <trkpt lat="63.4270370" lon="10.3949334"></trkpt>
    <trkpt lat="63.4270127" lon="10.3949296"></trkpt>
    <trkpt lat="63.4265880" lon="10.3948507"></trkpt>
    <trkpt lat="63.4265029" lon="10.3948399"></trkpt>
  </trkseg></trk>
</gpx>
