<?xml version='1.0' encoding='UTF-8'?>
<osm version='0.6' generator='pilegrimsleden-osm-extractor 1.0'>
  <node id='-1' version='0' action='modify' visible='true' lat='63.6994677' lon='9.7429580'>
    <tag k='name' v='Austrått camping og motell'/>
    <tag k='source' v='pilegrimsleden.no'/>
    <tag k='url' v='https://www.pilegrimsleden.no/interessepunkter/austratt-camping-og-motell'/>
    <tag k='network' v='Pilegrimsleden'/>
    <tag k='note:trail' v='Kystpilegrimsleia'/>
    <tag k='pilegrimsleden:poi_type' v='Rom og hytter;Teltplass'/>
    <tag k='pilegrimsleden:id' v='104846'/>
    <tag k='tourism' v='chalet'/>
  </node>
  <node id='-2' version='0' action='modify' visible='true' lat='61.4978201' lon='5.1358545'>
    <tag k='name' v='Badestranda Leiren'/>
    <tag k='source' v='pilegrimsleden.no'/>
    <tag k='url' v='https://www.pilegrimsleden.no/interessepunkter/badestranda-leiren'/>
    <tag k='network' v='Pilegrimsleden'/>
    <tag k='note:trail' v='Kystpilegrimsleia'/>
    <tag k='pilegrimsleden:poi_type' v='Gapahuk'/>
    <tag k='pilegrimsleden:id' v='353338'/>
    <tag k='amenity' v='shelter'/>
    <tag k='shelter_type' v='lean_to'/>
  </node>
  <node id='-3' version='0' action='modify' visible='true' lat='61.1717892' lon='5.3509159'>
    <tag k='name' v='Birkeland Camping'/>
    <tag k='source' v='pilegrimsleden.no'/>
    <tag k='url' v='https://www.pilegrimsleden.no/interessepunkter/birkeland-camping'/>
    <tag k='network' v='Pilegrimsleden'/>
    <tag k='note:trail' v='Kystpilegrimsleia'/>
    <tag k='pilegrimsleden:poi_type' v='Campingplass'/>
    <tag k='pilegrimsleden:id' v='352543'/>
    <tag k='tourism' v='camp_site'/>
  </node>
  <node id='-4' version='0' action='modify' visible='true' lat='63.5971042' lon='9.8966217'>
    <tag k='name' v='Blåheia'/>
    <tag k='source' v='pilegrimsleden.no'/>
    <tag k='url' v='https://www.pilegrimsleden.no/interessepunkter/blaheia'/>
    <tag k='network' v='Pilegrimsleden'/>
    <tag k='note:trail' v='Kystpilegrimsleia'/>
    <tag k='pilegrimsleden:poi_type' v='Gapahuk'/>
    <tag k='pilegrimsleden:id' v='393704'/>
    <tag k='amenity' v='shelter'/>
    <tag k='shelter_type' v='lean_to'/>
  </node>
  <node id='-5' version='0' action='modify' visible='true' lat='62.4330215' lon='6.3935384'>
    <tag k='name' v='Borg sommerhotell og camping'/>
    <tag k='source' v='pilegrimsleden.no'/>
    <tag k='url' v='https://www.pilegrimsleden.no/interessepunkter/borg-sommerhotell'/>
    <tag k='network' v='Pilegrimsleden'/>
    <tag k='note:trail' v='Kystpilegrimsleia'/>
    <tag k='pilegrimsleden:poi_type' v='Vandrerhjem'/>
    <tag k='pilegrimsleden:id' v='504287'/>
    <tag k='tourism' v='hostel'/>
  </node>
  <node id='-6' version='0' action='modify' visible='true' lat='63.0057637' lon='7.7235611'>
    <tag k='name' v='Borgstua på Kvernes Prestegård'/>
    <tag k='source' v='pilegrimsleden.no'/>
    <tag k='url' v='https://www.pilegrimsleden.no/interessepunkter/borgstua-pa-kvernes-prestegard'/>
    <tag k='network' v='Pilegrimsleden'/>
    <tag k='note:trail' v='Kystpilegrimsleia'/>
    <tag k='pilegrimsleden:poi_type' v='Pilegrimsherberge'/>
    <tag k='pilegrimsleden:id' v='147563'/>
    <tag k='tourism' v='hostel'/>
    <tag k='hostel:type' v='pilgrim'/>
    <tag k='note:osm_mapping' v='uncertain OSM equivalent for category Pilegrimsherberge'/>
  </node>
  <node id='-7' version='0' action='modify' visible='true' lat='62.2533151' lon='5.5850209'>
    <tag k='name' v='Brekkegarden pilegrimsherberge'/>
    <tag k='source' v='pilegrimsleden.no'/>
    <tag k='url' v='https://www.pilegrimsleden.no/interessepunkter/brekkegarden-pilegrimsherberge'/>
    <tag k='network' v='Pilegrimsleden'/>
    <tag k='note:trail' v='Kystpilegrimsleia'/>
    <tag k='pilegrimsleden:poi_type' v='Pilegrimsherberge'/>
    <tag k='pilegrimsleden:id' v='475628'/>
    <tag k='tourism' v='hostel'/>
    <tag k='hostel:type' v='pilgrim'/>
    <tag k='note:osm_mapping' v='uncertain OSM equivalent for category Pilegrimsherberge'/>
  </node>
  <node id='-8' version='0' action='modify' visible='true' lat='60.9838664' lon='5.0666969'>
    <tag k='name' v='Dagsturhytta Gulakvila'/>
    <tag k='source' v='pilegrimsleden.no'/>
    <tag k='url' v='https://www.pilegrimsleden.no/interessepunkter/dagsturhytta-gulakvila'/>
    <tag k='network' v='Pilegrimsleden'/>
    <tag k='note:trail' v='Kystpilegrimsleia'/>
    <tag k='pilegrimsleden:poi_type' v='Gapahuk;Dagsturhytte'/>
    <tag k='pilegrimsleden:id' v='501749'/>
    <tag k='amenity' v='shelter'/>
    <tag k='shelter_type' v='lean_to'/>
  </node>
  <node id='-9' version='0' action='modify' visible='true' lat='62.1022702' lon='5.3383185'>
    <tag k='name' v='Dagsturhytta Havglimt'/>
    <tag k='source' v='pilegrimsleden.no'/>
    <tag k='url' v='https://www.pilegrimsleden.no/interessepunkter/dagsturhytta-havglimt'/>
    <tag k='network' v='Pilegrimsleden'/>
    <tag k='note:trail' v='Kystpilegrimsleia'/>
    <tag k='pilegrimsleden:poi_type' v='Gapahuk;Dagsturhytte'/>
    <tag k='pilegrimsleden:id' v='504969'/>
    <tag k='amenity' v='shelter'/>
    <tag k='shelter_type' v='lean_to'/>
  </node>
  <node id='-10' version='0' action='modify' visible='true' lat='61.1843165' lon='5.3427748'>
    <tag k='name' v='Dagsturhytta Sørefjordhytta'/>
    <tag k='source' v='pilegrimsleden.no'/>
    <tag k='url' v='https://www.pilegrimsleden.no/interessepunkter/dagsturhytta-sorefjordhytta'/>
    <tag k='network' v='Pilegrimsleden'/>
    <tag k='note:trail' v='Kystpilegrimsleia'/>
    <tag k='pilegrimsleden:poi_type' v='Gapahuk;Dagsturhytte'/>
    <tag k='pilegrimsleden:id' v='355848'/>
    <tag k='amenity' v='shelter'/>
    <tag k='shelter_type' v='lean_to'/>
  </node>
  <node id='-11' version='0' action='modify' visible='true' lat='63.3276488' lon='8.0529468'>
    <tag k='name' v='Eco Camp Norway på Smøla'/>
    <tag k='source' v='pilegrimsleden.no'/>
    <tag k='url' v='https://www.pilegrimsleden.no/interessepunkter/pilegrimsherberge-pa-smola'/>
    <tag k='network' v='Pilegrimsleden'/>
    <tag k='note:trail' v='Kystpilegrimsleia'/>
    <tag k='pilegrimsleden:poi_type' v='Pilegrimsherberge;Vandrerhjem'/>
    <tag k='pilegrimsleden:id' v='95713'/>
    <tag k='tourism' v='hostel'/>
    <tag k='hostel:type' v='pilgrim'/>
    <tag k='note:osm_mapping' v='uncertain OSM equivalent for category Pilegrimsherberge'/>
  </node>
  <node id='-12' version='0' action='modify' visible='true' lat='62.6573691' lon='7.3728435'>
    <tag k='name' v='Fjøsen Bed &amp; make your own breakfast'/>
    <tag k='source' v='pilegrimsleden.no'/>
    <tag k='url' v='https://www.pilegrimsleden.no/interessepunkter/sekken-bed-make-your-own-breakfast'/>
    <tag k='network' v='Pilegrimsleden'/>
    <tag k='note:trail' v='Kystpilegrimsleia'/>
    <tag k='pilegrimsleden:poi_type' v='Rom og hytter'/>
    <tag k='pilegrimsleden:id' v='533522'/>
    <tag k='tourism' v='chalet'/>
  </node>
  <node id='-13' version='0' action='modify' visible='true' lat='58.5440423' lon='5.6816364'>
    <tag k='name' v='Friluftsfyret Kvassheim'/>
    <tag k='source' v='pilegrimsleden.no'/>
    <tag k='url' v='https://www.pilegrimsleden.no/interessepunkter/friluftsfyret-kvassheim'/>
    <tag k='network' v='Pilegrimsleden'/>
    <tag k='note:trail' v='Kystpilegrimsleia'/>
    <tag k='pilegrimsleden:poi_type' v='Pilegrimsherberge'/>
    <tag k='pilegrimsleden:id' v='534099'/>
    <tag k='tourism' v='hostel'/>
    <tag k='hostel:type' v='pilgrim'/>
    <tag k='note:osm_mapping' v='uncertain OSM equivalent for category Pilegrimsherberge'/>
  </node>
  <node id='-14' version='0' action='modify' visible='true' lat='62.1237318' lon='5.3131256'>
    <tag k='name' v='Fru Ingas Apartments'/>
    <tag k='source' v='pilegrimsleden.no'/>
    <tag k='url' v='https://www.pilegrimsleden.no/interessepunkter/fru-ingas-apartments'/>
    <tag k='network' v='Pilegrimsleden'/>
    <tag k='note:trail' v='Kystpilegrimsleia'/>
    <tag k='pilegrimsleden:poi_type' v='Rorbu'/>
    <tag k='pilegrimsleden:id' v='505081'/>
    <tag k='tourism' v='chalet'/>
    <tag k='note:osm_mapping' v='uncertain OSM equivalent for category Rorbu'/>
  </node>
  <node id='-15' version='0' action='modify' visible='true' lat='63.8480640' lon='8.4537920'>
    <tag k='name' v='Fyrvokterboligen ved Sula Fyr'/>
    <tag k='source' v='pilegrimsleden.no'/>
    <tag k='url' v='https://www.pilegrimsleden.no/interessepunkter/fyrvokterboligen-pa-sula'/>
    <tag k='network' v='Pilegrimsleden'/>
    <tag k='note:trail' v='Kystpilegrimsleia'/>
    <tag k='pilegrimsleden:poi_type' v='Pilegrimsherberge'/>
    <tag k='pilegrimsleden:id' v='346923'/>
    <tag k='tourism' v='hostel'/>
    <tag k='hostel:type' v='pilgrim'/>
    <tag k='note:osm_mapping' v='uncertain OSM equivalent for category Pilegrimsherberge'/>
  </node>
  <node id='-16' version='0' action='modify' visible='true' lat='62.4744002' lon='6.2064004'>
    <tag k='name' v='Gapahuk Aksla'/>
    <tag k='source' v='pilegrimsleden.no'/>
    <tag k='url' v='https://www.pilegrimsleden.no/interessepunkter/gapahuk-aksla'/>
    <tag k='network' v='Pilegrimsleden'/>
    <tag k='note:trail' v='Kystpilegrimsleia'/>
    <tag k='pilegrimsleden:poi_type' v='Gapahuk'/>
    <tag k='pilegrimsleden:id' v='437688'/>
    <tag k='amenity' v='shelter'/>
    <tag k='shelter_type' v='lean_to'/>
  </node>
  <node id='-17' version='0' action='modify' visible='true' lat='63.6131966' lon='9.8531485'>
    <tag k='name' v='Gapahuk i Fagerdalen'/>
    <tag k='source' v='pilegrimsleden.no'/>
    <tag k='url' v='https://www.pilegrimsleden.no/interessepunkter/gapahuk-i-fagerdalen'/>
    <tag k='network' v='Pilegrimsleden'/>
    <tag k='note:trail' v='Kystpilegrimsleia'/>
    <tag k='pilegrimsleden:poi_type' v='Gapahuk'/>
    <tag k='pilegrimsleden:id' v='393687'/>
    <tag k='amenity' v='shelter'/>
    <tag k='shelter_type' v='lean_to'/>
  </node>
  <node id='-18' version='0' action='modify' visible='true' lat='63.0080037' lon='7.7164520'>
    <tag k='name' v='Gapahuk på Kvernes'/>
    <tag k='source' v='pilegrimsleden.no'/>
    <tag k='url' v='https://www.pilegrimsleden.no/interessepunkter/gapahuk-pa-kvernes'/>
    <tag k='network' v='Pilegrimsleden'/>
    <tag k='note:trail' v='Kystpilegrimsleia'/>
    <tag k='pilegrimsleden:poi_type' v='Gapahuk'/>
    <tag k='pilegrimsleden:id' v='437638'/>
    <tag k='amenity' v='shelter'/>
    <tag k='shelter_type' v='lean_to'/>
  </node>
  <node id='-19' version='0' action='modify' visible='true' lat='63.3074055' lon='8.0120373'>
    <tag k='name' v='Gapahuken på Rosvollhaugen'/>
    <tag k='source' v='pilegrimsleden.no'/>
    <tag k='url' v='https://www.pilegrimsleden.no/interessepunkter/gapahuken-pa-rosvollhaugen'/>
    <tag k='network' v='Pilegrimsleden'/>
    <tag k='note:trail' v='Kystpilegrimsleia'/>
    <tag k='pilegrimsleden:poi_type' v='Gapahuk'/>
    <tag k='pilegrimsleden:id' v='437986'/>
    <tag k='amenity' v='shelter'/>
    <tag k='shelter_type' v='lean_to'/>
  </node>
  <node id='-20' version='0' action='modify' visible='true' lat='63.5804899' lon='9.9561704'>
    <tag k='name' v='Gjertrudstua'/>
    <tag k='source' v='pilegrimsleden.no'/>
    <tag k='url' v='https://www.pilegrimsleden.no/interessepunkter/gjertrudstua'/>
    <tag k='network' v='Pilegrimsleden'/>
    <tag k='note:trail' v='Kystpilegrimsleia'/>
    <tag k='pilegrimsleden:poi_type' v='Rom og hytter'/>
    <tag k='pilegrimsleden:id' v='106546'/>
    <tag k='tourism' v='chalet'/>
  </node>
  <node id='-21' version='0' action='modify' visible='true' lat='59.7940744' lon='5.7095446'>
    <tag k='name' v='Gjestegården Halsnøy'/>
    <tag k='source' v='pilegrimsleden.no'/>
    <tag k='url' v='https://www.pilegrimsleden.no/interessepunkter/gjestegarden-halsnoy'/>
    <tag k='network' v='Pilegrimsleden'/>
    <tag k='note:trail' v='Kystpilegrimsleia'/>
    <tag k='pilegrimsleden:poi_type' v='Rom og hytter'/>
    <tag k='pilegrimsleden:id' v='539203'/>
    <tag k='tourism' v='chalet'/>
  </node>
  <node id='-22' version='0' action='modify' visible='true' lat='61.1501971' lon='5.1780851'>
    <tag k='name' v='Hatlems Hytter'/>
    <tag k='source' v='pilegrimsleden.no'/>
    <tag k='url' v='https://www.pilegrimsleden.no/interessepunkter/hatlems-hytter'/>
    <tag k='network' v='Pilegrimsleden'/>
    <tag k='note:trail' v='Kystpilegrimsleia'/>
    <tag k='pilegrimsleden:poi_type' v='Rom og hytter'/>
    <tag k='pilegrimsleden:id' v='352545'/>
    <tag k='tourism' v='chalet'/>
  </node>
  <node id='-23' version='0' action='modify' visible='true' lat='62.1277389' lon='5.1629276'>
    <tag k='name' v='Hoddevik strandcamping'/>
    <tag k='source' v='pilegrimsleden.no'/>
    <tag k='url' v='https://www.pilegrimsleden.no/interessepunkter/hoddevik-strandcamping'/>
    <tag k='network' v='Pilegrimsleden'/>
    <tag k='note:trail' v='Kystpilegrimsleia'/>
    <tag k='pilegrimsleden:poi_type' v='Campingplass'/>
    <tag k='pilegrimsleden:id' v='503947'/>
    <tag k='tourism' v='camp_site'/>
  </node>
  <node id='-24' version='0' action='modify' visible='true' lat='58.6135920' lon='5.6175515'>
    <tag k='name' v='Huset ved havet'/>
    <tag k='source' v='pilegrimsleden.no'/>
    <tag k='url' v='https://www.pilegrimsleden.no/interessepunkter/huset-ved-havet'/>
    <tag k='network' v='Pilegrimsleden'/>
    <tag k='note:trail' v='Kystpilegrimsleia'/>
    <tag k='pilegrimsleden:poi_type' v='Pilegrimsherberge'/>
    <tag k='pilegrimsleden:id' v='479058'/>
    <tag k='tourism' v='hostel'/>
    <tag k='hostel:type' v='pilgrim'/>
    <tag k='note:osm_mapping' v='uncertain OSM equivalent for category Pilegrimsherberge'/>
  </node>
  <node id='-25' version='0' action='modify' visible='true' lat='62.0389756' lon='5.5217335'>
    <tag k='name' v='Jetmund Gjesteheim'/>
    <tag k='source' v='pilegrimsleden.no'/>
    <tag k='url' v='https://www.pilegrimsleden.no/interessepunkter/jetmund-gjesteheim'/>
    <tag k='network' v='Pilegrimsleden'/>
    <tag k='note:trail' v='Kystpilegrimsleia'/>
    <tag k='pilegrimsleden:poi_type' v='Vandrerhjem'/>
    <tag k='pilegrimsleden:id' v='505122'/>
    <tag k='tourism' v='hostel'/>
  </node>
  <node id='-26' version='0' action='modify' visible='true' lat='61.5664609' lon='4.7650116'>
    <tag k='name' v='Kinn Gjestehus'/>
    <tag k='source' v='pilegrimsleden.no'/>
    <tag k='url' v='https://www.pilegrimsleden.no/interessepunkter/kinn-gjestehus'/>
    <tag k='network' v='Pilegrimsleden'/>
    <tag k='note:trail' v='Kystpilegrimsleia'/>
    <tag k='pilegrimsleden:poi_type' v='Pilegrimsherberge'/>
    <tag k='pilegrimsleden:id' v='143668'/>
    <tag k='tourism' v='hostel'/>
    <tag k='hostel:type' v='pilgrim'/>
    <tag k='note:osm_mapping' v='uncertain OSM equivalent for category Pilegrimsherberge'/>
  </node>
  <node id='-27' version='0' action='modify' visible='true' lat='61.5656813' lon='4.7674281'>
    <tag k='name' v='Kinn Skulehus'/>
    <tag k='source' v='pilegrimsleden.no'/>
    <tag k='url' v='https://www.pilegrimsleden.no/interessepunkter/kinn-skulehus'/>
    <tag k='network' v='Pilegrimsleden'/>
    <tag k='note:trail' v='Kystpilegrimsleia'/>
    <tag k='pilegrimsleden:poi_type' v='Pilegrimsherberge'/>
    <tag k='pilegrimsleden:id' v='310369'/>
    <tag k='tourism' v='hostel'/>
    <tag k='hostel:type' v='pilgrim'/>
    <tag k='note:osm_mapping' v='uncertain OSM equivalent for category Pilegrimsherberge'/>
  </node>
  <node id='-28' version='0' action='modify' visible='true' lat='62.2723994' lon='5.8258360'>
    <tag k='name' v='Kjeldsund leirstad og gjestegard'/>
    <tag k='source' v='pilegrimsleden.no'/>
    <tag k='url' v='https://www.pilegrimsleden.no/interessepunkter/kjeldsund-pilegrimsherberge-og-leirstad'/>
    <tag k='network' v='Pilegrimsleden'/>
    <tag k='note:trail' v='Kystpilegrimsleia'/>
    <tag k='pilegrimsleden:poi_type' v='Pilegrimsherberge;Rom og hytter;Gapahuk;Rasteplass'/>
    <tag k='pilegrimsleden:id' v='397214'/>
    <tag k='amenity' v='shelter'/>
    <tag k='shelter_type' v='lean_to'/>
  </node>
  <node id='-29' version='0' action='modify' visible='true' lat='62.2227180' lon='5.5412259'>
    <tag k='name' v='Kråen Gard'/>
    <tag k='source' v='pilegrimsleden.no'/>
    <tag k='url' v='https://www.pilegrimsleden.no/interessepunkter/kraen-gard-gardsherberge'/>
    <tag k='network' v='Pilegrimsleden'/>
    <tag k='note:trail' v='Kystpilegrimsleia'/>
    <tag k='pilegrimsleden:poi_type' v='Pilegrimsherberge;Glamping'/>
    <tag k='pilegrimsleden:id' v='352655'/>
    <tag k='tourism' v='hostel'/>
    <tag k='hostel:type' v='pilgrim'/>
    <tag k='note:osm_mapping' v='uncertain OSM equivalent for category Pilegrimsherberge'/>
  </node>
  <node id='-30' version='0' action='modify' visible='true' lat='63.0054590' lon='7.7218786'>
    <tag k='name' v='Kvernes på Averøy | Nøkkelsted'/>
    <tag k='source' v='pilegrimsleden.no'/>
    <tag k='url' v='https://www.pilegrimsleden.no/interessepunkter/kvernes-pa-averoy'/>
    <tag k='network' v='Pilegrimsleden'/>
    <tag k='note:trail' v='Kystpilegrimsleia'/>
    <tag k='pilegrimsleden:poi_type' v='Pilegrimsherberge'/>
    <tag k='pilegrimsleden:id' v='83140'/>
    <tag k='tourism' v='hostel'/>
    <tag k='hostel:type' v='pilgrim'/>
    <tag k='note:osm_mapping' v='uncertain OSM equivalent for category Pilegrimsherberge'/>
  </node>
  <node id='-31' version='0' action='modify' visible='true' lat='62.2792839' lon='5.6271238'>
    <tag k='name' v='Kvile- og lesebu i Moltudalen'/>
    <tag k='source' v='pilegrimsleden.no'/>
    <tag k='url' v='https://www.pilegrimsleden.no/interessepunkter/kvile-og-lesebu-i-moltudalen'/>
    <tag k='network' v='Pilegrimsleden'/>
    <tag k='note:trail' v='Kystpilegrimsleia'/>
    <tag k='pilegrimsleden:poi_type' v='Gapahuk;Dagsturhytte'/>
    <tag k='pilegrimsleden:id' v='475744'/>
    <tag k='amenity' v='shelter'/>
    <tag k='shelter_type' v='lean_to'/>
  </node>
  <node id='-32' version='0' action='modify' visible='true' lat='62.7424209' lon='7.2335036'>
    <tag k='name' v='Kviltorp camping - Molde'/>
    <tag k='source' v='pilegrimsleden.no'/>
    <tag k='url' v='https://www.pilegrimsleden.no/interessepunkter/kviltorp-camping-molde'/>
    <tag k='network' v='Pilegrimsleden'/>
    <tag k='note:trail' v='Kystpilegrimsleia'/>
    <tag k='pilegrimsleden:poi_type' v='Campingplass'/>
    <tag k='pilegrimsleden:id' v='508008'/>
    <tag k='tourism' v='camp_site'/>
  </node>
  <node id='-33' version='0' action='modify' visible='true' lat='61.2722307' lon='4.9482290'>
    <tag k='name' v='Lammetun ferie og fritid'/>
    <tag k='source' v='pilegrimsleden.no'/>
    <tag k='url' v='https://www.pilegrimsleden.no/interessepunkter/lammetun-ferie-og-fritid'/>
    <tag k='network' v='Pilegrimsleden'/>
    <tag k='note:trail' v='Kystpilegrimsleia'/>
    <tag k='pilegrimsleden:poi_type' v='Campingplass'/>
    <tag k='pilegrimsleden:id' v='501830'/>
    <tag k='tourism' v='camp_site'/>
  </node>
  <node id='-34' version='0' action='modify' visible='true' lat='62.3136849' lon='5.7074205'>
    <tag k='name' v='Lanternen hytte og bobilplass'/>
    <tag k='source' v='pilegrimsleden.no'/>
    <tag k='url' v='https://www.pilegrimsleden.no/interessepunkter/lanternen-hytte-og-bobilplass'/>
    <tag k='network' v='Pilegrimsleden'/>
    <tag k='note:trail' v='Kystpilegrimsleia'/>
    <tag k='pilegrimsleden:poi_type' v='Rom og hytter'/>
    <tag k='pilegrimsleden:id' v='397289'/>
    <tag k='tourism' v='chalet'/>
  </node>
  <node id='-35' version='0' action='modify' visible='true' lat='60.6927608' lon='5.1092212'>
    <tag k='name' v='Magnusgarden'/>
    <tag k='source' v='pilegrimsleden.no'/>
    <tag k='url' v='https://www.pilegrimsleden.no/interessepunkter/magnusgarden'/>
    <tag k='network' v='Pilegrimsleden'/>
    <tag k='note:trail' v='Kystpilegrimsleia'/>
    <tag k='pilegrimsleden:poi_type' v='Pilegrimsherberge'/>
    <tag k='pilegrimsleden:id' v='514772'/>
    <tag k='tourism' v='hostel'/>
    <tag k='hostel:type' v='pilgrim'/>
    <tag k='note:osm_mapping' v='uncertain OSM equivalent for category Pilegrimsherberge'/>
  </node>
  <node id='-36' version='0' action='modify' visible='true' lat='63.5189518' lon='7.9531674'>
    <tag k='name' v='Olsens Pensjonat &amp; Gjestehus'/>
    <tag k='source' v='pilegrimsleden.no'/>
    <tag k='url' v='https://www.pilegrimsleden.no/interessepunkter/olsens-pensjonat-gjestehus'/>
    <tag k='network' v='Pilegrimsleden'/>
    <tag k='note:trail' v='Kystpilegrimsleia'/>
    <tag k='pilegrimsleden:poi_type' v='Rom og hytter'/>
    <tag k='pilegrimsleden:id' v='493099'/>
    <tag k='tourism' v='chalet'/>
  </node>
  <node id='-37' version='0' action='modify' visible='true' lat='59.3805140' lon='5.2371622'>
    <tag k='name' v='Overnatting i stabbur med fire sengeplasser på Karmøy'/>
    <tag k='source' v='pilegrimsleden.no'/>
    <tag k='url' v='https://www.pilegrimsleden.no/interessepunkter/historisk-stabbur-pa-karmoy'/>
    <tag k='network' v='Pilegrimsleden'/>
    <tag k='note:trail' v='Kystpilegrimsleia'/>
    <tag k='pilegrimsleden:poi_type' v='Pilegrimsherberge'/>
    <tag k='pilegrimsleden:id' v='529992'/>
    <tag k='tourism' v='hostel'/>
    <tag k='hostel:type' v='pilgrim'/>
    <tag k='note:osm_mapping' v='uncertain OSM equivalent for category Pilegrimsherberge'/>
  </node>
  <node id='-38' version='0' action='modify' visible='true' lat='62.0445246' lon='5.3455867'>
    <tag k='name' v='Pilegrimsherberge i Selje prestegard'/>
    <tag k='source' v='pilegrimsleden.no'/>
    <tag k='url' v='https://www.pilegrimsleden.no/interessepunkter/pilegrimsherberge-i-selje-prestegard'/>
    <tag k='network' v='Pilegrimsleden'/>
    <tag k='note:trail' v='Kystpilegrimsleia'/>
    <tag k='pilegrimsleden:poi_type' v='Pilegrimsherberge'/>
    <tag k='pilegrimsleden:id' v='504146'/>
    <tag k='tourism' v='hostel'/>
    <tag k='hostel:type' v='pilgrim'/>
    <tag k='note:osm_mapping' v='uncertain OSM equivalent for category Pilegrimsherberge'/>
  </node>
  <node id='-39' version='0' action='modify' visible='true' lat='61.4934509' lon='5.1319142'>
    <tag k='name' v='Pilegrimsherberge på Svanøy hovedgård'/>
    <tag k='source' v='pilegrimsleden.no'/>
    <tag k='url' v='https://www.pilegrimsleden.no/interessepunkter/pilegrimsherberge-pa-svanoy-hovedgard'/>
    <tag k='network' v='Pilegrimsleden'/>
    <tag k='note:trail' v='Kystpilegrimsleia'/>
    <tag k='pilegrimsleden:poi_type' v='Pilegrimsherberge'/>
    <tag k='pilegrimsleden:id' v='505654'/>
    <tag k='tourism' v='hostel'/>
    <tag k='hostel:type' v='pilgrim'/>
    <tag k='note:osm_mapping' v='uncertain OSM equivalent for category Pilegrimsherberge'/>
  </node>
  <node id='-40' version='0' action='modify' visible='true' lat='58.7680291' lon='5.5125448'>
    <tag k='name' v='Reveparken hytteutleige - overnatting direkte ved Jærstrendene'/>
    <tag k='source' v='pilegrimsleden.no'/>
    <tag k='url' v='https://www.pilegrimsleden.no/interessepunkter/velkommen-til-overnatting-ved-jaerstrendene'/>
    <tag k='network' v='Pilegrimsleden'/>
    <tag k='note:trail' v='Kystpilegrimsleia'/>
    <tag k='pilegrimsleden:poi_type' v='Pilegrimsherberge'/>
    <tag k='pilegrimsleden:id' v='210140'/>
    <tag k='tourism' v='hostel'/>
    <tag k='hostel:type' v='pilgrim'/>
    <tag k='note:osm_mapping' v='uncertain OSM equivalent for category Pilegrimsherberge'/>
  </node>
  <node id='-41' version='0' action='modify' visible='true' lat='62.0410156' lon='5.3563981'>
    <tag k='name' v='Selje camp og hyttesenter'/>
    <tag k='source' v='pilegrimsleden.no'/>
    <tag k='url' v='https://www.pilegrimsleden.no/interessepunkter/selje-camp-og-hyttesenter'/>
    <tag k='network' v='Pilegrimsleden'/>
    <tag k='note:trail' v='Kystpilegrimsleia'/>
    <tag k='pilegrimsleden:poi_type' v='Campingplass'/>
    <tag k='pilegrimsleden:id' v='340929'/>
    <tag k='tourism' v='camp_site'/>
  </node>
  <node id='-42' version='0' action='modify' visible='true' lat='62.0457947' lon='5.3430192'>
    <tag k='name' v='Seljebuda'/>
    <tag k='source' v='pilegrimsleden.no'/>
    <tag k='url' v='https://www.pilegrimsleden.no/interessepunkter/seljebuda'/>
    <tag k='network' v='Pilegrimsleden'/>
    <tag k='note:trail' v='Kystpilegrimsleia'/>
    <tag k='pilegrimsleden:poi_type' v='Pilegrimsherberge'/>
    <tag k='pilegrimsleden:id' v='165980'/>
    <tag k='tourism' v='hostel'/>
    <tag k='hostel:type' v='pilgrim'/>
    <tag k='note:osm_mapping' v='uncertain OSM equivalent for category Pilegrimsherberge'/>
  </node>
  <node id='-43' version='0' action='modify' visible='true' lat='62.0448474' lon='5.3566106'>
    <tag k='name' v='Sjøglytt'/>
    <tag k='source' v='pilegrimsleden.no'/>
    <tag k='url' v='https://www.pilegrimsleden.no/interessepunkter/sjoglytt'/>
    <tag k='network' v='Pilegrimsleden'/>
    <tag k='note:trail' v='Kystpilegrimsleia'/>
    <tag k='pilegrimsleden:poi_type' v='Gapahuk;Dagsturhytte'/>
    <tag k='pilegrimsleden:id' v='341119'/>
    <tag k='amenity' v='shelter'/>
    <tag k='shelter_type' v='lean_to'/>
  </node>
  <node id='-44' version='0' action='modify' visible='true' lat='61.9174036' lon='5.1340528'>
    <tag k='name' v='Steinvik camping'/>
    <tag k='source' v='pilegrimsleden.no'/>
    <tag k='url' v='https://www.pilegrimsleden.no/interessepunkter/steinvik-camping'/>
    <tag k='network' v='Pilegrimsleden'/>
    <tag k='note:trail' v='Kystpilegrimsleia'/>
    <tag k='pilegrimsleden:poi_type' v='Campingplass'/>
    <tag k='pilegrimsleden:id' v='503574'/>
    <tag k='tourism' v='camp_site'/>
  </node>
  <node id='-45' version='0' action='modify' visible='true' lat='63.8429407' lon='8.4470407'>
    <tag k='name' v='Sula havglamping'/>
    <tag k='source' v='pilegrimsleden.no'/>
    <tag k='url' v='https://www.pilegrimsleden.no/interessepunkter/sula-havglamping'/>
    <tag k='network' v='Pilegrimsleden'/>
    <tag k='note:trail' v='Kystpilegrimsleia'/>
    <tag k='pilegrimsleden:poi_type' v='Pilegrimsherberge;Glamping'/>
    <tag k='pilegrimsleden:id' v='359683'/>
    <tag k='tourism' v='hostel'/>
    <tag k='hostel:type' v='pilgrim'/>
    <tag k='note:osm_mapping' v='uncertain OSM equivalent for category Pilegrimsherberge'/>
  </node>
  <node id='-46' version='0' action='modify' visible='true' lat='62.0440852' lon='5.3432702'>
    <tag k='name' v='Sætren Rorbuer'/>
    <tag k='source' v='pilegrimsleden.no'/>
    <tag k='url' v='https://www.pilegrimsleden.no/interessepunkter/saetren-rorbuer'/>
    <tag k='network' v='Pilegrimsleden'/>
    <tag k='note:trail' v='Kystpilegrimsleia'/>
    <tag k='pilegrimsleden:poi_type' v='Pilegrimsherberge'/>
    <tag k='pilegrimsleden:id' v='166323'/>
    <tag k='tourism' v='hostel'/>
    <tag k='hostel:type' v='pilgrim'/>
    <tag k='note:osm_mapping' v='uncertain OSM equivalent for category Pilegrimsherberge'/>
  </node>
  <node id='-47' version='0' action='modify' visible='true' lat='59.7020599' lon='5.3826386'>
    <tag k='name' v='Telegrafen - Moster Amfi'/>
    <tag k='source' v='pilegrimsleden.no'/>
    <tag k='url' v='https://www.pilegrimsleden.no/interessepunkter/telegrafen-moster-amfi'/>
    <tag k='network' v='Pilegrimsleden'/>
    <tag k='note:trail' v='Kystpilegrimsleia'/>
    <tag k='pilegrimsleden:poi_type' v='Pilegrimsherberge'/>
    <tag k='pilegrimsleden:id' v='514817'/>
    <tag k='tourism' v='hostel'/>
    <tag k='hostel:type' v='pilgrim'/>
    <tag k='note:osm_mapping' v='uncertain OSM equivalent for category Pilegrimsherberge'/>
  </node>
  <node id='-48' version='0' action='modify' visible='true' lat='62.0843660' lon='5.5781138'>
    <tag k='name' v='Tunheimsfjøra logde'/>
    <tag k='source' v='pilegrimsleden.no'/>
    <tag k='url' v='https://www.pilegrimsleden.no/interessepunkter/tunheimsfjora-logde'/>
    <tag k='network' v='Pilegrimsleden'/>
    <tag k='note:trail' v='Kystpilegrimsleia'/>
    <tag k='pilegrimsleden:poi_type' v='Rorbu'/>
    <tag k='pilegrimsleden:id' v='505138'/>
    <tag k='tourism' v='chalet'/>
    <tag k='note:osm_mapping' v='uncertain OSM equivalent for category Rorbu'/>
  </node>
  <node id='-49' version='0' action='modify' visible='true' lat='63.5948164' lon='9.9625289'>
    <tag k='name' v='Årnseth Gapahuk'/>
    <tag k='source' v='pilegrimsleden.no'/>
    <tag k='url' v='https://www.pilegrimsleden.no/interessepunkter/arnseth-gapahuk'/>
    <tag k='network' v='Pilegrimsleden'/>
    <tag k='note:trail' v='Kystpilegrimsleia'/>
    <tag k='pilegrimsleden:poi_type' v='Gapahuk'/>
    <tag k='pilegrimsleden:id' v='393793'/>
    <tag k='amenity' v='shelter'/>
    <tag k='shelter_type' v='lean_to'/>
  </node>
</osm>
