<?xml version='1.0' encoding='UTF-8'?>
<osm version='0.6' generator='pilegrimsleden-osm-extractor 1.0'>
  <node id='-1' version='0' action='modify' visible='true' lat='63.4313480' lon='10.3748330'/>
  <node id='-2' version='0' action='modify' visible='true' lat='63.4315804' lon='10.3749154'/>
  <node id='-3' version='0' action='modify' visible='true' lat='63.4313480' lon='10.3748330'/>
  <node id='-4' version='0' action='modify' visible='true' lat='63.4312957' lon='10.3748144'/>
  <node id='-5' version='0' action='modify' visible='true' lat='63.4312711' lon='10.3748039'/>
  <node id='-6' version='0' action='modify' visible='true' lat='63.4312538' lon='10.3747971'/>
  <node id='-7' version='0' action='modify' visible='true' lat='63.4312214' lon='10.3747823'/>
  <node id='-8' version='0' action='modify' visible='true' lat='63.4312127' lon='10.3747787'/>
  <node id='-9' version='0' action='modify' visible='true' lat='63.4311906' lon='10.3747695'/>
  <node id='-10' version='0' action='modify' visible='true' lat='63.4311955' lon='10.3751440'/>
  <node id='-11' version='0' action='modify' visible='true' lat='63.4312003' lon='10.3760776'/>
  <node id='-12' version='0' action='modify' visible='true' lat='63.4312027' lon='10.3764649'/>
  <node id='-13' version='0' action='modify' visible='true' lat='63.4312173' lon='10.3767728'/>
  <node id='-14' version='0' action='modify' visible='true' lat='63.4312531' lon='10.3770508'/>
  <node id='-15' version='0' action='modify' visible='true' lat='63.4313132' lon='10.3773816'/>
  <node id='-16' version='0' action='modify' visible='true' lat='63.4313735' lon='10.3777088'/>
  <node id='-17' version='0' action='modify' visible='true' lat='63.4314159' lon='10.3779331'/>
  <node id='-18' version='0' action='modify' visible='true' lat='63.4315738' lon='10.3787609'/>
  <node id='-19' version='0' action='modify' visible='true' lat='63.4316005' lon='10.3788018'/>
  <node id='-20' version='0' action='modify' visible='true' lat='63.4316283' lon='10.3788779'/>
  <node id='-21' version='0' action='modify' visible='true' lat='63.4316948' lon='10.3791760'/>
  <node id='-22' version='0' action='modify' visible='true' lat='63.4317285' lon='10.3793272'/>
  <node id='-23' version='0' action='modify' visible='true' lat='63.4316740' lon='10.3793992'/>
  <node id='-24' version='0' action='modify' visible='true' lat='63.4315893' lon='10.3795101'/>
  <node id='-25' version='0' action='modify' visible='true' lat='63.4315198' lon='10.3795861'/>
  <node id='-26' version='0' action='modify' visible='true' lat='63.4314160' lon='10.3796965'/>
  <node id='-27' version='0' action='modify' visible='true' lat='63.4312962' lon='10.3798415'/>
  <node id='-28' version='0' action='modify' visible='true' lat='63.4313017' lon='10.3801541'/>
  <node id='-29' version='0' action='modify' visible='true' lat='63.4312502' lon='10.3801722'/>
  <node id='-30' version='0' action='modify' visible='true' lat='63.4312912' lon='10.3813565'/>
  <node id='-31' version='0' action='modify' visible='true' lat='63.4312971' lon='10.3815277'/>
  <node id='-32' version='0' action='modify' visible='true' lat='63.4313509' lon='10.3821889'/>
  <node id='-33' version='0' action='modify' visible='true' lat='63.4313605' lon='10.3823145'/>
  <node id='-34' version='0' action='modify' visible='true' lat='63.4314174' lon='10.3830562'/>
  <node id='-35' version='0' action='modify' visible='true' lat='63.4314748' lon='10.3839805'/>
  <node id='-36' version='0' action='modify' visible='true' lat='63.4314931' lon='10.3842504'/>
  <node id='-37' version='0' action='modify' visible='true' lat='63.4315161' lon='10.3844981'/>
  <node id='-38' version='0' action='modify' visible='true' lat='63.4315467' lon='10.3848293'/>
  <node id='-39' version='0' action='modify' visible='true' lat='63.4315839' lon='10.3851478'/>
  <node id='-40' version='0' action='modify' visible='true' lat='63.4315984' lon='10.3852669'/>
  <node id='-41' version='0' action='modify' visible='true' lat='63.4316578' lon='10.3857546'/>
  <node id='-42' version='0' action='modify' visible='true' lat='63.4317334' lon='10.3862491'/>
  <node id='-43' version='0' action='modify' visible='true' lat='63.4317922' lon='10.3865742'/>
  <node id='-44' version='0' action='modify' visible='true' lat='63.4318094' lon='10.3866693'/>
  <node id='-45' version='0' action='modify' visible='true' lat='63.4319122' lon='10.3871284'/>
  <node id='-46' version='0' action='modify' visible='true' lat='63.4319180' lon='10.3871543'/>
  <node id='-47' version='0' action='modify' visible='true' lat='63.4319424' lon='10.3872631'/>
  <node id='-48' version='0' action='modify' visible='true' lat='63.4319691' lon='10.3873897'/>
  <node id='-49' version='0' action='modify' visible='true' lat='63.4323723' lon='10.3890587'/>
  <node id='-50' version='0' action='modify' visible='true' lat='63.4324137' lon='10.3892038'/>
  <node id='-51' version='0' action='modify' visible='true' lat='63.4324407' lon='10.3892989'/>
  <node id='-52' version='0' action='modify' visible='true' lat='63.4326478' lon='10.3891124'/>
  <node id='-53' version='0' action='modify' visible='true' lat='63.4328394' lon='10.3889396'/>
  <node id='-54' version='0' action='modify' visible='true' lat='63.4328886' lon='10.3890414'/>
  <node id='-55' version='0' action='modify' visible='true' lat='63.4330268' lon='10.3894324'/>
  <node id='-56' version='0' action='modify' visible='true' lat='63.4331600' lon='10.3898861'/>
  <node id='-57' version='0' action='modify' visible='true' lat='63.4333681' lon='10.3905521'/>
  <node id='-58' version='0' action='modify' visible='true' lat='63.4334603' lon='10.3908963'/>
  <node id='-59' version='0' action='modify' visible='true' lat='63.4335182' lon='10.3908367'/>
  <node id='-60' version='0' action='modify' visible='true' lat='63.4335991' lon='10.3911371'/>
  <node id='-61' version='0' action='modify' visible='true' lat='63.4336328' lon='10.3912787'/>
  <node id='-62' version='0' action='modify' visible='true' lat='63.4338674' lon='10.3918781'/>
  <node id='-63' version='0' action='modify' visible='true' lat='63.4338755' lon='10.3919037'/>
  <node id='-64' version='0' action='modify' visible='true' lat='63.4339918' lon='10.3922107'/>
  <node id='-65' version='0' action='modify' visible='true' lat='63.4340780' lon='10.3924956'/>
  <node id='-66' version='0' action='modify' visible='true' lat='63.4339539' lon='10.3926551'/>
  <node id='-67' version='0' action='modify' visible='true' lat='63.4338742' lon='10.3926548'/>
  <node id='-68' version='0' action='modify' visible='true' lat='63.4337939' lon='10.3927208'/>
  <node id='-69' version='0' action='modify' visible='true' lat='63.4338782' lon='10.3930652'/>
  <node id='-70' version='0' action='modify' visible='true' lat='63.4338895' lon='10.3933598'/>
  <node id='-71' version='0' action='modify' visible='true' lat='63.4338835' lon='10.3934374'/>
  <node id='-72' version='0' action='modify' visible='true' lat='63.4338829' lon='10.3934853'/>
  <node id='-73' version='0' action='modify' visible='true' lat='63.4339341' lon='10.3936006'/>
  <node id='-74' version='0' action='modify' visible='true' lat='63.4339833' lon='10.3935934'/>
  <node id='-75' version='0' action='modify' visible='true' lat='63.4340215' lon='10.3936350'/>
  <node id='-76' version='0' action='modify' visible='true' lat='63.4341750' lon='10.3941780'/>
  <node id='-77' version='0' action='modify' visible='true' lat='63.4343266' lon='10.3947178'/>
  <node id='-78' version='0' action='modify' visible='true' lat='63.4344427' lon='10.3952760'/>
  <node id='-79' version='0' action='modify' visible='true' lat='63.4344833' lon='10.3955406'/>
  <node id='-80' version='0' action='modify' visible='true' lat='63.4345076' lon='10.3957178'/>
  <node id='-81' version='0' action='modify' visible='true' lat='63.4345302' lon='10.3959507'/>
  <node id='-82' version='0' action='modify' visible='true' lat='63.4345700' lon='10.3965774'/>
  <node id='-83' version='0' action='modify' visible='true' lat='63.4345936' lon='10.3968186'/>
  <node id='-84' version='0' action='modify' visible='true' lat='63.4346161' lon='10.3970972'/>
  <node id='-85' version='0' action='modify' visible='true' lat='63.4346244' lon='10.3972318'/>
  <node id='-86' version='0' action='modify' visible='true' lat='63.4346963' lon='10.3984876'/>
  <node id='-87' version='0' action='modify' visible='true' lat='63.4347283' lon='10.3990672'/>
  <node id='-88' version='0' action='modify' visible='true' lat='63.4347704' lon='10.3994795'/>
  <node id='-89' version='0' action='modify' visible='true' lat='63.4347982' lon='10.3998835'/>
  <node id='-90' version='0' action='modify' visible='true' lat='63.4347973' lon='10.3999627'/>
  <node id='-91' version='0' action='modify' visible='true' lat='63.4347965' lon='10.4000256'/>
  <node id='-92' version='0' action='modify' visible='true' lat='63.4347993' lon='10.4001140'/>
  <node id='-93' version='0' action='modify' visible='true' lat='63.4348014' lon='10.4001795'/>
  <node id='-94' version='0' action='modify' visible='true' lat='63.4348033' lon='10.4002853'/>
  <node id='-95' version='0' action='modify' visible='true' lat='63.4348297' lon='10.4003430'/>
  <node id='-96' version='0' action='modify' visible='true' lat='63.4356834' lon='10.4000248'/>
  <node id='-97' version='0' action='modify' visible='true' lat='63.4365370' lon='10.3997065'/>
  <node id='-98' version='0' action='modify' visible='true' lat='63.4373907' lon='10.3993883'/>
  <node id='-99' version='0' action='modify' visible='true' lat='63.4376137' lon='10.3988601'/>
  <node id='-100' version='0' action='modify' visible='true' lat='63.4377235' lon='10.3987297'/>
  <node id='-101' version='0' action='modify' visible='true' lat='63.4378563' lon='10.3983632'/>
  <node id='-102' version='0' action='modify' visible='true' lat='63.4373907' lon='10.3993883'/>
  <node id='-103' version='0' action='modify' visible='true' lat='63.4371591' lon='10.3994045'/>
  <node id='-104' version='0' action='modify' visible='true' lat='63.4370504' lon='10.3994499'/>
  <node id='-105' version='0' action='modify' visible='true' lat='63.4367182' lon='10.3996851'/>
  <node id='-106' version='0' action='modify' visible='true' lat='63.4364587' lon='10.3999754'/>
  <node id='-107' version='0' action='modify' visible='true' lat='63.4364029' lon='10.4000219'/>
  <node id='-108' version='0' action='modify' visible='true' lat='63.4361871' lon='10.4001847'/>
  <node id='-109' version='0' action='modify' visible='true' lat='63.4361467' lon='10.4002102'/>
  <node id='-110' version='0' action='modify' visible='true' lat='63.4360619' lon='10.4002497'/>
  <node id='-111' version='0' action='modify' visible='true' lat='63.4360158' lon='10.4002712'/>
  <node id='-112' version='0' action='modify' visible='true' lat='63.4359733' lon='10.4002750'/>
  <node id='-113' version='0' action='modify' visible='true' lat='63.4359417' lon='10.4002778'/>
  <node id='-114' version='0' action='modify' visible='true' lat='63.4358798' lon='10.4002857'/>
  <node id='-115' version='0' action='modify' visible='true' lat='63.4358321' lon='10.4002893'/>
  <node id='-116' version='0' action='modify' visible='true' lat='63.4358158' lon='10.4002905'/>
  <node id='-117' version='0' action='modify' visible='true' lat='63.4356998' lon='10.4002020'/>
  <node id='-118' version='0' action='modify' visible='true' lat='63.4357753' lon='10.4002611'/>
  <node id='-119' version='0' action='modify' visible='true' lat='63.4357681' lon='10.4006198'/>
  <node id='-120' version='0' action='modify' visible='true' lat='63.4356998' lon='10.4002020'/>
  <node id='-121' version='0' action='modify' visible='true' lat='63.4356183' lon='10.4001878'/>
  <node id='-122' version='0' action='modify' visible='true' lat='63.4352119' lon='10.4002406'/>
  <node id='-123' version='0' action='modify' visible='true' lat='63.4348570' lon='10.4002965'/>
  <node id='-124' version='0' action='modify' visible='true' lat='63.4348297' lon='10.4003430'/>
  <node id='-125' version='0' action='modify' visible='true' lat='63.4348319' lon='10.4004184'/>
  <node id='-126' version='0' action='modify' visible='true' lat='63.4348497' lon='10.4012305'/>
  <node id='-127' version='0' action='modify' visible='true' lat='63.4348678' lon='10.4032095'/>
  <node id='-128' version='0' action='modify' visible='true' lat='63.4348511' lon='10.4035548'/>
  <node id='-129' version='0' action='modify' visible='true' lat='63.4348368' lon='10.4037295'/>
  <node id='-130' version='0' action='modify' visible='true' lat='63.4348194' lon='10.4039435'/>
  <node id='-131' version='0' action='modify' visible='true' lat='63.4347496' lon='10.4040755'/>
  <node id='-132' version='0' action='modify' visible='true' lat='63.4347436' lon='10.4041218'/>
  <node id='-133' version='0' action='modify' visible='true' lat='63.4347514' lon='10.4041850'/>
  <node id='-134' version='0' action='modify' visible='true' lat='63.4347340' lon='10.4044322'/>
  <node id='-135' version='0' action='modify' visible='true' lat='63.4347394' lon='10.4045576'/>
  <node id='-136' version='0' action='modify' visible='true' lat='63.4347325' lon='10.4047581'/>
  <node id='-137' version='0' action='modify' visible='true' lat='63.4346656' lon='10.4047909'/>
  <node id='-138' version='0' action='modify' visible='true' lat='63.4346431' lon='10.4047784'/>
  <node id='-139' version='0' action='modify' visible='true' lat='63.4345957' lon='10.4047520'/>
  <node id='-140' version='0' action='modify' visible='true' lat='63.4345472' lon='10.4047118'/>
  <node id='-141' version='0' action='modify' visible='true' lat='63.4345382' lon='10.4047043'/>
  <node id='-142' version='0' action='modify' visible='true' lat='63.4344851' lon='10.4047426'/>
  <node id='-143' version='0' action='modify' visible='true' lat='63.4342390' lon='10.4045328'/>
  <node id='-144' version='0' action='modify' visible='true' lat='63.4343468' lon='10.4033621'/>
  <node id='-145' version='0' action='modify' visible='true' lat='63.4338948' lon='10.4030011'/>
  <node id='-146' version='0' action='modify' visible='true' lat='63.4338680' lon='10.4029173'/>
  <node id='-147' version='0' action='modify' visible='true' lat='63.4333990' lon='10.4025016'/>
  <node id='-148' version='0' action='modify' visible='true' lat='63.4334059' lon='10.4024471'/>
  <node id='-149' version='0' action='modify' visible='true' lat='63.4334089' lon='10.4024232'/>
  <node id='-150' version='0' action='modify' visible='true' lat='63.4333915' lon='10.4023956'/>
  <node id='-151' version='0' action='modify' visible='true' lat='63.4333982' lon='10.4020359'/>
  <node id='-152' version='0' action='modify' visible='true' lat='63.4333836' lon='10.4020366'/>
  <node id='-153' version='0' action='modify' visible='true' lat='63.4333277' lon='10.4020314'/>
  <node id='-154' version='0' action='modify' visible='true' lat='63.4332725' lon='10.4020263'/>
  <node id='-155' version='0' action='modify' visible='true' lat='63.4332589' lon='10.4020228'/>
  <node id='-156' version='0' action='modify' visible='true' lat='63.4332346' lon='10.4021883'/>
  <node id='-157' version='0' action='modify' visible='true' lat='63.4332297' lon='10.4022929'/>
  <node id='-158' version='0' action='modify' visible='true' lat='63.4326678' lon='10.4016405'/>
  <node id='-159' version='0' action='modify' visible='true' lat='63.4325825' lon='10.4015413'/>
  <node id='-160' version='0' action='modify' visible='true' lat='63.4324475' lon='10.4014661'/>
  <node id='-161' version='0' action='modify' visible='true' lat='63.4319797' lon='10.4013333'/>
  <node id='-162' version='0' action='modify' visible='true' lat='63.4319037' lon='10.4012704'/>
  <node id='-163' version='0' action='modify' visible='true' lat='63.4318582' lon='10.4012338'/>
  <node id='-164' version='0' action='modify' visible='true' lat='63.4318262' lon='10.4012218'/>
  <node id='-165' version='0' action='modify' visible='true' lat='63.4316782' lon='10.4012022'/>
  <node id='-166' version='0' action='modify' visible='true' lat='63.4315604' lon='10.4011826'/>
  <node id='-167' version='0' action='modify' visible='true' lat='63.4313166' lon='10.4012388'/>
  <node id='-168' version='0' action='modify' visible='true' lat='63.4312320' lon='10.4011746'/>
  <node id='-169' version='0' action='modify' visible='true' lat='63.4312011' lon='10.4011583'/>
  <node id='-170' version='0' action='modify' visible='true' lat='63.4309824' lon='10.4010490'/>
  <node id='-171' version='0' action='modify' visible='true' lat='63.4309759' lon='10.4008196'/>
  <node id='-172' version='0' action='modify' visible='true' lat='63.4309531' lon='10.4006177'/>
  <node id='-173' version='0' action='modify' visible='true' lat='63.4309626' lon='10.4002996'/>
  <node id='-174' version='0' action='modify' visible='true' lat='63.4309636' lon='10.4002665'/>
  <node id='-175' version='0' action='modify' visible='true' lat='63.4309672' lon='10.4001444'/>
  <node id='-176' version='0' action='modify' visible='true' lat='63.4309677' lon='10.4000832'/>
  <node id='-177' version='0' action='modify' visible='true' lat='63.4309686' lon='10.3999806'/>
  <node id='-178' version='0' action='modify' visible='true' lat='63.4308784' lon='10.3999745'/>
  <node id='-179' version='0' action='modify' visible='true' lat='63.4304795' lon='10.3999495'/>
  <node id='-180' version='0' action='modify' visible='true' lat='63.4304340' lon='10.3999467'/>
  <node id='-181' version='0' action='modify' visible='true' lat='63.4304375' lon='10.3998637'/>
  <node id='-182' version='0' action='modify' visible='true' lat='63.4303654' lon='10.3998514'/>
  <node id='-183' version='0' action='modify' visible='true' lat='63.4303229' lon='10.3998442'/>
  <node id='-184' version='0' action='modify' visible='true' lat='63.4302844' lon='10.3998394'/>
  <node id='-185' version='0' action='modify' visible='true' lat='63.4302666' lon='10.3998372'/>
  <node id='-186' version='0' action='modify' visible='true' lat='63.4302722' lon='10.3996779'/>
  <node id='-187' version='0' action='modify' visible='true' lat='63.4302961' lon='10.3990270'/>
  <node id='-188' version='0' action='modify' visible='true' lat='63.4300888' lon='10.3989897'/>
  <node id='-189' version='0' action='modify' visible='true' lat='63.4299950' lon='10.3989643'/>
  <node id='-190' version='0' action='modify' visible='true' lat='63.4300033' lon='10.3986795'/>
  <node id='-191' version='0' action='modify' visible='true' lat='63.4298541' lon='10.3986546'/>
  <node id='-192' version='0' action='modify' visible='true' lat='63.4297601' lon='10.3980609'/>
  <node id='-193' version='0' action='modify' visible='true' lat='63.4297296' lon='10.3980598'/>
  <node id='-194' version='0' action='modify' visible='true' lat='63.4295369' lon='10.3980569'/>
  <node id='-195' version='0' action='modify' visible='true' lat='63.4293235' lon='10.3980766'/>
  <node id='-196' version='0' action='modify' visible='true' lat='63.4289075' lon='10.3980885'/>
  <node id='-197' version='0' action='modify' visible='true' lat='63.4288606' lon='10.3981118'/>
  <node id='-198' version='0' action='modify' visible='true' lat='63.4288126' lon='10.3981304'/>
  <node id='-199' version='0' action='modify' visible='true' lat='63.4284151' lon='10.3982838'/>
  <node id='-200' version='0' action='modify' visible='true' lat='63.4282597' lon='10.3983587'/>
  <node id='-201' version='0' action='modify' visible='true' lat='63.4279002' lon='10.3985524'/>
  <node id='-202' version='0' action='modify' visible='true' lat='63.4278955' lon='10.3984364'/>
  <node id='-203' version='0' action='modify' visible='true' lat='63.4278650' lon='10.3984489'/>
  <node id='-204' version='0' action='modify' visible='true' lat='63.4278372' lon='10.3984602'/>
  <node id='-205' version='0' action='modify' visible='true' lat='63.4278063' lon='10.3984728'/>
  <node id='-206' version='0' action='modify' visible='true' lat='63.4277799' lon='10.3984836'/>
  <node id='-207' version='0' action='modify' visible='true' lat='63.4277893' lon='10.3986193'/>
  <node id='-208' version='0' action='modify' visible='true' lat='63.4277736' lon='10.3986259'/>
  <node id='-209' version='0' action='modify' visible='true' lat='63.4277041' lon='10.3985257'/>
  <node id='-210' version='0' action='modify' visible='true' lat='63.4274712' lon='10.3980484'/>
  <node id='-211' version='0' action='modify' visible='true' lat='63.4272224' lon='10.3971680'/>
  <node id='-212' version='0' action='modify' visible='true' lat='63.4271760' lon='10.3968691'/>
  <node id='-213' version='0' action='modify' visible='true' lat='63.4271642' lon='10.3967270'/>
  <node id='-214' version='0' action='modify' visible='true' lat='63.4271388' lon='10.3964218'/>
  <node id='-215' version='0' action='modify' visible='true' lat='63.4271224' lon='10.3961308'/>
  <node id='-216' version='0' action='modify' visible='true' lat='63.4271163' lon='10.3960243'/>
  <node id='-217' version='0' action='modify' visible='true' lat='63.4271080' lon='10.3958309'/>
  <node id='-218' version='0' action='modify' visible='true' lat='63.4270756' lon='10.3951034'/>
  <node id='-219' version='0' action='modify' visible='true' lat='63.4270577' lon='10.3949388'/>
  <node id='-220' version='0' action='modify' visible='true' lat='63.4270370' lon='10.3949334'/>
  <node id='-221' version='0' action='modify' visible='true' lat='63.4270127' lon='10.3949296'/>
  <node id='-222' version='0' action='modify' visible='true' lat='63.4265880' lon='10.3948507'/>
  <node id='-223' version='0' action='modify' visible='true' lat='63.4265029' lon='10.3948399'/>
  <way id='-224' version='0' action='modify' visible='true'>
    <nd ref='-1'/>
    <nd ref='-2'/>
    <nd ref='-3'/>
    <nd ref='-4'/>
    <nd ref='-5'/>
    <nd ref='-6'/>
    <nd ref='-7'/>
    <nd ref='-8'/>
    <nd ref='-9'/>
    <nd ref='-10'/>
    <nd ref='-11'/>
    <nd ref='-12'/>
    <nd ref='-13'/>
    <nd ref='-14'/>
    <nd ref='-15'/>
    <nd ref='-16'/>
    <nd ref='-17'/>
    <nd ref='-18'/>
    <nd ref='-19'/>
    <nd ref='-20'/>
    <nd ref='-21'/>
    <nd ref='-22'/>
    <nd ref='-23'/>
    <nd ref='-24'/>
    <nd ref='-25'/>
    <nd ref='-26'/>
    <nd ref='-27'/>
    <nd ref='-28'/>
    <nd ref='-29'/>
    <nd ref='-30'/>
    <nd ref='-31'/>
    <nd ref='-32'/>
    <nd ref='-33'/>
    <nd ref='-34'/>
    <nd ref='-35'/>
    <nd ref='-36'/>
    <nd ref='-37'/>
    <nd ref='-38'/>
    <nd ref='-39'/>
    <nd ref='-40'/>
    <nd ref='-41'/>
    <nd ref='-42'/>
    <nd ref='-43'/>
    <nd ref='-44'/>
    <nd ref='-45'/>
    <nd ref='-46'/>
    <nd ref='-47'/>
    <nd ref='-48'/>
    <nd ref='-49'/>
    <nd ref='-50'/>
    <nd ref='-51'/>
    <nd ref='-52'/>
    <nd ref='-53'/>
    <nd ref='-54'/>
    <nd ref='-55'/>
    <nd ref='-56'/>
    <nd ref='-57'/>
    <nd ref='-58'/>
    <nd ref='-59'/>
    <nd ref='-60'/>
    <nd ref='-61'/>
    <nd ref='-62'/>
    <nd ref='-63'/>
    <nd ref='-64'/>
    <nd ref='-65'/>
    <nd ref='-66'/>
    <nd ref='-67'/>
    <nd ref='-68'/>
    <nd ref='-69'/>
    <nd ref='-70'/>
    <nd ref='-71'/>
    <nd ref='-72'/>
    <nd ref='-73'/>
    <nd ref='-74'/>
    <nd ref='-75'/>
    <nd ref='-76'/>
    <nd ref='-77'/>
    <nd ref='-78'/>
    <nd ref='-79'/>
    <nd ref='-80'/>
    <nd ref='-81'/>
    <nd ref='-82'/>
    <nd ref='-83'/>
    <nd ref='-84'/>
    <nd ref='-85'/>
    <nd ref='-86'/>
    <nd ref='-87'/>
    <nd ref='-88'/>
    <nd ref='-89'/>
    <nd ref='-90'/>
    <nd ref='-91'/>
    <nd ref='-92'/>
    <nd ref='-93'/>
    <nd ref='-94'/>
    <nd ref='-95'/>
    <nd ref='-96'/>
    <nd ref='-97'/>
    <nd ref='-98'/>
    <nd ref='-99'/>
    <nd ref='-100'/>
    <nd ref='-101'/>
    <nd ref='-102'/>
    <nd ref='-103'/>
    <nd ref='-104'/>
    <nd ref='-105'/>
    <nd ref='-106'/>
    <nd ref='-107'/>
    <nd ref='-108'/>
    <nd ref='-109'/>
    <nd ref='-110'/>
    <nd ref='-111'/>
    <nd ref='-112'/>
    <nd ref='-113'/>
    <nd ref='-114'/>
    <nd ref='-115'/>
    <nd ref='-116'/>
    <nd ref='-117'/>
    <nd ref='-118'/>
    <nd ref='-119'/>
    <nd ref='-120'/>
    <nd ref='-121'/>
    <nd ref='-122'/>
    <nd ref='-123'/>
    <nd ref='-124'/>
    <nd ref='-125'/>
    <nd ref='-126'/>
    <nd ref='-127'/>
    <nd ref='-128'/>
    <nd ref='-129'/>
    <nd ref='-130'/>
    <nd ref='-131'/>
    <nd ref='-132'/>
    <nd ref='-133'/>
    <nd ref='-134'/>
    <nd ref='-135'/>
    <nd ref='-136'/>
    <nd ref='-137'/>
    <nd ref='-138'/>
    <nd ref='-139'/>
    <nd ref='-140'/>
    <nd ref='-141'/>
    <nd ref='-142'/>
    <nd ref='-143'/>
    <nd ref='-144'/>
    <nd ref='-145'/>
    <nd ref='-146'/>
    <nd ref='-147'/>
    <nd ref='-148'/>
    <nd ref='-149'/>
    <nd ref='-150'/>
    <nd ref='-151'/>
    <nd ref='-152'/>
    <nd ref='-153'/>
    <nd ref='-154'/>
    <nd ref='-155'/>
    <nd ref='-156'/>
    <nd ref='-157'/>
    <nd ref='-158'/>
    <nd ref='-159'/>
    <nd ref='-160'/>
    <nd ref='-161'/>
    <nd ref='-162'/>
    <nd ref='-163'/>
    <nd ref='-164'/>
    <nd ref='-165'/>
    <nd ref='-166'/>
    <nd ref='-167'/>
    <nd ref='-168'/>
    <nd ref='-169'/>
    <nd ref='-170'/>
    <nd ref='-171'/>
    <nd ref='-172'/>
    <nd ref='-173'/>
    <nd ref='-174'/>
    <nd ref='-175'/>
    <nd ref='-176'/>
    <nd ref='-177'/>
    <nd ref='-178'/>
    <nd ref='-179'/>
    <nd ref='-180'/>
    <nd ref='-181'/>
    <nd ref='-182'/>
    <nd ref='-183'/>
    <nd ref='-184'/>
    <nd ref='-185'/>
    <nd ref='-186'/>
    <nd ref='-187'/>
    <nd ref='-188'/>
    <nd ref='-189'/>
    <nd ref='-190'/>
    <nd ref='-191'/>
    <nd ref='-192'/>
    <nd ref='-193'/>
    <nd ref='-194'/>
    <nd ref='-195'/>
    <nd ref='-196'/>
    <nd ref='-197'/>
    <nd ref='-198'/>
    <nd ref='-199'/>
    <nd ref='-200'/>
    <nd ref='-201'/>
    <nd ref='-202'/>
    <nd ref='-203'/>
    <nd ref='-204'/>
    <nd ref='-205'/>
    <nd ref='-206'/>
    <nd ref='-207'/>
    <nd ref='-208'/>
    <nd ref='-209'/>
    <nd ref='-210'/>
    <nd ref='-211'/>
    <nd ref='-212'/>
    <nd ref='-213'/>
    <nd ref='-214'/>
    <nd ref='-215'/>
    <nd ref='-216'/>
    <nd ref='-217'/>
    <nd ref='-218'/>
    <nd ref='-219'/>
    <nd ref='-220'/>
    <nd ref='-221'/>
    <nd ref='-222'/>
    <nd ref='-223'/>
    <tag k='highway' v='path'/>
    <tag k='name' v='Kystpilegrimsleia'/>
    <tag k='network' v='Pilegrimsleden'/>
    <tag k='note:trail' v='Kystpilegrimsleia'/>
  </way>
  <node id='-225' version='0' action='modify' visible='true' lat='63.6994677' lon='9.7429580'>
    <tag k='name' v='Austrått Camping'/>
    <tag k='alt_name' v='Austrått camping og motell'/>
    <tag k='source' v='pilegrimsleden.no'/>
    <tag k='network' v='Pilegrimsleden'/>
    <tag k='note:trail' v='Kystpilegrimsleia'/>
    <tag k='tourism' v='chalet'/>
  </node>
  <node id='-226' version='0' action='modify' visible='true' lat='61.1717892' lon='5.3509159'>
    <tag k='name' v='Birkeland Camping'/>
    <tag k='source' v='pilegrimsleden.no'/>
    <tag k='network' v='Pilegrimsleden'/>
    <tag k='note:trail' v='Kystpilegrimsleia'/>
    <tag k='tourism' v='camp_site'/>
  </node>
  <node id='-227' version='0' action='modify' visible='true' lat='63.5971042' lon='9.8966217'>
    <tag k='name' v='Blåheia'/>
    <tag k='source' v='pilegrimsleden.no'/>
    <tag k='network' v='Pilegrimsleden'/>
    <tag k='note:trail' v='Kystpilegrimsleia'/>
    <tag k='amenity' v='shelter'/>
    <tag k='shelter_type' v='lean_to'/>
  </node>
  <node id='-228' version='0' action='modify' visible='true' lat='62.4330215' lon='6.3935384'>
    <tag k='name' v='Borg Sommerhotell'/>
    <tag k='alt_name' v='Borg sommerhotell og camping'/>
    <tag k='source' v='pilegrimsleden.no'/>
    <tag k='network' v='Pilegrimsleden'/>
    <tag k='note:trail' v='Kystpilegrimsleia'/>
    <tag k='tourism' v='hostel'/>
  </node>
  <node id='-229' version='0' action='modify' visible='true' lat='63.3276488' lon='8.0529468'>
    <tag k='name' v='Eco Camp'/>
    <tag k='alt_name' v='Eco Camp Norway på Smøla'/>
    <tag k='source' v='pilegrimsleden.no'/>
    <tag k='network' v='Pilegrimsleden'/>
    <tag k='note:trail' v='Kystpilegrimsleia'/>
    <tag k='tourism' v='hostel'/>
    <tag k='hostel:type' v='pilgrim'/>
  </node>
  <node id='-230' version='0' action='modify' visible='true' lat='63.8480640' lon='8.4537920'>
    <tag k='name' v='Sula fyr'/>
    <tag k='alt_name' v='Fyrvokterboligen ved Sula Fyr'/>
    <tag k='source' v='pilegrimsleden.no'/>
    <tag k='network' v='Pilegrimsleden'/>
    <tag k='note:trail' v='Kystpilegrimsleia'/>
    <tag k='tourism' v='hostel'/>
    <tag k='hostel:type' v='pilgrim'/>
  </node>
  <node id='-231' version='0' action='modify' visible='true' lat='62.4744002' lon='6.2064004'>
    <tag k='name' v='Gapahuk Aksla'/>
    <tag k='source' v='pilegrimsleden.no'/>
    <tag k='network' v='Pilegrimsleden'/>
    <tag k='note:trail' v='Kystpilegrimsleia'/>
    <tag k='amenity' v='shelter'/>
    <tag k='shelter_type' v='lean_to'/>
  </node>
  <node id='-232' version='0' action='modify' visible='true' lat='63.3074055' lon='8.0120373'>
    <tag k='name' v='Rosvollhaugen'/>
    <tag k='alt_name' v='Gapahuken på Rosvollhaugen'/>
    <tag k='source' v='pilegrimsleden.no'/>
    <tag k='network' v='Pilegrimsleden'/>
    <tag k='note:trail' v='Kystpilegrimsleia'/>
    <tag k='amenity' v='shelter'/>
    <tag k='shelter_type' v='lean_to'/>
  </node>
  <node id='-233' version='0' action='modify' visible='true' lat='62.1277389' lon='5.1629276'>
    <tag k='name' v='Hoddevik Strandcamp'/>
    <tag k='alt_name' v='Hoddevik strandcamping'/>
    <tag k='source' v='pilegrimsleden.no'/>
    <tag k='network' v='Pilegrimsleden'/>
    <tag k='note:trail' v='Kystpilegrimsleia'/>
    <tag k='tourism' v='camp_site'/>
  </node>
  <node id='-234' version='0' action='modify' visible='true' lat='62.0389756' lon='5.5217335'>
    <tag k='name' v='Jetmund Gjesteheim'/>
    <tag k='source' v='pilegrimsleden.no'/>
    <tag k='network' v='Pilegrimsleden'/>
    <tag k='note:trail' v='Kystpilegrimsleia'/>
    <tag k='tourism' v='hostel'/>
  </node>
  <node id='-235' version='0' action='modify' visible='true' lat='61.5664609' lon='4.7650116'>
    <tag k='name' v='Kinn'/>
    <tag k='alt_name' v='Kinn Gjestehus'/>
    <tag k='source' v='pilegrimsleden.no'/>
    <tag k='network' v='Pilegrimsleden'/>
    <tag k='note:trail' v='Kystpilegrimsleia'/>
    <tag k='tourism' v='hostel'/>
    <tag k='hostel:type' v='pilgrim'/>
  </node>
  <node id='-236' version='0' action='modify' visible='true' lat='61.5656813' lon='4.7674281'>
    <tag k='name' v='Kinn'/>
    <tag k='alt_name' v='Kinn Skulehus'/>
    <tag k='source' v='pilegrimsleden.no'/>
    <tag k='network' v='Pilegrimsleden'/>
    <tag k='note:trail' v='Kystpilegrimsleia'/>
    <tag k='tourism' v='hostel'/>
    <tag k='hostel:type' v='pilgrim'/>
  </node>
  <node id='-237' version='0' action='modify' visible='true' lat='62.7424209' lon='7.2335036'>
    <tag k='name' v='Kviltorp Camping'/>
    <tag k='alt_name' v='Kviltorp camping - Molde'/>
    <tag k='source' v='pilegrimsleden.no'/>
    <tag k='network' v='Pilegrimsleden'/>
    <tag k='note:trail' v='Kystpilegrimsleia'/>
    <tag k='tourism' v='camp_site'/>
  </node>
  <node id='-238' version='0' action='modify' visible='true' lat='61.2722307' lon='4.9482290'>
    <tag k='name' v='Lammetun ferie og fritid'/>
    <tag k='source' v='pilegrimsleden.no'/>
    <tag k='network' v='Pilegrimsleden'/>
    <tag k='note:trail' v='Kystpilegrimsleia'/>
    <tag k='tourism' v='camp_site'/>
  </node>
  <node id='-239' version='0' action='modify' visible='true' lat='62.3136849' lon='5.7074205'>
    <tag k='name' v='Lanternen'/>
    <tag k='alt_name' v='Lanternen hytte og bobilplass'/>
    <tag k='source' v='pilegrimsleden.no'/>
    <tag k='network' v='Pilegrimsleden'/>
    <tag k='note:trail' v='Kystpilegrimsleia'/>
    <tag k='tourism' v='chalet'/>
  </node>
  <node id='-240' version='0' action='modify' visible='true' lat='60.6927608' lon='5.1092212'>
    <tag k='name' v='Magnusgarden'/>
    <tag k='source' v='pilegrimsleden.no'/>
    <tag k='network' v='Pilegrimsleden'/>
    <tag k='note:trail' v='Kystpilegrimsleia'/>
    <tag k='tourism' v='hostel'/>
    <tag k='hostel:type' v='pilgrim'/>
  </node>
  <node id='-241' version='0' action='modify' visible='true' lat='63.5189518' lon='7.9531674'>
    <tag k='name' v='Olsens pensjonat'/>
    <tag k='alt_name' v='Olsens Pensjonat &amp; Gjestehus'/>
    <tag k='source' v='pilegrimsleden.no'/>
    <tag k='network' v='Pilegrimsleden'/>
    <tag k='note:trail' v='Kystpilegrimsleia'/>
    <tag k='tourism' v='chalet'/>
  </node>
  <node id='-242' version='0' action='modify' visible='true' lat='61.4934509' lon='5.1319142'>
    <tag k='name' v='Svanøy hovudgård'/>
    <tag k='alt_name' v='Pilegrimsherberge på Svanøy hovedgård'/>
    <tag k='source' v='pilegrimsleden.no'/>
    <tag k='network' v='Pilegrimsleden'/>
    <tag k='note:trail' v='Kystpilegrimsleia'/>
    <tag k='tourism' v='hostel'/>
    <tag k='hostel:type' v='pilgrim'/>
  </node>
  <node id='-243' version='0' action='modify' visible='true' lat='62.0410156' lon='5.3563981'>
    <tag k='name' v='Selje camp og hyttesenter'/>
    <tag k='source' v='pilegrimsleden.no'/>
    <tag k='network' v='Pilegrimsleden'/>
    <tag k='note:trail' v='Kystpilegrimsleia'/>
    <tag k='tourism' v='camp_site'/>
  </node>
  <node id='-244' version='0' action='modify' visible='true' lat='61.9174036' lon='5.1340528'>
    <tag k='name' v='Steinvik camping'/>
    <tag k='source' v='pilegrimsleden.no'/>
    <tag k='network' v='Pilegrimsleden'/>
    <tag k='note:trail' v='Kystpilegrimsleia'/>
    <tag k='tourism' v='camp_site'/>
  </node>
  <node id='-245' version='0' action='modify' visible='true' lat='59.7940744' lon='5.7095446'>
    <tag k='name' v='Gjestegården Halsnøy'/>
    <tag k='source' v='pilegrimsleden.no'/>
    <tag k='network' v='Pilegrimsleden'/>
    <tag k='note:trail' v='Kystpilegrimsleia'/>
    <tag k='tourism' v='chalet'/>
  </node>
  <node id='-246' version='0' action='modify' visible='true' lat='61.4978201' lon='5.1358545'>
    <tag k='name' v='Badestranda Leiren'/>
    <tag k='source' v='pilegrimsleden.no'/>
    <tag k='network' v='Pilegrimsleden'/>
    <tag k='note:trail' v='Kystpilegrimsleia'/>
    <tag k='amenity' v='shelter'/>
    <tag k='shelter_type' v='lean_to'/>
    <tag k='note:proposed' v='Proposed addition'/>
  </node>
  <node id='-247' version='0' action='modify' visible='true' lat='63.0057637' lon='7.7235611'>
    <tag k='name' v='Borgstua på Kvernes Prestegård'/>
    <tag k='source' v='pilegrimsleden.no'/>
    <tag k='network' v='Pilegrimsleden'/>
    <tag k='note:trail' v='Kystpilegrimsleia'/>
    <tag k='tourism' v='hostel'/>
    <tag k='hostel:type' v='pilgrim'/>
    <tag k='note:proposed' v='Proposed addition'/>
  </node>
  <node id='-248' version='0' action='modify' visible='true' lat='62.2533151' lon='5.5850209'>
    <tag k='name' v='Brekkegarden pilegrimsherberge'/>
    <tag k='source' v='pilegrimsleden.no'/>
    <tag k='network' v='Pilegrimsleden'/>
    <tag k='note:trail' v='Kystpilegrimsleia'/>
    <tag k='tourism' v='hostel'/>
    <tag k='hostel:type' v='pilgrim'/>
    <tag k='note:proposed' v='Proposed addition'/>
  </node>
  <node id='-249' version='0' action='modify' visible='true' lat='60.9838664' lon='5.0666969'>
    <tag k='name' v='Dagsturhytta Gulakvila'/>
    <tag k='source' v='pilegrimsleden.no'/>
    <tag k='network' v='Pilegrimsleden'/>
    <tag k='note:trail' v='Kystpilegrimsleia'/>
    <tag k='amenity' v='shelter'/>
    <tag k='shelter_type' v='lean_to'/>
    <tag k='note:proposed' v='Proposed addition'/>
  </node>
  <node id='-250' version='0' action='modify' visible='true' lat='62.1022702' lon='5.3383185'>
    <tag k='name' v='Dagsturhytta Havglimt'/>
    <tag k='source' v='pilegrimsleden.no'/>
    <tag k='network' v='Pilegrimsleden'/>
    <tag k='note:trail' v='Kystpilegrimsleia'/>
    <tag k='amenity' v='shelter'/>
    <tag k='shelter_type' v='lean_to'/>
    <tag k='note:proposed' v='Proposed addition'/>
  </node>
  <node id='-251' version='0' action='modify' visible='true' lat='61.1843165' lon='5.3427748'>
    <tag k='name' v='Dagsturhytta Sørefjordhytta'/>
    <tag k='source' v='pilegrimsleden.no'/>
    <tag k='network' v='Pilegrimsleden'/>
    <tag k='note:trail' v='Kystpilegrimsleia'/>
    <tag k='amenity' v='shelter'/>
    <tag k='shelter_type' v='lean_to'/>
    <tag k='note:proposed' v='Proposed addition'/>
  </node>
  <node id='-252' version='0' action='modify' visible='true' lat='62.6573691' lon='7.3728435'>
    <tag k='name' v='Fjøsen Bed &amp; make your own breakfast'/>
    <tag k='source' v='pilegrimsleden.no'/>
    <tag k='network' v='Pilegrimsleden'/>
    <tag k='note:trail' v='Kystpilegrimsleia'/>
    <tag k='tourism' v='chalet'/>
    <tag k='note:proposed' v='Proposed addition'/>
  </node>
  <node id='-253' version='0' action='modify' visible='true' lat='58.5440423' lon='5.6816364'>
    <tag k='name' v='Friluftsfyret Kvassheim'/>
    <tag k='source' v='pilegrimsleden.no'/>
    <tag k='network' v='Pilegrimsleden'/>
    <tag k='note:trail' v='Kystpilegrimsleia'/>
    <tag k='tourism' v='hostel'/>
    <tag k='hostel:type' v='pilgrim'/>
    <tag k='note:proposed' v='Proposed addition'/>
  </node>
  <node id='-254' version='0' action='modify' visible='true' lat='62.1237318' lon='5.3131256'>
    <tag k='name' v='Fru Ingas Apartments'/>
    <tag k='source' v='pilegrimsleden.no'/>
    <tag k='network' v='Pilegrimsleden'/>
    <tag k='note:trail' v='Kystpilegrimsleia'/>
    <tag k='tourism' v='chalet'/>
    <tag k='note:proposed' v='Proposed addition'/>
  </node>
  <node id='-255' version='0' action='modify' visible='true' lat='63.6131966' lon='9.8531485'>
    <tag k='name' v='Gapahuk i Fagerdalen'/>
    <tag k='source' v='pilegrimsleden.no'/>
    <tag k='network' v='Pilegrimsleden'/>
    <tag k='note:trail' v='Kystpilegrimsleia'/>
    <tag k='amenity' v='shelter'/>
    <tag k='shelter_type' v='lean_to'/>
    <tag k='note:proposed' v='Proposed addition'/>
  </node>
  <node id='-256' version='0' action='modify' visible='true' lat='63.0080037' lon='7.7164520'>
    <tag k='name' v='Gapahuk på Kvernes'/>
    <tag k='source' v='pilegrimsleden.no'/>
    <tag k='network' v='Pilegrimsleden'/>
    <tag k='note:trail' v='Kystpilegrimsleia'/>
    <tag k='amenity' v='shelter'/>
    <tag k='shelter_type' v='lean_to'/>
    <tag k='note:proposed' v='Proposed addition'/>
  </node>
  <node id='-257' version='0' action='modify' visible='true' lat='63.5804899' lon='9.9561704'>
    <tag k='name' v='Gjertrudstua'/>
    <tag k='source' v='pilegrimsleden.no'/>
    <tag k='network' v='Pilegrimsleden'/>
    <tag k='note:trail' v='Kystpilegrimsleia'/>
    <tag k='tourism' v='chalet'/>
    <tag k='note:proposed' v='Proposed addition'/>
  </node>
  <node id='-258' version='0' action='modify' visible='true' lat='61.1501971' lon='5.1780851'>
    <tag k='name' v='Hatlems Hytter'/>
    <tag k='source' v='pilegrimsleden.no'/>
    <tag k='network' v='Pilegrimsleden'/>
    <tag k='note:trail' v='Kystpilegrimsleia'/>
    <tag k='tourism' v='chalet'/>
    <tag k='note:proposed' v='Proposed addition'/>
  </node>
  <node id='-259' version='0' action='modify' visible='true' lat='58.6135920' lon='5.6175515'>
    <tag k='name' v='Huset ved havet'/>
    <tag k='source' v='pilegrimsleden.no'/>
    <tag k='network' v='Pilegrimsleden'/>
    <tag k='note:trail' v='Kystpilegrimsleia'/>
    <tag k='tourism' v='hostel'/>
    <tag k='hostel:type' v='pilgrim'/>
    <tag k='note:proposed' v='Proposed addition'/>
  </node>
  <node id='-260' version='0' action='modify' visible='true' lat='62.2723994' lon='5.8258360'>
    <tag k='name' v='Kjeldsund leirstad og gjestegard'/>
    <tag k='source' v='pilegrimsleden.no'/>
    <tag k='network' v='Pilegrimsleden'/>
    <tag k='note:trail' v='Kystpilegrimsleia'/>
    <tag k='amenity' v='shelter'/>
    <tag k='shelter_type' v='lean_to'/>
    <tag k='note:proposed' v='Proposed addition'/>
  </node>
  <node id='-261' version='0' action='modify' visible='true' lat='62.2227180' lon='5.5412259'>
    <tag k='name' v='Kråen Gard'/>
    <tag k='source' v='pilegrimsleden.no'/>
    <tag k='network' v='Pilegrimsleden'/>
    <tag k='note:trail' v='Kystpilegrimsleia'/>
    <tag k='tourism' v='hostel'/>
    <tag k='hostel:type' v='pilgrim'/>
    <tag k='note:proposed' v='Proposed addition'/>
  </node>
  <node id='-262' version='0' action='modify' visible='true' lat='63.0054590' lon='7.7218786'>
    <tag k='name' v='Kvernes på Averøy | Nøkkelsted'/>
    <tag k='source' v='pilegrimsleden.no'/>
    <tag k='network' v='Pilegrimsleden'/>
    <tag k='note:trail' v='Kystpilegrimsleia'/>
    <tag k='tourism' v='hostel'/>
    <tag k='hostel:type' v='pilgrim'/>
    <tag k='note:proposed' v='Proposed addition'/>
  </node>
  <node id='-263' version='0' action='modify' visible='true' lat='62.2792839' lon='5.6271238'>
    <tag k='name' v='Kvile- og lesebu i Moltudalen'/>
    <tag k='source' v='pilegrimsleden.no'/>
    <tag k='network' v='Pilegrimsleden'/>
    <tag k='note:trail' v='Kystpilegrimsleia'/>
    <tag k='amenity' v='shelter'/>
    <tag k='shelter_type' v='lean_to'/>
    <tag k='note:proposed' v='Proposed addition'/>
  </node>
  <node id='-264' version='0' action='modify' visible='true' lat='59.3805140' lon='5.2371622'>
    <tag k='name' v='Overnatting i stabbur med fire sengeplasser på Karmøy'/>
    <tag k='source' v='pilegrimsleden.no'/>
    <tag k='network' v='Pilegrimsleden'/>
    <tag k='note:trail' v='Kystpilegrimsleia'/>
    <tag k='tourism' v='hostel'/>
    <tag k='hostel:type' v='pilgrim'/>
    <tag k='note:proposed' v='Proposed addition'/>
  </node>
  <node id='-265' version='0' action='modify' visible='true' lat='62.0445246' lon='5.3455867'>
    <tag k='name' v='Pilegrimsherberge i Selje prestegard'/>
    <tag k='source' v='pilegrimsleden.no'/>
    <tag k='network' v='Pilegrimsleden'/>
    <tag k='note:trail' v='Kystpilegrimsleia'/>
    <tag k='tourism' v='hostel'/>
    <tag k='hostel:type' v='pilgrim'/>
    <tag k='note:proposed' v='Proposed addition'/>
  </node>
  <node id='-266' version='0' action='modify' visible='true' lat='58.7680291' lon='5.5125448'>
    <tag k='name' v='Reveparken hytteutleige - overnatting direkte ved Jærstrendene'/>
    <tag k='source' v='pilegrimsleden.no'/>
    <tag k='network' v='Pilegrimsleden'/>
    <tag k='note:trail' v='Kystpilegrimsleia'/>
    <tag k='tourism' v='hostel'/>
    <tag k='hostel:type' v='pilgrim'/>
    <tag k='note:proposed' v='Proposed addition'/>
  </node>
  <node id='-267' version='0' action='modify' visible='true' lat='62.0457947' lon='5.3430192'>
    <tag k='name' v='Seljebuda'/>
    <tag k='source' v='pilegrimsleden.no'/>
    <tag k='network' v='Pilegrimsleden'/>
    <tag k='note:trail' v='Kystpilegrimsleia'/>
    <tag k='tourism' v='hostel'/>
    <tag k='hostel:type' v='pilgrim'/>
    <tag k='note:proposed' v='Proposed addition'/>
  </node>
  <node id='-268' version='0' action='modify' visible='true' lat='62.0448474' lon='5.3566106'>
    <tag k='name' v='Sjøglytt'/>
    <tag k='source' v='pilegrimsleden.no'/>
    <tag k='network' v='Pilegrimsleden'/>
    <tag k='note:trail' v='Kystpilegrimsleia'/>
    <tag k='amenity' v='shelter'/>
    <tag k='shelter_type' v='lean_to'/>
    <tag k='note:proposed' v='Proposed addition'/>
  </node>
  <node id='-269' version='0' action='modify' visible='true' lat='63.8429407' lon='8.4470407'>
    <tag k='name' v='Sula havglamping'/>
    <tag k='source' v='pilegrimsleden.no'/>
    <tag k='network' v='Pilegrimsleden'/>
    <tag k='note:trail' v='Kystpilegrimsleia'/>
    <tag k='tourism' v='hostel'/>
    <tag k='hostel:type' v='pilgrim'/>
    <tag k='note:proposed' v='Proposed addition'/>
  </node>
  <node id='-270' version='0' action='modify' visible='true' lat='62.0440852' lon='5.3432702'>
    <tag k='name' v='Sætren Rorbuer'/>
    <tag k='source' v='pilegrimsleden.no'/>
    <tag k='network' v='Pilegrimsleden'/>
    <tag k='note:trail' v='Kystpilegrimsleia'/>
    <tag k='tourism' v='hostel'/>
    <tag k='hostel:type' v='pilgrim'/>
    <tag k='note:proposed' v='Proposed addition'/>
  </node>
  <node id='-271' version='0' action='modify' visible='true' lat='59.7020599' lon='5.3826386'>
    <tag k='name' v='Telegrafen - Moster Amfi'/>
    <tag k='source' v='pilegrimsleden.no'/>
    <tag k='network' v='Pilegrimsleden'/>
    <tag k='note:trail' v='Kystpilegrimsleia'/>
    <tag k='tourism' v='hostel'/>
    <tag k='hostel:type' v='pilgrim'/>
    <tag k='note:proposed' v='Proposed addition'/>
  </node>
  <node id='-272' version='0' action='modify' visible='true' lat='62.0843660' lon='5.5781138'>
    <tag k='name' v='Tunheimsfjøra logde'/>
    <tag k='source' v='pilegrimsleden.no'/>
    <tag k='network' v='Pilegrimsleden'/>
    <tag k='note:trail' v='Kystpilegrimsleia'/>
    <tag k='tourism' v='chalet'/>
    <tag k='note:proposed' v='Proposed addition'/>
  </node>
  <node id='-273' version='0' action='modify' visible='true' lat='63.5948164' lon='9.9625289'>
    <tag k='name' v='Årnseth Gapahuk'/>
    <tag k='source' v='pilegrimsleden.no'/>
    <tag k='network' v='Pilegrimsleden'/>
    <tag k='note:trail' v='Kystpilegrimsleia'/>
    <tag k='amenity' v='shelter'/>
    <tag k='shelter_type' v='lean_to'/>
    <tag k='note:proposed' v='Proposed addition'/>
  </node>
  <node id='-274' version='0' action='modify' visible='true' lat='63.4359992' lon='10.4006727'>
    <tag k='note:osm_object' v='way/1273197042'/>
    <tag k='amenity' v='shelter'/>
    <tag k='building' v='roof'/>
    <tag k='note:relation_member' v='Add as member of OSM route relation 10508888'/>
    <tag k='note:osm_route_relation' v='10508888'/>
  </node>
  <node id='11373501344' version='1' visible='true' lat='63.4330281' lon='10.4023490'>
    <tag k='name' v='Comfort Hotel Trondheim'/>
    <tag k='tourism' v='hotel'/>
    <tag k='note:relation_member' v='Add as member of OSM route relation 10508888'/>
    <tag k='note:osm_route_relation' v='10508888'/>
  </node>
  <node id='-275' version='0' action='modify' visible='true' lat='63.4340616' lon='10.4027324'>
    <tag k='note:osm_object' v='way/89485660'/>
    <tag k='name' v='Bakeriet'/>
    <tag k='tourism' v='hotel'/>
    <tag k='building' v='hotel'/>
    <tag k='note:relation_member' v='Add as member of OSM route relation 10508888'/>
    <tag k='note:osm_route_relation' v='10508888'/>
  </node>
  <node id='156719769' version='1' visible='true' lat='63.4341701' lon='10.4036210'>
    <tag k='name' v='Home Hotel Grand Olav'/>
    <tag k='tourism' v='hotel'/>
    <tag k='note:relation_member' v='Add as member of OSM route relation 10508888'/>
    <tag k='note:osm_route_relation' v='10508888'/>
  </node>
  <node id='9312886959' version='1' visible='true' lat='63.4310611' lon='10.3773874'>
    <tag k='amenity' v='shelter'/>
    <tag k='note:relation_member' v='Add as member of OSM route relation 10508888'/>
    <tag k='note:osm_route_relation' v='10508888'/>
  </node>
  <node id='7093860786' version='1' visible='true' lat='63.4309475' lon='10.3755851'>
    <tag k='tourism' v='picnic_site'/>
    <tag k='note:relation_member' v='Add as member of OSM route relation 10508888'/>
    <tag k='note:osm_route_relation' v='10508888'/>
  </node>
  <node id='-276' version='0' action='modify' visible='true' lat='63.4358184' lon='10.4013944'>
    <tag k='note:osm_object' v='way/1273197052'/>
    <tag k='amenity' v='shelter'/>
    <tag k='building' v='roof'/>
    <tag k='note:relation_member' v='Add as member of OSM route relation 10508888'/>
    <tag k='note:osm_route_relation' v='10508888'/>
  </node>
  <node id='156719783' version='1' visible='true' lat='63.4341994' lon='10.3969041'>
    <tag k='name' v='Astoria'/>
    <tag k='tourism' v='hotel'/>
    <tag k='note:relation_member' v='Add as member of OSM route relation 10508888'/>
    <tag k='note:osm_route_relation' v='10508888'/>
  </node>
  <node id='956343591' version='1' visible='true' lat='63.4343610' lon='10.3999152'>
    <tag k='name' v='Chesterfield Hotel'/>
    <tag k='tourism' v='hotel'/>
    <tag k='note:relation_member' v='Add as member of OSM route relation 10508888'/>
    <tag k='note:osm_route_relation' v='10508888'/>
  </node>
  <node id='13009857691' version='1' visible='true' lat='63.4343219' lon='10.4020075'>
    <tag k='name' v='Knirkenheimen'/>
    <tag k='tourism' v='hotel'/>
    <tag k='note:relation_member' v='Add as member of OSM route relation 10508888'/>
    <tag k='note:osm_route_relation' v='10508888'/>
  </node>
  <node id='-277' version='0' action='modify' visible='true' lat='63.4360318' lon='10.3987975'>
    <tag k='note:osm_object' v='way/500278221'/>
    <tag k='amenity' v='shelter'/>
    <tag k='building' v='yes'/>
    <tag k='note:relation_member' v='Add as member of OSM route relation 10508888'/>
    <tag k='note:osm_route_relation' v='10508888'/>
  </node>
  <node id='-278' version='0' action='modify' visible='true' lat='63.4260886' lon='10.3936366'>
    <tag k='note:osm_object' v='way/1191208478'/>
    <tag k='amenity' v='shelter'/>
    <tag k='building' v='roof'/>
    <tag k='note:relation_member' v='Add as member of OSM route relation 10508888'/>
    <tag k='note:osm_route_relation' v='10508888'/>
  </node>
  <node id='-279' version='0' action='modify' visible='true' lat='63.4367077' lon='10.4014107'>
    <tag k='note:osm_object' v='way/635967457'/>
    <tag k='amenity' v='shelter'/>
    <tag k='building' v='yes'/>
    <tag k='note:relation_member' v='Add as member of OSM route relation 10508888'/>
    <tag k='note:osm_route_relation' v='10508888'/>
  </node>
  <node id='-280' version='0' action='modify' visible='true' lat='63.4360221' lon='10.4020844'>
    <tag k='note:osm_object' v='way/1273197041'/>
    <tag k='amenity' v='shelter'/>
    <tag k='building' v='roof'/>
    <tag k='note:relation_member' v='Add as member of OSM route relation 10508888'/>
    <tag k='note:osm_route_relation' v='10508888'/>
  </node>
  <node id='-281' version='0' action='modify' visible='true' lat='63.4335993' lon='10.4052815'>
    <tag k='note:osm_object' v='way/89482684'/>
    <tag k='name' v='Radisson Blu Royal Garden Hotel'/>
    <tag k='tourism' v='hotel'/>
    <tag k='building' v='hotel'/>
    <tag k='note:relation_member' v='Add as member of OSM route relation 10508888'/>
    <tag k='note:osm_route_relation' v='10508888'/>
  </node>
  <node id='-282' version='0' action='modify' visible='true' lat='63.4368516' lon='10.4013552'>
    <tag k='note:osm_object' v='way/635967456'/>
    <tag k='amenity' v='shelter'/>
    <tag k='building' v='yes'/>
    <tag k='note:relation_member' v='Add as member of OSM route relation 10508888'/>
    <tag k='note:osm_route_relation' v='10508888'/>
  </node>
  <node id='-283' version='0' action='modify' visible='true' lat='63.4360232' lon='10.4021799'>
    <tag k='note:osm_object' v='way/1273197040'/>
    <tag k='amenity' v='shelter'/>
    <tag k='building' v='roof'/>
    <tag k='note:relation_member' v='Add as member of OSM route relation 10508888'/>
    <tag k='note:osm_route_relation' v='10508888'/>
  </node>
  <node id='-284' version='0' action='modify' visible='true' lat='63.4364446' lon='10.3979202'>
    <tag k='note:osm_object' v='way/1456196846'/>
    <tag k='name' v='Venterom spor 2-3'/>
    <tag k='amenity' v='shelter'/>
    <tag k='building' v='yes'/>
    <tag k='note:relation_member' v='Add as member of OSM route relation 10508888'/>
    <tag k='note:osm_route_relation' v='10508888'/>
  </node>
  <node id='956343622' version='1' visible='true' lat='63.4337708' lon='10.3968930'>
    <tag k='name' v='City Living Sentrum Hotel &amp; Apartments'/>
    <tag k='tourism' v='hotel'/>
    <tag k='note:relation_member' v='Add as member of OSM route relation 10508888'/>
    <tag k='note:osm_route_relation' v='10508888'/>
  </node>
  <node id='2957446755' version='1' visible='true' lat='63.4339680' lon='10.3997770'>
    <tag k='name' v='Thon Hotel Nidaros'/>
    <tag k='tourism' v='hotel'/>
    <tag k='note:relation_member' v='Add as member of OSM route relation 10508888'/>
    <tag k='note:osm_route_relation' v='10508888'/>
  </node>
  <node id='-285' version='0' action='modify' visible='true' lat='63.4365882' lon='10.3978636'>
    <tag k='note:osm_object' v='way/1456196847'/>
    <tag k='name' v='Venterom spor 4-5'/>
    <tag k='amenity' v='shelter'/>
    <tag k='building' v='yes'/>
    <tag k='note:relation_member' v='Add as member of OSM route relation 10508888'/>
    <tag k='note:osm_route_relation' v='10508888'/>
  </node>
  <node id='4744954423' version='1' visible='true' lat='63.4317139' lon='10.3987305'>
    <tag k='name' v='Britannia Hotel'/>
    <tag k='tourism' v='hotel'/>
    <tag k='note:relation_member' v='Add as member of OSM route relation 10508888'/>
    <tag k='note:osm_route_relation' v='10508888'/>
  </node>
  <node id='-286' version='0' action='modify' visible='true' lat='63.4258429' lon='10.3932923'>
    <tag k='note:osm_object' v='way/1064363102'/>
    <tag k='amenity' v='shelter'/>
    <tag k='building' v='roof'/>
    <tag k='note:relation_member' v='Add as member of OSM route relation 10508888'/>
    <tag k='note:osm_route_relation' v='10508888'/>
  </node>
  <node id='-287' version='0' action='modify' visible='true' lat='63.4358249' lon='10.4029420'>
    <tag k='note:osm_object' v='way/1273197043'/>
    <tag k='amenity' v='shelter'/>
    <tag k='building' v='roof'/>
    <tag k='note:relation_member' v='Add as member of OSM route relation 10508888'/>
    <tag k='note:osm_route_relation' v='10508888'/>
  </node>
  <node id='-288' version='0' action='modify' visible='true' lat='63.4358230' lon='10.4028504'>
    <tag k='note:osm_object' v='way/1273197044'/>
    <tag k='amenity' v='shelter'/>
    <tag k='building' v='roof'/>
    <tag k='note:relation_member' v='Add as member of OSM route relation 10508888'/>
    <tag k='note:osm_route_relation' v='10508888'/>
  </node>
  <node id='-289' version='0' action='modify' visible='true' lat='63.4303989' lon='10.3850939'>
    <tag k='note:osm_object' v='way/727606082'/>
    <tag k='amenity' v='shelter'/>
    <tag k='note:relation_member' v='Add as member of OSM route relation 10508888'/>
    <tag k='note:osm_route_relation' v='10508888'/>
  </node>
  <node id='-290' version='0' action='modify' visible='true' lat='63.4301104' lon='10.3735738'>
    <tag k='note:osm_object' v='way/727606081'/>
    <tag k='amenity' v='shelter'/>
    <tag k='building' v='roof'/>
    <tag k='note:relation_member' v='Add as member of OSM route relation 10508888'/>
    <tag k='note:osm_route_relation' v='10508888'/>
  </node>
  <node id='-291' version='0' action='modify' visible='true' lat='63.4266307' lon='10.4000303'>
    <tag k='note:osm_object' v='way/167823309'/>
    <tag k='name' v='Nidaros Pilgrimsgård'/>
    <tag k='tourism' v='guest_house'/>
    <tag k='building' v='retail'/>
    <tag k='note:relation_member' v='Add as member of OSM route relation 10508888'/>
    <tag k='note:osm_route_relation' v='10508888'/>
  </node>
  <node id='-292' version='0' action='modify' visible='true' lat='63.4276607' lon='10.3924426'>
    <tag k='note:osm_object' v='way/89943608'/>
    <tag k='name' v='Comfort Hotel Park'/>
    <tag k='tourism' v='hotel'/>
    <tag k='building' v='hotel'/>
    <tag k='note:relation_member' v='Add as member of OSM route relation 10508888'/>
    <tag k='note:osm_route_relation' v='10508888'/>
  </node>
  <node id='-293' version='0' action='modify' visible='true' lat='63.4333310' lon='10.3979994'>
    <tag k='note:osm_object' v='way/1459090692'/>
    <tag k='amenity' v='shelter'/>
    <tag k='building' v='yes'/>
    <tag k='note:relation_member' v='Add as member of OSM route relation 10508888'/>
    <tag k='note:osm_route_relation' v='10508888'/>
  </node>
  <node id='-294' version='0' action='modify' visible='true' lat='63.4333339' lon='10.3981347'>
    <tag k='note:osm_object' v='way/1459090691'/>
    <tag k='amenity' v='shelter'/>
    <tag k='building' v='yes'/>
    <tag k='note:relation_member' v='Add as member of OSM route relation 10508888'/>
    <tag k='note:osm_route_relation' v='10508888'/>
  </node>
  <node id='-295' version='0' action='modify' visible='true' lat='63.4358958' lon='10.3955836'>
    <tag k='note:osm_object' v='way/315195450'/>
    <tag k='name' v='P-Hotels Brattøra'/>
    <tag k='tourism' v='hotel'/>
    <tag k='building' v='hotel'/>
    <tag k='note:relation_member' v='Add as member of OSM route relation 10508888'/>
    <tag k='note:osm_route_relation' v='10508888'/>
  </node>
  <node id='-296' version='0' action='modify' visible='true' lat='63.4358091' lon='10.4068045'>
    <tag k='note:osm_object' v='way/87312398'/>
    <tag k='name' v='Scandic Nidelven'/>
    <tag k='tourism' v='hotel'/>
    <tag k='building' v='hotel'/>
    <tag k='note:relation_member' v='Add as member of OSM route relation 10508888'/>
    <tag k='note:osm_route_relation' v='10508888'/>
  </node>
  <node id='-297' version='0' action='modify' visible='true' lat='63.4310260' lon='10.3903924'>
    <tag k='note:osm_object' v='way/727606084'/>
    <tag k='amenity' v='shelter'/>
    <tag k='note:relation_member' v='Add as member of OSM route relation 10508888'/>
    <tag k='note:osm_route_relation' v='10508888'/>
  </node>
  <node id='9153258063' version='1' visible='true' lat='63.4306834' lon='10.3892014'>
    <tag k='name' v='Pensjonat Jarlen'/>
    <tag k='tourism' v='guest_house'/>
    <tag k='note:relation_member' v='Add as member of OSM route relation 10508888'/>
    <tag k='note:osm_route_relation' v='10508888'/>
  </node>
  <node id='156719797' version='1' visible='true' lat='63.4308664' lon='10.3911954'>
    <tag k='name' v='Quality Hotel Prinsen'/>
    <tag k='tourism' v='hotel'/>
    <tag k='note:relation_member' v='Add as member of OSM route relation 10508888'/>
    <tag k='note:osm_route_relation' v='10508888'/>
  </node>
  <node id='-298' version='0' action='modify' visible='true' lat='63.4296955' lon='10.3718592'>
    <tag k='note:osm_object' v='way/1254355963'/>
    <tag k='amenity' v='shelter'/>
    <tag k='building' v='roof'/>
    <tag k='note:relation_member' v='Add as member of OSM route relation 10508888'/>
    <tag k='note:osm_route_relation' v='10508888'/>
  </node>
  <node id='386579894' version='1' visible='true' lat='63.4320760' lon='10.3956480'>
    <tag k='name' v='City Living Schøller hotel'/>
    <tag k='tourism' v='hotel'/>
    <tag k='note:relation_member' v='Add as member of OSM route relation 10508888'/>
    <tag k='note:osm_route_relation' v='10508888'/>
  </node>
  <node id='1667274373' version='1' visible='true' lat='63.4321506' lon='10.4065282'>
    <tag k='name' v='Scandic Bakklandet'/>
    <tag k='tourism' v='hotel'/>
    <tag k='note:relation_member' v='Add as member of OSM route relation 10508888'/>
    <tag k='note:osm_route_relation' v='10508888'/>
  </node>
  <node id='-299' version='0' action='modify' visible='true' lat='63.4324338' lon='10.4073009'>
    <tag k='note:osm_object' v='way/1459090694'/>
    <tag k='amenity' v='shelter'/>
    <tag k='building' v='yes'/>
    <tag k='note:relation_member' v='Add as member of OSM route relation 10508888'/>
    <tag k='note:osm_route_relation' v='10508888'/>
  </node>
  <node id='1769499181' version='1' visible='true' lat='63.4308030' lon='10.3925710'>
    <tag k='name' v='Quality Hotel Augustin'/>
    <tag k='tourism' v='hotel'/>
    <tag k='note:relation_member' v='Add as member of OSM route relation 10508888'/>
    <tag k='note:osm_route_relation' v='10508888'/>
  </node>
  <node id='156719791' version='1' visible='true' lat='63.4303457' lon='10.3929292'>
    <tag k='name' v='Thon Hotel Trondheim'/>
    <tag k='tourism' v='hotel'/>
    <tag k='note:relation_member' v='Add as member of OSM route relation 10508888'/>
    <tag k='note:osm_route_relation' v='10508888'/>
  </node>
  <node id='-300' version='0' action='modify' visible='true' lat='63.4398377' lon='10.4017676'>
    <tag k='note:osm_object' v='way/179050462'/>
    <tag k='name' v='Clarion Hotel Trondheim'/>
    <tag k='tourism' v='hotel'/>
    <tag k='building' v='hotel'/>
    <tag k='note:relation_member' v='Add as member of OSM route relation 10508888'/>
    <tag k='note:osm_route_relation' v='10508888'/>
  </node>
  <node id='1513477025' version='1' visible='true' lat='63.4291503' lon='10.3690041'>
    <tag k='tourism' v='picnic_site'/>
    <tag k='note:relation_member' v='Add as member of OSM route relation 10508888'/>
    <tag k='note:osm_route_relation' v='10508888'/>
  </node>
  <node id='-301' version='0' action='modify' visible='true' lat='63.4292570' lon='10.3683113'>
    <tag k='note:osm_object' v='way/1009280984'/>
    <tag k='amenity' v='shelter'/>
    <tag k='building' v='yes'/>
    <tag k='note:relation_member' v='Add as member of OSM route relation 10508888'/>
    <tag k='note:osm_route_relation' v='10508888'/>
  </node>
  <node id='-302' version='0' action='modify' visible='true' lat='63.4228070' lon='10.3952454'>
    <tag k='note:osm_object' v='way/1458781122'/>
    <tag k='amenity' v='shelter'/>
    <tag k='building' v='yes'/>
    <tag k='note:relation_member' v='Add as member of OSM route relation 10508888'/>
    <tag k='note:osm_route_relation' v='10508888'/>
  </node>
  <node id='-303' version='0' action='modify' visible='true' lat='63.4288547' lon='10.3681568'>
    <tag k='note:osm_object' v='way/138028509'/>
    <tag k='amenity' v='shelter'/>
    <tag k='note:relation_member' v='Add as member of OSM route relation 10508888'/>
    <tag k='note:osm_route_relation' v='10508888'/>
  </node>
  <node id='-304' version='0' action='modify' visible='true' lat='63.4226679' lon='10.3951425'>
    <tag k='note:osm_object' v='way/887303068'/>
    <tag k='amenity' v='shelter'/>
    <tag k='building' v='yes'/>
    <tag k='note:relation_member' v='Add as member of OSM route relation 10508888'/>
    <tag k='note:osm_route_relation' v='10508888'/>
  </node>
  <node id='-305' version='0' action='modify' visible='true' lat='63.4225847' lon='10.3947056'>
    <tag k='note:osm_object' v='way/952989537'/>
    <tag k='amenity' v='shelter'/>
    <tag k='building' v='yes'/>
    <tag k='note:relation_member' v='Add as member of OSM route relation 10508888'/>
    <tag k='note:osm_route_relation' v='10508888'/>
  </node>
  <node id='-306' version='0' action='modify' visible='true' lat='63.4286009' lon='10.3671945'>
    <tag k='note:osm_object' v='way/1412833892'/>
    <tag k='name' v='Ila'/>
    <tag k='amenity' v='shelter'/>
    <tag k='building' v='yes'/>
    <tag k='note:relation_member' v='Add as member of OSM route relation 10508888'/>
    <tag k='note:osm_route_relation' v='10508888'/>
  </node>
  <node id='-307' version='0' action='modify' visible='true' lat='63.4287506' lon='10.3669477'>
    <tag k='note:osm_object' v='way/1414455656'/>
    <tag k='amenity' v='shelter'/>
    <tag k='building' v='yes'/>
    <tag k='note:relation_member' v='Add as member of OSM route relation 10508888'/>
    <tag k='note:osm_route_relation' v='10508888'/>
  </node>
  <node id='-308' version='0' action='modify' visible='true' lat='63.4347430' lon='10.4143725'>
    <tag k='note:osm_object' v='way/80560179'/>
    <tag k='name' v='Scandic Solsiden'/>
    <tag k='tourism' v='hotel'/>
    <tag k='building' v='hotel'/>
    <tag k='note:relation_member' v='Add as member of OSM route relation 10508888'/>
    <tag k='note:osm_route_relation' v='10508888'/>
  </node>
  <node id='-309' version='0' action='modify' visible='true' lat='63.4221832' lon='10.3943414'>
    <tag k='note:osm_object' v='way/887303067'/>
    <tag k='amenity' v='shelter'/>
    <tag k='building' v='yes'/>
    <tag k='note:relation_member' v='Add as member of OSM route relation 10508888'/>
    <tag k='note:osm_route_relation' v='10508888'/>
  </node>
  <node id='-310' version='0' action='modify' visible='true' lat='63.4266673' lon='10.3779501'>
    <tag k='note:osm_object' v='way/1254323446'/>
    <tag k='amenity' v='shelter'/>
    <tag k='note:relation_member' v='Add as member of OSM route relation 10508888'/>
    <tag k='note:osm_route_relation' v='10508888'/>
  </node>
  <node id='11901478606' version='1' visible='true' lat='63.4252184' lon='10.3840851'>
    <tag k='tourism' v='picnic_site'/>
    <tag k='note:relation_member' v='Add as member of OSM route relation 10508888'/>
    <tag k='note:osm_route_relation' v='10508888'/>
  </node>
  <node id='-311' version='0' action='modify' visible='true' lat='63.4216488' lon='10.3911459'>
    <tag k='note:osm_object' v='way/60335614'/>
    <tag k='name' v='Hotell St. Olav'/>
    <tag k='tourism' v='hotel'/>
    <tag k='building' v='hospital'/>
    <tag k='note:relation_member' v='Add as member of OSM route relation 10508888'/>
    <tag k='note:osm_route_relation' v='10508888'/>
  </node>
  <node id='-312' version='0' action='modify' visible='true' lat='63.4372207' lon='10.4167581'>
    <tag k='note:osm_object' v='way/1467850110'/>
    <tag k='amenity' v='shelter'/>
    <tag k='building' v='yes'/>
    <tag k='note:relation_member' v='Add as member of OSM route relation 10508888'/>
    <tag k='note:osm_route_relation' v='10508888'/>
  </node>
  <node id='5370787854' version='1' visible='true' lat='63.4368772' lon='10.4182332'>
    <tag k='tourism' v='picnic_site'/>
    <tag k='note:relation_member' v='Add as member of OSM route relation 10508888'/>
    <tag k='note:osm_route_relation' v='10508888'/>
  </node>
  <node id='-313' version='0' action='modify' visible='true' lat='63.4208727' lon='10.4042535'>
    <tag k='note:osm_object' v='way/1034911378'/>
    <tag k='amenity' v='shelter'/>
    <tag k='building' v='yes'/>
    <tag k='note:relation_member' v='Add as member of OSM route relation 10508888'/>
    <tag k='note:osm_route_relation' v='10508888'/>
  </node>
  <node id='-314' version='0' action='modify' visible='true' lat='63.4206762' lon='10.4042794'>
    <tag k='note:osm_object' v='way/1034911377'/>
    <tag k='amenity' v='shelter'/>
    <tag k='building' v='yes'/>
    <tag k='note:relation_member' v='Add as member of OSM route relation 10508888'/>
    <tag k='note:osm_route_relation' v='10508888'/>
  </node>
  <node id='5103482149' version='1' visible='true' lat='63.4305921' lon='10.4186785'>
    <tag k='tourism' v='picnic_site'/>
    <tag k='note:relation_member' v='Add as member of OSM route relation 10508888'/>
    <tag k='note:osm_route_relation' v='10508888'/>
  </node>
  <node id='4951143059' version='1' visible='true' lat='63.4241200' lon='10.4128540'>
    <tag k='name' v='Singsaker Sommerhotell'/>
    <tag k='tourism' v='hotel'/>
    <tag k='note:relation_member' v='Add as member of OSM route relation 10508888'/>
    <tag k='note:osm_route_relation' v='10508888'/>
  </node>
  <node id='5064717702' version='1' visible='true' lat='63.4308901' lon='10.4195725'>
    <tag k='tourism' v='picnic_site'/>
    <tag k='note:relation_member' v='Add as member of OSM route relation 10508888'/>
    <tag k='note:osm_route_relation' v='10508888'/>
  </node>
  <node id='-315' version='0' action='modify' visible='true' lat='63.4381322' lon='10.4198528'>
    <tag k='note:osm_object' v='way/688152510'/>
    <tag k='name' v='Dora bobilplass'/>
    <tag k='tourism' v='caravan_site'/>
    <tag k='note:relation_member' v='Add as member of OSM route relation 10508888'/>
    <tag k='note:osm_route_relation' v='10508888'/>
  </node>
  <node id='-316' version='0' action='modify' visible='true' lat='63.4289045' lon='10.3560211'>
    <tag k='note:osm_object' v='way/956166760'/>
    <tag k='amenity' v='shelter'/>
    <tag k='building' v='yes'/>
    <tag k='note:relation_member' v='Add as member of OSM route relation 10508888'/>
    <tag k='note:osm_route_relation' v='10508888'/>
  </node>
  <node id='-317' version='0' action='modify' visible='true' lat='63.4336748' lon='10.4245115'>
    <tag k='note:osm_object' v='way/1039106465'/>
    <tag k='name' v='RUMI Hostel'/>
    <tag k='tourism' v='hostel'/>
    <tag k='building' v='hostel'/>
    <tag k='note:relation_member' v='Add as member of OSM route relation 10508888'/>
    <tag k='note:osm_route_relation' v='10508888'/>
  </node>
  <node id='-318' version='0' action='modify' visible='true' lat='63.4362450' lon='10.4248222'>
    <tag k='note:osm_object' v='way/1034905063'/>
    <tag k='amenity' v='shelter'/>
    <tag k='building' v='yes'/>
    <tag k='note:relation_member' v='Add as member of OSM route relation 10508888'/>
    <tag k='note:osm_route_relation' v='10508888'/>
  </node>
  <node id='-319' version='0' action='modify' visible='true' lat='63.4370882' lon='10.4267906'>
    <tag k='note:osm_object' v='way/1034905064'/>
    <tag k='amenity' v='shelter'/>
    <tag k='building' v='yes'/>
    <tag k='note:relation_member' v='Add as member of OSM route relation 10508888'/>
    <tag k='note:osm_route_relation' v='10508888'/>
  </node>
  <node id='-320' version='0' action='modify' visible='true' lat='63.4167917' lon='10.4076604'>
    <tag k='note:osm_object' v='way/953778907'/>
    <tag k='amenity' v='shelter'/>
    <tag k='building' v='yes'/>
    <tag k='note:relation_member' v='Add as member of OSM route relation 10508888'/>
    <tag k='note:osm_route_relation' v='10508888'/>
  </node>
  <node id='-321' version='0' action='modify' visible='true' lat='63.4165824' lon='10.4075501'>
    <tag k='note:osm_object' v='way/953778908'/>
    <tag k='amenity' v='shelter'/>
    <tag k='building' v='yes'/>
    <tag k='note:relation_member' v='Add as member of OSM route relation 10508888'/>
    <tag k='note:osm_route_relation' v='10508888'/>
  </node>
  <node id='-322' version='0' action='modify' visible='true' lat='63.4384593' lon='10.4296044'>
    <tag k='note:osm_object' v='way/1034903456'/>
    <tag k='amenity' v='shelter'/>
    <tag k='building' v='yes'/>
    <tag k='note:relation_member' v='Add as member of OSM route relation 10508888'/>
    <tag k='note:osm_route_relation' v='10508888'/>
  </node>
  <node id='-323' version='0' action='modify' visible='true' lat='63.4385915' lon='10.4302387'>
    <tag k='note:osm_object' v='way/1034903455'/>
    <tag k='amenity' v='shelter'/>
    <tag k='building' v='yes'/>
    <tag k='note:relation_member' v='Add as member of OSM route relation 10508888'/>
    <tag k='note:osm_route_relation' v='10508888'/>
  </node>
  <node id='-324' version='0' action='modify' visible='true' lat='63.4399112' lon='10.4324890'>
    <tag k='note:osm_object' v='way/1034903713'/>
    <tag k='amenity' v='shelter'/>
    <tag k='building' v='yes'/>
    <tag k='note:relation_member' v='Add as member of OSM route relation 10508888'/>
    <tag k='note:osm_route_relation' v='10508888'/>
  </node>
  <node id='2276076662' version='1' visible='true' lat='63.4403475' lon='10.4329507'>
    <tag k='name' v='Trondheim Leilighetshotell'/>
    <tag k='tourism' v='apartment'/>
    <tag k='note:relation_member' v='Add as member of OSM route relation 10508888'/>
    <tag k='note:osm_route_relation' v='10508888'/>
  </node>
  <node id='-325' version='0' action='modify' visible='true' lat='63.4138469' lon='10.4088535'>
    <tag k='note:osm_object' v='way/1128668066'/>
    <tag k='amenity' v='shelter'/>
    <tag k='note:relation_member' v='Add as member of OSM route relation 10508888'/>
    <tag k='note:osm_route_relation' v='10508888'/>
  </node>
  <node id='-326' version='0' action='modify' visible='true' lat='63.4274514' lon='10.4326190'>
    <tag k='note:osm_object' v='way/1371308625'/>
    <tag k='amenity' v='shelter'/>
    <tag k='building' v='yes'/>
    <tag k='note:relation_member' v='Add as member of OSM route relation 10508888'/>
    <tag k='note:osm_route_relation' v='10508888'/>
  </node>
  <node id='5614808713' version='1' visible='true' lat='63.4225101' lon='10.3488581'>
    <tag k='tourism' v='picnic_site'/>
    <tag k='note:relation_member' v='Add as member of OSM route relation 10508888'/>
    <tag k='note:osm_route_relation' v='10508888'/>
  </node>
  <node id='5614808899' version='1' visible='true' lat='63.4281868' lon='10.3425088'>
    <tag k='tourism' v='picnic_site'/>
    <tag k='note:relation_member' v='Add as member of OSM route relation 10508888'/>
    <tag k='note:osm_route_relation' v='10508888'/>
  </node>
  <node id='12041334693' version='1' visible='true' lat='63.4118139' lon='10.3880592'>
    <tag k='amenity' v='shelter'/>
    <tag k='note:relation_member' v='Add as member of OSM route relation 10508888'/>
    <tag k='note:osm_route_relation' v='10508888'/>
  </node>
  <node id='5614808712' version='1' visible='true' lat='63.4217576' lon='10.3479091'>
    <tag k='tourism' v='picnic_site'/>
    <tag k='note:relation_member' v='Add as member of OSM route relation 10508888'/>
    <tag k='note:osm_route_relation' v='10508888'/>
  </node>
  <node id='5585891813' version='1' visible='true' lat='63.4115670' lon='10.4025440'>
    <tag k='name' v='Scandic Lerkendal'/>
    <tag k='tourism' v='hotel'/>
    <tag k='note:relation_member' v='Add as member of OSM route relation 10508888'/>
    <tag k='note:osm_route_relation' v='10508888'/>
  </node>
  <node id='12041334694' version='1' visible='true' lat='63.4115771' lon='10.3865364'>
    <tag k='amenity' v='shelter'/>
    <tag k='note:relation_member' v='Add as member of OSM route relation 10508888'/>
    <tag k='note:osm_route_relation' v='10508888'/>
  </node>
  <node id='6166912050' version='1' visible='true' lat='63.4184119' lon='10.3545492'>
    <tag k='tourism' v='picnic_site'/>
    <tag k='note:relation_member' v='Add as member of OSM route relation 10508888'/>
    <tag k='note:osm_route_relation' v='10508888'/>
  </node>
  <node id='-327' version='0' action='modify' visible='true' lat='63.4435038' lon='10.4349928'>
    <tag k='note:osm_object' v='way/1034901652'/>
    <tag k='amenity' v='shelter'/>
    <tag k='building' v='yes'/>
    <tag k='note:relation_member' v='Add as member of OSM route relation 10508888'/>
    <tag k='note:osm_route_relation' v='10508888'/>
  </node>
  <node id='-328' version='0' action='modify' visible='true' lat='63.4434848' lon='10.4353901'>
    <tag k='note:osm_object' v='way/1034901651'/>
    <tag k='amenity' v='shelter'/>
    <tag k='building' v='roof'/>
    <tag k='note:relation_member' v='Add as member of OSM route relation 10508888'/>
    <tag k='note:osm_route_relation' v='10508888'/>
  </node>
  <node id='-329' version='0' action='modify' visible='true' lat='63.4273933' lon='10.4387620'>
    <tag k='note:osm_object' v='way/1382645333'/>
    <tag k='name' v='Cecilie Thoresens veg'/>
    <tag k='amenity' v='shelter'/>
    <tag k='building' v='yes'/>
    <tag k='note:relation_member' v='Add as member of OSM route relation 10508888'/>
    <tag k='note:osm_route_relation' v='10508888'/>
  </node>
  <node id='-330' version='0' action='modify' visible='true' lat='63.4315440' lon='10.4420910'>
    <tag k='note:osm_object' v='way/1370355785'/>
    <tag k='amenity' v='shelter'/>
    <tag k='building' v='yes'/>
    <tag k='note:relation_member' v='Add as member of OSM route relation 10508888'/>
    <tag k='note:osm_route_relation' v='10508888'/>
  </node>
  <node id='1599437480' version='1' visible='true' lat='63.4206358' lon='10.3445882'>
    <tag k='tourism' v='picnic_site'/>
    <tag k='note:relation_member' v='Add as member of OSM route relation 10508888'/>
    <tag k='note:osm_route_relation' v='10508888'/>
  </node>
  <relation id='-331' version='0' action='modify' visible='true'>
    <member type='way' ref='-224' role='path'/>
    <member type='node' ref='-225' role='existing'/>
    <member type='node' ref='-226' role='existing'/>
    <member type='node' ref='-227' role='existing'/>
    <member type='node' ref='-228' role='existing'/>
    <member type='node' ref='-229' role='existing'/>
    <member type='node' ref='-230' role='existing'/>
    <member type='node' ref='-231' role='existing'/>
    <member type='node' ref='-232' role='existing'/>
    <member type='node' ref='-233' role='existing'/>
    <member type='node' ref='-234' role='existing'/>
    <member type='node' ref='-235' role='existing'/>
    <member type='node' ref='-236' role='existing'/>
    <member type='node' ref='-237' role='existing'/>
    <member type='node' ref='-238' role='existing'/>
    <member type='node' ref='-239' role='existing'/>
    <member type='node' ref='-240' role='existing'/>
    <member type='node' ref='-241' role='existing'/>
    <member type='node' ref='-242' role='existing'/>
    <member type='node' ref='-243' role='existing'/>
    <member type='node' ref='-244' role='existing'/>
    <member type='node' ref='-245' role='existing'/>
    <member type='node' ref='-246' role='proposed'/>
    <member type='node' ref='-247' role='proposed'/>
    <member type='node' ref='-248' role='proposed'/>
    <member type='node' ref='-249' role='proposed'/>
    <member type='node' ref='-250' role='proposed'/>
    <member type='node' ref='-251' role='proposed'/>
    <member type='node' ref='-252' role='proposed'/>
    <member type='node' ref='-253' role='proposed'/>
    <member type='node' ref='-254' role='proposed'/>
    <member type='node' ref='-255' role='proposed'/>
    <member type='node' ref='-256' role='proposed'/>
    <member type='node' ref='-257' role='proposed'/>
    <member type='node' ref='-258' role='proposed'/>
    <member type='node' ref='-259' role='proposed'/>
    <member type='node' ref='-260' role='proposed'/>
    <member type='node' ref='-261' role='proposed'/>
    <member type='node' ref='-262' role='proposed'/>
    <member type='node' ref='-263' role='proposed'/>
    <member type='node' ref='-264' role='proposed'/>
    <member type='node' ref='-265' role='proposed'/>
    <member type='node' ref='-266' role='proposed'/>
    <member type='node' ref='-267' role='proposed'/>
    <member type='node' ref='-268' role='proposed'/>
    <member type='node' ref='-269' role='proposed'/>
    <member type='node' ref='-270' role='proposed'/>
    <member type='node' ref='-271' role='proposed'/>
    <member type='node' ref='-272' role='proposed'/>
    <member type='node' ref='-273' role='proposed'/>
    <member type='node' ref='-274' role='route_add'/>
    <member type='node' ref='11373501344' role='route_add'/>
    <member type='node' ref='-275' role='route_add'/>
    <member type='node' ref='156719769' role='route_add'/>
    <member type='node' ref='9312886959' role='route_add'/>
    <member type='node' ref='7093860786' role='route_add'/>
    <member type='node' ref='-276' role='route_add'/>
    <member type='node' ref='156719783' role='route_add'/>
    <member type='node' ref='956343591' role='route_add'/>
    <member type='node' ref='13009857691' role='route_add'/>
    <member type='node' ref='-277' role='route_add'/>
    <member type='node' ref='-278' role='route_add'/>
    <member type='node' ref='-279' role='route_add'/>
    <member type='node' ref='-280' role='route_add'/>
    <member type='node' ref='-281' role='route_add'/>
    <member type='node' ref='-282' role='route_add'/>
    <member type='node' ref='-283' role='route_add'/>
    <member type='node' ref='-284' role='route_add'/>
    <member type='node' ref='956343622' role='route_add'/>
    <member type='node' ref='2957446755' role='route_add'/>
    <member type='node' ref='-285' role='route_add'/>
    <member type='node' ref='4744954423' role='route_add'/>
    <member type='node' ref='-286' role='route_add'/>
    <member type='node' ref='-287' role='route_add'/>
    <member type='node' ref='-288' role='route_add'/>
    <member type='node' ref='-289' role='route_add'/>
    <member type='node' ref='-290' role='route_add'/>
    <member type='node' ref='-291' role='route_add'/>
    <member type='node' ref='-292' role='route_add'/>
    <member type='node' ref='-293' role='route_add'/>
    <member type='node' ref='-294' role='route_add'/>
    <member type='node' ref='-295' role='route_add'/>
    <member type='node' ref='-296' role='route_add'/>
    <member type='node' ref='-297' role='route_add'/>
    <member type='node' ref='9153258063' role='route_add'/>
    <member type='node' ref='156719797' role='route_add'/>
    <member type='node' ref='-298' role='route_add'/>
    <member type='node' ref='386579894' role='route_add'/>
    <member type='node' ref='1667274373' role='route_add'/>
    <member type='node' ref='-299' role='route_add'/>
    <member type='node' ref='1769499181' role='route_add'/>
    <member type='node' ref='156719791' role='route_add'/>
    <member type='node' ref='-300' role='route_add'/>
    <member type='node' ref='1513477025' role='route_add'/>
    <member type='node' ref='-301' role='route_add'/>
    <member type='node' ref='-302' role='route_add'/>
    <member type='node' ref='-303' role='route_add'/>
    <member type='node' ref='-304' role='route_add'/>
    <member type='node' ref='-305' role='route_add'/>
    <member type='node' ref='-306' role='route_add'/>
    <member type='node' ref='-307' role='route_add'/>
    <member type='node' ref='-308' role='route_add'/>
    <member type='node' ref='-309' role='route_add'/>
    <member type='node' ref='-310' role='route_add'/>
    <member type='node' ref='11901478606' role='route_add'/>
    <member type='node' ref='-311' role='route_add'/>
    <member type='node' ref='-312' role='route_add'/>
    <member type='node' ref='5370787854' role='route_add'/>
    <member type='node' ref='-313' role='route_add'/>
    <member type='node' ref='-314' role='route_add'/>
    <member type='node' ref='5103482149' role='route_add'/>
    <member type='node' ref='4951143059' role='route_add'/>
    <member type='node' ref='5064717702' role='route_add'/>
    <member type='node' ref='-315' role='route_add'/>
    <member type='node' ref='-316' role='route_add'/>
    <member type='node' ref='-317' role='route_add'/>
    <member type='node' ref='-318' role='route_add'/>
    <member type='node' ref='-319' role='route_add'/>
    <member type='node' ref='-320' role='route_add'/>
    <member type='node' ref='-321' role='route_add'/>
    <member type='node' ref='-322' role='route_add'/>
    <member type='node' ref='-323' role='route_add'/>
    <member type='node' ref='-324' role='route_add'/>
    <member type='node' ref='2276076662' role='route_add'/>
    <member type='node' ref='-325' role='route_add'/>
    <member type='node' ref='-326' role='route_add'/>
    <member type='node' ref='5614808713' role='route_add'/>
    <member type='node' ref='5614808899' role='route_add'/>
    <member type='node' ref='12041334693' role='route_add'/>
    <member type='node' ref='5614808712' role='route_add'/>
    <member type='node' ref='5585891813' role='route_add'/>
    <member type='node' ref='12041334694' role='route_add'/>
    <member type='node' ref='6166912050' role='route_add'/>
    <member type='node' ref='-327' role='route_add'/>
    <member type='node' ref='-328' role='route_add'/>
    <member type='node' ref='-329' role='route_add'/>
    <member type='node' ref='-330' role='route_add'/>
    <member type='node' ref='1599437480' role='route_add'/>
    <tag k='type' v='site'/>
    <tag k='name' v='Kystpilegrimsleia'/>
    <tag k='network' v='Pilegrimsleden'/>
    <tag k='note:trail' v='Kystpilegrimsleia'/>
    <tag k='note' v='Local JOSM research file. role=route_add objects are existing OSM lodging to consider adding to relation/10508888.'/>
  </relation>
</osm>
