<?xml version="1.0" encoding="UTF-8"?>
<gpx version="1.1" creator="Naturkartan" xmlns="http://www.topografix.com/GPX/1/1">
  <metadata><name>Ingegerdsleden</name></metadata>
  
  <trk><name>Ingegerdsleden</name><trkseg><trkpt lon="17.853046746" lat="59.57760563"></trkpt><trkpt lon="17.848341423" lat="59.576529129"></trkpt><trkpt lon="17.848461785" lat="59.57640387"></trkpt><trkpt lon="17.848566095" lat="59.576345645"></trkpt><trkpt lon="17.848729354" lat="59.576282461"></trkpt><trkpt lon="17.849411231" lat="59.576107671"></trkpt><trkpt lon="17.849712737" lat="59.57599348"></trkpt><trkpt lon="17.85000132" lat="59.575840316"></trkpt><trkpt lon="17.85028873" lat="59.575632126"></trkpt><trkpt lon="17.850367012" lat="59.575536439"></trkpt><trkpt lon="17.850389807" lat="59.575384228"></trkpt><trkpt lon="17.850205008" lat="59.574960696"></trkpt><trkpt lon="17.850167999" lat="59.574767574"></trkpt><trkpt lon="17.850179191" lat="59.574598474"></trkpt><trkpt lon="17.850404733" lat="59.574174154"></trkpt><trkpt lon="17.850794831" lat="59.573668247"></trkpt><trkpt lon="17.850862658" lat="59.573534758"></trkpt><trkpt lon="17.849331212" lat="59.573305097"></trkpt><trkpt lon="17.840273419" lat="59.571543183"></trkpt><trkpt lon="17.839914433" lat="59.571542745"></trkpt><trkpt lon="17.839359428" lat="59.571575188"></trkpt><trkpt lon="17.838804996" lat="59.571524778"></trkpt><trkpt lon="17.838315516" lat="59.571507658"></trkpt><trkpt lon="17.83802148" lat="59.571540417"></trkpt><trkpt lon="17.837629538" lat="59.571622783"></trkpt><trkpt lon="17.837237357" lat="59.571754696"></trkpt><trkpt lon="17.837040937" lat="59.571870336"></trkpt><trkpt lon="17.836941716" lat="59.572118586"></trkpt><trkpt lon="17.836514705" lat="59.572680956"></trkpt><trkpt lon="17.834689103" lat="59.572281285"></trkpt><trkpt lon="17.833351799" lat="59.57214719"></trkpt><trkpt lon="17.832242004" lat="59.572162379"></trkpt><trkpt lon="17.83142543" lat="59.572310247"></trkpt><trkpt lon="17.831032208" lat="59.572607843"></trkpt><trkpt lon="17.830900137" lat="59.572905595"></trkpt><trkpt lon="17.830637316" lat="59.57323648"></trkpt><trkpt lon="17.830374741" lat="59.573517636"></trkpt><trkpt lon="17.830178214" lat="59.573682904"></trkpt><trkpt lon="17.830013572" lat="59.573980793"></trkpt><trkpt lon="17.829877643" lat="59.575040176"></trkpt><trkpt lon="17.829778453" lat="59.575305026"></trkpt><trkpt lon="17.829385015" lat="59.575635649"></trkpt><trkpt lon="17.828600818" lat="59.575800238"></trkpt><trkpt lon="17.827849941" lat="59.575848892"></trkpt><trkpt lon="17.826968805" lat="59.575798092"></trkpt><trkpt lon="17.827124225" lat="59.577304965"></trkpt></trkseg><trkseg><trkpt lon="17.850862658" lat="59.573534758"></trkpt><trkpt lon="17.850912956" lat="59.57340421"></trkpt><trkpt lon="17.850910531" lat="59.572752261"></trkpt><trkpt lon="17.850938799" lat="59.572641795"></trkpt><trkpt lon="17.851277209" lat="59.572135469"></trkpt><trkpt lon="17.851347294" lat="59.571850013"></trkpt><trkpt lon="17.851531899" lat="59.571433005"></trkpt><trkpt lon="17.851666931" lat="59.571264225"></trkpt><trkpt lon="17.851827319" lat="59.571122492"></trkpt><trkpt lon="17.853026391" lat="59.57038321"></trkpt><trkpt lon="17.853498667" lat="59.570163731"></trkpt><trkpt lon="17.85433973" lat="59.569472957"></trkpt><trkpt lon="17.854467855" lat="59.56942373"></trkpt><trkpt lon="17.854664243" lat="59.56929828"></trkpt><trkpt lon="17.85472934" lat="59.569218194"></trkpt><trkpt lon="17.854775524" lat="59.569093026"></trkpt><trkpt lon="17.854972205" lat="59.56832308"></trkpt><trkpt lon="17.855218722" lat="59.568057744"></trkpt><trkpt lon="17.855235849" lat="59.567859477"></trkpt><trkpt lon="17.855335419" lat="59.567742626"></trkpt><trkpt lon="17.856594078" lat="59.566797552"></trkpt><trkpt lon="17.857498458" lat="59.56615871"></trkpt><trkpt lon="17.859438398" lat="59.564874505"></trkpt><trkpt lon="17.859612068" lat="59.564799021"></trkpt><trkpt lon="17.859893475" lat="59.564721409"></trkpt><trkpt lon="17.8609316" lat="59.564478719"></trkpt><trkpt lon="17.86064432" lat="59.564394934"></trkpt><trkpt lon="17.860513547" lat="59.564321638"></trkpt><trkpt lon="17.86040289" lat="59.564217755"></trkpt><trkpt lon="17.860072975" lat="59.563794799"></trkpt><trkpt lon="17.860002487" lat="59.563730274"></trkpt><trkpt lon="17.859859526" lat="59.563653733"></trkpt><trkpt lon="17.859565228" lat="59.563558538"></trkpt><trkpt lon="17.859122916" lat="59.563453939"></trkpt><trkpt lon="17.85742653" lat="59.563088024"></trkpt><trkpt lon="17.857236276" lat="59.563070403"></trkpt><trkpt lon="17.857071755" lat="59.563074622"></trkpt><trkpt lon="17.855197759" lat="59.563340775"></trkpt><trkpt lon="17.853063576" lat="59.563474837"></trkpt></trkseg><trkseg><trkpt lon="17.8609316" lat="59.564478719"></trkpt><trkpt lon="17.861234008" lat="59.564497531"></trkpt><trkpt lon="17.861438533" lat="59.564531499"></trkpt><trkpt lon="17.862184454" lat="59.564755975"></trkpt><trkpt lon="17.862365425" lat="59.564797187"></trkpt><trkpt lon="17.862822898" lat="59.5648342"></trkpt><trkpt lon="17.864353041" lat="59.564699175"></trkpt><trkpt lon="17.864516618" lat="59.564667389"></trkpt><trkpt lon="17.864794525" lat="59.564577105"></trkpt><trkpt lon="17.864911701" lat="59.564558825"></trkpt><trkpt lon="17.865005242" lat="59.564567718"></trkpt><trkpt lon="17.865081179" lat="59.564599393"></trkpt><trkpt lon="17.865153052" lat="59.564806819"></trkpt><trkpt lon="17.865595724" lat="59.564563837"></trkpt><trkpt lon="17.866601242" lat="59.564190375"></trkpt><trkpt lon="17.86705942" lat="59.564002788"></trkpt><trkpt lon="17.867767092" lat="59.563612856"></trkpt><trkpt lon="17.86792632" lat="59.563515086"></trkpt><trkpt lon="17.868093046" lat="59.56335404"></trkpt><trkpt lon="17.868340611" lat="59.562875045"></trkpt><trkpt lon="17.868614193" lat="59.562617162"></trkpt><trkpt lon="17.869000333" lat="59.562387846"></trkpt><trkpt lon="17.870016819" lat="59.561987439"></trkpt><trkpt lon="17.870168003" lat="59.56190797"></trkpt><trkpt lon="17.870253902" lat="59.561832474"></trkpt><trkpt lon="17.870320201" lat="59.561748253"></trkpt><trkpt lon="17.870364706" lat="59.561628015"></trkpt><trkpt lon="17.870421735" lat="59.561332572"></trkpt><trkpt lon="17.870545554" lat="59.560962333"></trkpt><trkpt lon="17.870551998" lat="59.560850136"></trkpt><trkpt lon="17.870291364" lat="59.560416323"></trkpt><trkpt lon="17.870293545" lat="59.56026292"></trkpt><trkpt lon="17.870488481" lat="59.560026229"></trkpt><trkpt lon="17.870721474" lat="59.559826647"></trkpt><trkpt lon="17.870904918" lat="59.55963321"></trkpt><trkpt lon="17.871207502" lat="59.559271763"></trkpt><trkpt lon="17.871347135" lat="59.559156286"></trkpt><trkpt lon="17.872173192" lat="59.558756034"></trkpt><trkpt lon="17.872471832" lat="59.558589905"></trkpt><trkpt lon="17.873221014" lat="59.558119647"></trkpt><trkpt lon="17.873387719" lat="59.557950695"></trkpt><trkpt lon="17.873688072" lat="59.557418152"></trkpt><trkpt lon="17.873775127" lat="59.557312226"></trkpt><trkpt lon="17.873885084" lat="59.55722984"></trkpt><trkpt lon="17.874444891" lat="59.556927698"></trkpt><trkpt lon="17.874589777" lat="59.55682066"></trkpt><trkpt lon="17.874866712" lat="59.55653862"></trkpt><trkpt lon="17.874994203" lat="59.556447902"></trkpt><trkpt lon="17.875146243" lat="59.556366094"></trkpt><trkpt lon="17.8756301" lat="59.55617509"></trkpt><trkpt lon="17.875957283" lat="59.556075225"></trkpt><trkpt lon="17.876442904" lat="59.555979279"></trkpt><trkpt lon="17.878063612" lat="59.555810697"></trkpt><trkpt lon="17.878584418" lat="59.555763338"></trkpt><trkpt lon="17.879054034" lat="59.555738369"></trkpt><trkpt lon="17.879557664" lat="59.555746104"></trkpt><trkpt lon="17.879704705" lat="59.55577272"></trkpt><trkpt lon="17.880256312" lat="59.555965408"></trkpt><trkpt lon="17.880575766" lat="59.556046217"></trkpt><trkpt lon="17.880852074" lat="59.556075641"></trkpt><trkpt lon="17.882096823" lat="59.556048583"></trkpt><trkpt lon="17.883398433" lat="59.556096604"></trkpt><trkpt lon="17.883893895" lat="59.556064371"></trkpt><trkpt lon="17.884262695" lat="59.55599181"></trkpt><trkpt lon="17.88457444" lat="59.555898911"></trkpt><trkpt lon="17.885019134" lat="59.555713942"></trkpt><trkpt lon="17.88579519" lat="59.555174877"></trkpt><trkpt lon="17.885960625" lat="59.555096838"></trkpt><trkpt lon="17.886452407" lat="59.554944399"></trkpt><trkpt lon="17.886696095" lat="59.55489156"></trkpt><trkpt lon="17.886977249" lat="59.554846114"></trkpt><trkpt lon="17.887884234" lat="59.55474986"></trkpt><trkpt lon="17.888080864" lat="59.554701915"></trkpt><trkpt lon="17.888476547" lat="59.554567339"></trkpt><trkpt lon="17.888452623" lat="59.554315085"></trkpt><trkpt lon="17.888381243" lat="59.55402895"></trkpt><trkpt lon="17.888107426" lat="59.553464556"></trkpt><trkpt lon="17.887663577" lat="59.552666722"></trkpt><trkpt lon="17.887425436" lat="59.552440046"></trkpt><trkpt lon="17.886567675" lat="59.551956291"></trkpt><trkpt lon="17.886390191" lat="59.551836662"></trkpt><trkpt lon="17.88626935" lat="59.551699938"></trkpt><trkpt lon="17.886205667" lat="59.551550158"></trkpt><trkpt lon="17.886182332" lat="59.551129329"></trkpt><trkpt lon="17.886286543" lat="59.550795681"></trkpt><trkpt lon="17.88649599" lat="59.550505659"></trkpt><trkpt lon="17.886763501" lat="59.550246835"></trkpt><trkpt lon="17.887015891" lat="59.550066988"></trkpt><trkpt lon="17.887295973" lat="59.549906734"></trkpt><trkpt lon="17.888109403" lat="59.549562652"></trkpt><trkpt lon="17.888413179" lat="59.549399273"></trkpt><trkpt lon="17.890416409" lat="59.548219684"></trkpt><trkpt lon="17.893692131" lat="59.546359264"></trkpt><trkpt lon="17.89401068" lat="59.546146335"></trkpt><trkpt lon="17.894616423" lat="59.545680416"></trkpt><trkpt lon="17.894816774" lat="59.545552664"></trkpt><trkpt lon="17.895301682" lat="59.545335827"></trkpt><trkpt lon="17.895751585" lat="59.545231612"></trkpt><trkpt lon="17.896182796" lat="59.545168223"></trkpt><trkpt lon="17.896866918" lat="59.545129178"></trkpt><trkpt lon="17.897297677" lat="59.545155009"></trkpt><trkpt lon="17.897288325" lat="59.54509136"></trkpt><trkpt lon="17.897511833" lat="59.545076365"></trkpt><trkpt lon="17.89790701" lat="59.545117785"></trkpt><trkpt lon="17.897997548" lat="59.545111034"></trkpt><trkpt lon="17.89805938" lat="59.545067009"></trkpt><trkpt lon="17.898384875" lat="59.545117439"></trkpt><trkpt lon="17.899411192" lat="59.54516042"></trkpt><trkpt lon="17.900388135" lat="59.54522077"></trkpt><trkpt lon="17.901989376" lat="59.544230726"></trkpt><trkpt lon="17.902530267" lat="59.543827734"></trkpt><trkpt lon="17.90279062" lat="59.543476416"></trkpt><trkpt lon="17.903197364" lat="59.542994061"></trkpt><trkpt lon="17.903966545" lat="59.542181016"></trkpt><trkpt lon="17.904197318" lat="59.541840983"></trkpt><trkpt lon="17.904415499" lat="59.541701112"></trkpt><trkpt lon="17.904587536" lat="59.541562553"></trkpt><trkpt lon="17.904993132" lat="59.541094195"></trkpt><trkpt lon="17.905783375" lat="59.540303684"></trkpt><trkpt lon="17.906051913" lat="59.539974896"></trkpt><trkpt lon="17.906275596" lat="59.539819586"></trkpt><trkpt lon="17.907186004" lat="59.53901883"></trkpt><trkpt lon="17.907622328" lat="59.538664844"></trkpt><trkpt lon="17.907766681" lat="59.538556243"></trkpt><trkpt lon="17.907848079" lat="59.538523447"></trkpt><trkpt lon="17.907895584" lat="59.538668268"></trkpt><trkpt lon="17.908004193" lat="59.538768699"></trkpt><trkpt lon="17.908455755" lat="59.538918023"></trkpt><trkpt lon="17.90859947" lat="59.538979342"></trkpt><trkpt lon="17.908884487" lat="59.539145423"></trkpt><trkpt lon="17.908976316" lat="59.539176724"></trkpt><trkpt lon="17.909263392" lat="59.539235718"></trkpt><trkpt lon="17.909484817" lat="59.539255889"></trkpt><trkpt lon="17.909392701" lat="59.539330777"></trkpt><trkpt lon="17.909297318" lat="59.539371553"></trkpt><trkpt lon="17.908863894" lat="59.539505358"></trkpt><trkpt lon="17.908779071" lat="59.539955282"></trkpt><trkpt lon="17.908719935" lat="59.540056314"></trkpt><trkpt lon="17.908661601" lat="59.540448897"></trkpt><trkpt lon="17.908663344" lat="59.540588659"></trkpt><trkpt lon="17.908724465" lat="59.540799824"></trkpt><trkpt lon="17.908814505" lat="59.540841178"></trkpt><trkpt lon="17.909816596" lat="59.540710818"></trkpt><trkpt lon="17.910676771" lat="59.541168661"></trkpt><trkpt lon="17.91074277" lat="59.541211523"></trkpt><trkpt lon="17.910879376" lat="59.541426509"></trkpt><trkpt lon="17.911362208" lat="59.54173616"></trkpt><trkpt lon="17.911568186" lat="59.541923905"></trkpt><trkpt lon="17.911786778" lat="59.542156359"></trkpt><trkpt lon="17.911977934" lat="59.542403246"></trkpt><trkpt lon="17.912063825" lat="59.542547553"></trkpt><trkpt lon="17.912116373" lat="59.54307342"></trkpt><trkpt lon="17.91239654" lat="59.543084559"></trkpt><trkpt lon="17.912649149" lat="59.543156"></trkpt><trkpt lon="17.913935123" lat="59.543819662"></trkpt><trkpt lon="17.914020111" lat="59.543906339"></trkpt><trkpt lon="17.914140959" lat="59.543934694"></trkpt><trkpt lon="17.914624814" lat="59.543935908"></trkpt><trkpt lon="17.91482136" lat="59.543951206"></trkpt><trkpt lon="17.915159404" lat="59.544008694"></trkpt><trkpt lon="17.915824261" lat="59.54416181"></trkpt><trkpt lon="17.916008055" lat="59.544187062"></trkpt><trkpt lon="17.916394553" lat="59.544168639"></trkpt><trkpt lon="17.916855566" lat="59.544186436"></trkpt><trkpt lon="17.917098481" lat="59.544181563"></trkpt><trkpt lon="17.917678488" lat="59.544119454"></trkpt><trkpt lon="17.917810516" lat="59.543986598"></trkpt><trkpt lon="17.917837495" lat="59.543870103"></trkpt><trkpt lon="17.917964973" lat="59.543790473"></trkpt><trkpt lon="17.91814682" lat="59.543597417"></trkpt><trkpt lon="17.918426853" lat="59.543447329"></trkpt><trkpt lon="17.918731935" lat="59.543244474"></trkpt><trkpt lon="17.919006315" lat="59.543090432"></trkpt><trkpt lon="17.919469191" lat="59.542914333"></trkpt><trkpt lon="17.919894308" lat="59.542780218"></trkpt><trkpt lon="17.92023762" lat="59.542701885"></trkpt><trkpt lon="17.920914076" lat="59.542581475"></trkpt><trkpt lon="17.92125139" lat="59.542495595"></trkpt><trkpt lon="17.921590825" lat="59.542333148"></trkpt><trkpt lon="17.921753227" lat="59.542204256"></trkpt><trkpt lon="17.922280982" lat="59.542091918"></trkpt><trkpt lon="17.922447982" lat="59.542037621"></trkpt><trkpt lon="17.922582504" lat="59.541961671"></trkpt><trkpt lon="17.922686476" lat="59.541872328"></trkpt><trkpt lon="17.92277855" lat="59.541728403"></trkpt><trkpt lon="17.922781024" lat="59.541651657"></trkpt><trkpt lon="17.922693795" lat="59.5415324"></trkpt><trkpt lon="17.922374636" lat="59.541262294"></trkpt><trkpt lon="17.922323694" lat="59.540969277"></trkpt><trkpt lon="17.922262199" lat="59.540883337"></trkpt><trkpt lon="17.921859246" lat="59.54062054"></trkpt><trkpt lon="17.921636896" lat="59.540382356"></trkpt><trkpt lon="17.921132204" lat="59.54009122"></trkpt><trkpt lon="17.920861008" lat="59.539882178"></trkpt><trkpt lon="17.920584356" lat="59.539739825"></trkpt><trkpt lon="17.920504517" lat="59.53964023"></trkpt><trkpt lon="17.920524946" lat="59.539522024"></trkpt><trkpt lon="17.920576771" lat="59.539432562"></trkpt><trkpt lon="17.920881524" lat="59.539198824"></trkpt><trkpt lon="17.920973354" lat="59.539159473"></trkpt><trkpt lon="17.921309362" lat="59.539088045"></trkpt><trkpt lon="17.921453871" lat="59.538970542"></trkpt><trkpt lon="17.921884515" lat="59.538714885"></trkpt><trkpt lon="17.922340705" lat="59.538262122"></trkpt><trkpt lon="17.922468335" lat="59.538102509"></trkpt><trkpt lon="17.922591607" lat="59.537915516"></trkpt><trkpt lon="17.922686224" lat="59.537660375"></trkpt><trkpt lon="17.922715281" lat="59.537629783"></trkpt><trkpt lon="17.922891767" lat="59.537591379"></trkpt><trkpt lon="17.922870096" lat="59.537483561"></trkpt><trkpt lon="17.922759597" lat="59.537265102"></trkpt><trkpt lon="17.921677869" lat="59.535979949"></trkpt><trkpt lon="17.921501609" lat="59.536076608"></trkpt><trkpt lon="17.92128213" lat="59.536137156"></trkpt><trkpt lon="17.919760733" lat="59.536802364"></trkpt><trkpt lon="17.919493132" lat="59.536953361"></trkpt><trkpt lon="17.919145995" lat="59.537103321"></trkpt><trkpt lon="17.918916609" lat="59.537162871"></trkpt><trkpt lon="17.918660645" lat="59.537029324"></trkpt><trkpt lon="17.919281663" lat="59.536764728"></trkpt><trkpt lon="17.91936567" lat="59.536742788"></trkpt><trkpt lon="17.919395502" lat="59.53668464"></trkpt><trkpt lon="17.919517367" lat="59.536574216"></trkpt><trkpt lon="17.919864435" lat="59.536301909"></trkpt><trkpt lon="17.920131305" lat="59.536008546"></trkpt><trkpt lon="17.920259548" lat="59.535739874"></trkpt><trkpt lon="17.913581236" lat="59.534209302"></trkpt><trkpt lon="17.913964477" lat="59.534038017"></trkpt><trkpt lon="17.914163812" lat="59.533975852"></trkpt><trkpt lon="17.915508136" lat="59.533652861"></trkpt><trkpt lon="17.915997524" lat="59.533502374"></trkpt><trkpt lon="17.916224483" lat="59.53341536"></trkpt><trkpt lon="17.916671627" lat="59.533192494"></trkpt><trkpt lon="17.916893404" lat="59.533055836"></trkpt><trkpt lon="17.917163494" lat="59.532818853"></trkpt><trkpt lon="17.917433573" lat="59.532512662"></trkpt><trkpt lon="17.917574413" lat="59.532226855"></trkpt><trkpt lon="17.917615757" lat="59.532013244"></trkpt><trkpt lon="17.917604804" lat="59.531939183"></trkpt><trkpt lon="17.91752205" lat="59.53181436"></trkpt><trkpt lon="17.917407864" lat="59.531752441"></trkpt><trkpt lon="17.917188392" lat="59.531674567"></trkpt><trkpt lon="17.916891491" lat="59.531606967"></trkpt><trkpt lon="17.916644655" lat="59.531447391"></trkpt><trkpt lon="17.916487622" lat="59.530776221"></trkpt><trkpt lon="17.916484923" lat="59.530366719"></trkpt><trkpt lon="17.916160554" lat="59.530336262"></trkpt><trkpt lon="17.915400449" lat="59.530220158"></trkpt><trkpt lon="17.914509894" lat="59.530190675"></trkpt><trkpt lon="17.910210225" lat="59.529758099"></trkpt><trkpt lon="17.909653269" lat="59.529679263"></trkpt><trkpt lon="17.9090064" lat="59.529524512"></trkpt><trkpt lon="17.90871725" lat="59.529871694"></trkpt><trkpt lon="17.908624253" lat="59.529889223"></trkpt><trkpt lon="17.908521409" lat="59.529888522"></trkpt><trkpt lon="17.907917369" lat="59.529774548"></trkpt><trkpt lon="17.907031678" lat="59.529653909"></trkpt><trkpt lon="17.90634784" lat="59.529644086"></trkpt><trkpt lon="17.905660241" lat="59.529589375"></trkpt><trkpt lon="17.904848401" lat="59.52960297"></trkpt><trkpt lon="17.90471608" lat="59.529591204"></trkpt><trkpt lon="17.903781326" lat="59.529392054"></trkpt><trkpt lon="17.903348889" lat="59.529341647"></trkpt><trkpt lon="17.903050372" lat="59.529361803"></trkpt><trkpt lon="17.902526919" lat="59.529438431"></trkpt><trkpt lon="17.902391402" lat="59.529493265"></trkpt><trkpt lon="17.902255925" lat="59.529595224"></trkpt><trkpt lon="17.902151531" lat="59.529702862"></trkpt><trkpt lon="17.90210062" lat="59.529831275"></trkpt><trkpt lon="17.902016924" lat="59.530479034"></trkpt><trkpt lon="17.901983934" lat="59.53052066"></trkpt><trkpt lon="17.901918288" lat="59.530549873"></trkpt><trkpt lon="17.901755519" lat="59.530555316"></trkpt><trkpt lon="17.901004801" lat="59.530507535"></trkpt><trkpt lon="17.900921783" lat="59.530615098"></trkpt><trkpt lon="17.900837366" lat="59.530657582"></trkpt><trkpt lon="17.900720487" lat="59.53068155"></trkpt><trkpt lon="17.900570989" lat="59.530680808"></trkpt><trkpt lon="17.898160377" lat="59.53016892"></trkpt><trkpt lon="17.898010546" lat="59.530161892"></trkpt><trkpt lon="17.897857215" lat="59.530202255"></trkpt><trkpt lon="17.897327925" lat="59.530504882"></trkpt><trkpt lon="17.897290485" lat="59.530555389"></trkpt><trkpt lon="17.896191036" lat="59.530303903"></trkpt><trkpt lon="17.896337088" lat="59.530102949"></trkpt><trkpt lon="17.896522786" lat="59.52993829"></trkpt><trkpt lon="17.897901486" lat="59.528827296"></trkpt><trkpt lon="17.898166732" lat="59.528471861"></trkpt><trkpt lon="17.898246988" lat="59.528402357"></trkpt><trkpt lon="17.898517982" lat="59.528248534"></trkpt><trkpt lon="17.898598426" lat="59.528174721"></trkpt><trkpt lon="17.898813144" lat="59.527812333"></trkpt><trkpt lon="17.898920852" lat="59.527720858"></trkpt><trkpt lon="17.899149638" lat="59.527615742"></trkpt><trkpt lon="17.899329676" lat="59.527562382"></trkpt><trkpt lon="17.899601404" lat="59.527573811"></trkpt><trkpt lon="17.899742675" lat="59.527543759"></trkpt><trkpt lon="17.900018371" lat="59.527587774"></trkpt><trkpt lon="17.900435085" lat="59.527627677"></trkpt><trkpt lon="17.900536327" lat="59.527629909"></trkpt><trkpt lon="17.900735896" lat="59.527604119"></trkpt><trkpt lon="17.900714089" lat="59.527568915"></trkpt><trkpt lon="17.900718645" lat="59.527341189"></trkpt><trkpt lon="17.900806272" lat="59.527045575"></trkpt><trkpt lon="17.900855088" lat="59.526728389"></trkpt><trkpt lon="17.900822583" lat="59.526605568"></trkpt><trkpt lon="17.90086116" lat="59.526525887"></trkpt><trkpt lon="17.900943721" lat="59.526510331"></trkpt><trkpt lon="17.900913389" lat="59.526128635"></trkpt><trkpt lon="17.900814619" lat="59.52570757"></trkpt><trkpt lon="17.900645557" lat="59.525217424"></trkpt><trkpt lon="17.900617543" lat="59.525190384"></trkpt><trkpt lon="17.900526978" lat="59.525164912"></trkpt><trkpt lon="17.900448897" lat="59.524800324"></trkpt><trkpt lon="17.900193269" lat="59.524550049"></trkpt><trkpt lon="17.900084134" lat="59.52441164"></trkpt><trkpt lon="17.899997642" lat="59.523906745"></trkpt><trkpt lon="17.899763075" lat="59.52346888"></trkpt><trkpt lon="17.899458166" lat="59.522981949"></trkpt><trkpt lon="17.899386711" lat="59.522949041"></trkpt><trkpt lon="17.899000816" lat="59.52284372"></trkpt><trkpt lon="17.89895091" lat="59.522812803"></trkpt><trkpt lon="17.898629656" lat="59.522303417"></trkpt><trkpt lon="17.898410009" lat="59.522142211"></trkpt><trkpt lon="17.898298631" lat="59.521991412"></trkpt><trkpt lon="17.898280727" lat="59.521894005"></trkpt><trkpt lon="17.897937762" lat="59.521384869"></trkpt><trkpt lon="17.897892953" lat="59.521246599"></trkpt><trkpt lon="17.897092179" lat="59.520824353"></trkpt><trkpt lon="17.896765047" lat="59.520693041"></trkpt><trkpt lon="17.896489583" lat="59.520535288"></trkpt><trkpt lon="17.895402327" lat="59.519990547"></trkpt><trkpt lon="17.895213321" lat="59.519870741"></trkpt><trkpt lon="17.894183804" lat="59.519348028"></trkpt><trkpt lon="17.894069602" lat="59.519318224"></trkpt><trkpt lon="17.894093596" lat="59.519271657"></trkpt><trkpt lon="17.894082283" lat="59.519048765"></trkpt><trkpt lon="17.894177762" lat="59.518626326"></trkpt><trkpt lon="17.894190637" lat="59.518238199"></trkpt><trkpt lon="17.894148817" lat="59.517998138"></trkpt><trkpt lon="17.894106356" lat="59.517906096"></trkpt><trkpt lon="17.893925816" lat="59.517739259"></trkpt><trkpt lon="17.89386449" lat="59.517635982"></trkpt><trkpt lon="17.893600237" lat="59.51752069"></trkpt><trkpt lon="17.893305053" lat="59.517523502"></trkpt><trkpt lon="17.892641539" lat="59.517422514"></trkpt><trkpt lon="17.892065644" lat="59.517376799"></trkpt><trkpt lon="17.891850967" lat="59.517338203"></trkpt><trkpt lon="17.889655376" lat="59.517089431"></trkpt><trkpt lon="17.889198501" lat="59.517004488"></trkpt><trkpt lon="17.888527579" lat="59.516799796"></trkpt><trkpt lon="17.88796058" lat="59.516580109"></trkpt><trkpt lon="17.887761016" lat="59.516461719"></trkpt><trkpt lon="17.887652016" lat="59.516359296"></trkpt><trkpt lon="17.887597149" lat="59.516232682"></trkpt><trkpt lon="17.887584822" lat="59.516115171"></trkpt><trkpt lon="17.887626933" lat="59.515828323"></trkpt><trkpt lon="17.887083401" lat="59.515834139"></trkpt><trkpt lon="17.886656535" lat="59.515814381"></trkpt><trkpt lon="17.886112718" lat="59.515747932"></trkpt><trkpt lon="17.884957412" lat="59.515518294"></trkpt><trkpt lon="17.884737512" lat="59.515566932"></trkpt><trkpt lon="17.883092524" lat="59.514948618"></trkpt><trkpt lon="17.882517831" lat="59.514776385"></trkpt><trkpt lon="17.881990668" lat="59.514651678"></trkpt><trkpt lon="17.878448149" lat="59.51391785"></trkpt><trkpt lon="17.872340375" lat="59.5134993"></trkpt><trkpt lon="17.871817585" lat="59.513447444"></trkpt><trkpt lon="17.871481174" lat="59.513385446"></trkpt><trkpt lon="17.871565083" lat="59.513289302"></trkpt><trkpt lon="17.87156939" lat="59.513224946"></trkpt><trkpt lon="17.871450371" lat="59.512475483"></trkpt><trkpt lon="17.871375997" lat="59.511784052"></trkpt><trkpt lon="17.871322218" lat="59.511621527"></trkpt><trkpt lon="17.871012889" lat="59.51113237"></trkpt><trkpt lon="17.869810551" lat="59.509425671"></trkpt><trkpt lon="17.869767427" lat="59.509388376"></trkpt><trkpt lon="17.869657572" lat="59.509344642"></trkpt><trkpt lon="17.868651125" lat="59.509022641"></trkpt><trkpt lon="17.868949007" lat="59.50885203"></trkpt><trkpt lon="17.86907249" lat="59.50875081"></trkpt><trkpt lon="17.867850312" lat="59.508416199"></trkpt><trkpt lon="17.86728786" lat="59.508277843"></trkpt><trkpt lon="17.866746831" lat="59.507902709"></trkpt><trkpt lon="17.866697889" lat="59.507730134"></trkpt><trkpt lon="17.866624881" lat="59.507659236"></trkpt><trkpt lon="17.866694855" lat="59.507424575"></trkpt><trkpt lon="17.866685787" lat="59.50735078"></trkpt><trkpt lon="17.866360617" lat="59.507009257"></trkpt><trkpt lon="17.865452242" lat="59.507007069"></trkpt><trkpt lon="17.865277629" lat="59.506909496"></trkpt><trkpt lon="17.865055988" lat="59.506826057"></trkpt><trkpt lon="17.864946559" lat="59.50667936"></trkpt><trkpt lon="17.864859449" lat="59.506603689"></trkpt><trkpt lon="17.864735105" lat="59.50634549"></trkpt><trkpt lon="17.864758174" lat="59.506273075"></trkpt><trkpt lon="17.865059664" lat="59.505993682"></trkpt><trkpt lon="17.865366906" lat="59.505865188"></trkpt><trkpt lon="17.865524774" lat="59.505820379"></trkpt><trkpt lon="17.866008579" lat="59.505518103"></trkpt><trkpt lon="17.866182659" lat="59.505258326"></trkpt><trkpt lon="17.866310126" lat="59.505175335"></trkpt><trkpt lon="17.86630769" lat="59.505076772"></trkpt><trkpt lon="17.866723837" lat="59.504822088"></trkpt><trkpt lon="17.866800493" lat="59.504727107"></trkpt><trkpt lon="17.866920909" lat="59.504505603"></trkpt><trkpt lon="17.866928691" lat="59.504368003"></trkpt><trkpt lon="17.866969261" lat="59.50424417"></trkpt><trkpt lon="17.867030848" lat="59.504164164"></trkpt><trkpt lon="17.867020827" lat="59.504063349"></trkpt><trkpt lon="17.867292098" lat="59.503735269"></trkpt><trkpt lon="17.867338799" lat="59.503713773"></trkpt><trkpt lon="17.867690825" lat="59.503639177"></trkpt><trkpt lon="17.867770437" lat="59.503600031"></trkpt><trkpt lon="17.86793324" lat="59.503418514"></trkpt><trkpt lon="17.868087856" lat="59.503298656"></trkpt><trkpt lon="17.868219651" lat="59.503234698"></trkpt><trkpt lon="17.868410786" lat="59.503031396"></trkpt><trkpt lon="17.868598377" lat="59.502921534"></trkpt><trkpt lon="17.868789546" lat="59.502845158"></trkpt><trkpt lon="17.86880777" lat="59.502789792"></trkpt><trkpt lon="17.868903678" lat="59.502690968"></trkpt><trkpt lon="17.869009032" lat="59.502614505"></trkpt><trkpt lon="17.869127902" lat="59.502558612"></trkpt><trkpt lon="17.869280234" lat="59.502433723"></trkpt><trkpt lon="17.869249899" lat="59.502333248"></trkpt><trkpt lon="17.869297384" lat="59.502244878"></trkpt><trkpt lon="17.869555204" lat="59.502007351"></trkpt><trkpt lon="17.869634022" lat="59.501852049"></trkpt><trkpt lon="17.869793544" lat="59.501738477"></trkpt><trkpt lon="17.869863222" lat="59.501663325"></trkpt><trkpt lon="17.86987413" lat="59.501581651"></trkpt><trkpt lon="17.869921364" lat="59.501512041"></trkpt><trkpt lon="17.86992191" lat="59.501370035"></trkpt><trkpt lon="17.869631355" lat="59.501261581"></trkpt><trkpt lon="17.869601867" lat="59.500941903"></trkpt><trkpt lon="17.869468891" lat="59.500628585"></trkpt><trkpt lon="17.869305183" lat="59.500501675"></trkpt><trkpt lon="17.869206146" lat="59.500316214"></trkpt><trkpt lon="17.869109663" lat="59.50020104"></trkpt><trkpt lon="17.868984141" lat="59.49997094"></trkpt><trkpt lon="17.868919764" lat="59.499771959"></trkpt><trkpt lon="17.868661789" lat="59.499552408"></trkpt><trkpt lon="17.86858115" lat="59.499449906"></trkpt><trkpt lon="17.868338636" lat="59.499341856"></trkpt><trkpt lon="17.867686436" lat="59.499302151"></trkpt><trkpt lon="17.867318597" lat="59.499233378"></trkpt><trkpt lon="17.867221376" lat="59.499173676"></trkpt><trkpt lon="17.86712026" lat="59.499071961"></trkpt><trkpt lon="17.866948047" lat="59.498822333"></trkpt><trkpt lon="17.866764139" lat="59.498405013"></trkpt><trkpt lon="17.866589127" lat="59.498105653"></trkpt><trkpt lon="17.866122151" lat="59.497574582"></trkpt><trkpt lon="17.865916233" lat="59.497414322"></trkpt><trkpt lon="17.865558007" lat="59.497198521"></trkpt><trkpt lon="17.86543712" lat="59.497099029"></trkpt><trkpt lon="17.865426702" lat="59.497055213"></trkpt><trkpt lon="17.865494913" lat="59.496905378"></trkpt><trkpt lon="17.865348112" lat="59.496530733"></trkpt><trkpt lon="17.865585181" lat="59.496224792"></trkpt><trkpt lon="17.865661093" lat="59.496179809"></trkpt><trkpt lon="17.865796452" lat="59.496146197"></trkpt><trkpt lon="17.866688228" lat="59.496120539"></trkpt><trkpt lon="17.866823742" lat="59.496091952"></trkpt><trkpt lon="17.866847706" lat="59.496058315"></trkpt><trkpt lon="17.866862099" lat="59.495855374"></trkpt><trkpt lon="17.866832856" lat="59.495795023"></trkpt><trkpt lon="17.866710127" lat="59.495715188"></trkpt><trkpt lon="17.866457055" lat="59.495606764"></trkpt><trkpt lon="17.866313328" lat="59.495525381"></trkpt><trkpt lon="17.866117804" lat="59.495328688"></trkpt><trkpt lon="17.866106534" lat="59.494920431"></trkpt><trkpt lon="17.866164657" lat="59.494730371"></trkpt><trkpt lon="17.866339809" lat="59.494542315"></trkpt><trkpt lon="17.866534549" lat="59.494444851"></trkpt><trkpt lon="17.866972804" lat="59.494324835"></trkpt><trkpt lon="17.867600928" lat="59.494222244"></trkpt><trkpt lon="17.869122496" lat="59.494103582"></trkpt><trkpt lon="17.869823925" lat="59.493985704"></trkpt><trkpt lon="17.870500469" lat="59.493911602"></trkpt><trkpt lon="17.871349987" lat="59.49379485"></trkpt><trkpt lon="17.871678075" lat="59.49376591"></trkpt><trkpt lon="17.872170253" lat="59.493756518"></trkpt><trkpt lon="17.872598218" lat="59.493829913"></trkpt><trkpt lon="17.872804516" lat="59.493845105"></trkpt><trkpt lon="17.873062497" lat="59.493823273"></trkpt><trkpt lon="17.873269866" lat="59.493740802"></trkpt><trkpt lon="17.873350582" lat="59.49363442"></trkpt><trkpt lon="17.873336946" lat="59.493551914"></trkpt><trkpt lon="17.873235084" lat="59.493413131"></trkpt><trkpt lon="17.873210828" lat="59.493338334"></trkpt><trkpt lon="17.873226028" lat="59.49323898"></trkpt><trkpt lon="17.873292037" lat="59.493147216"></trkpt><trkpt lon="17.873391712" lat="59.493068589"></trkpt><trkpt lon="17.873631318" lat="59.492955001"></trkpt><trkpt lon="17.8739689" lat="59.492744022"></trkpt><trkpt lon="17.874432059" lat="59.492226531"></trkpt><trkpt lon="17.87455412" lat="59.492154657"></trkpt><trkpt lon="17.874834442" lat="59.492101965"></trkpt><trkpt lon="17.876996528" lat="59.491914346"></trkpt><trkpt lon="17.877212057" lat="59.491863473"></trkpt><trkpt lon="17.87761857" lat="59.491715475"></trkpt><trkpt lon="17.878928549" lat="59.491443812"></trkpt><trkpt lon="17.878937641" lat="59.487473835"></trkpt><trkpt lon="17.878856864" lat="59.487162819"></trkpt><trkpt lon="17.878637608" lat="59.486834977"></trkpt><trkpt lon="17.87850975" lat="59.486759547"></trkpt><trkpt lon="17.878347155" lat="59.486627084"></trkpt><trkpt lon="17.877855699" lat="59.486172241"></trkpt><trkpt lon="17.877726405" lat="59.486007044"></trkpt><trkpt lon="17.877378093" lat="59.485649009"></trkpt><trkpt lon="17.877066705" lat="59.485379155"></trkpt><trkpt lon="17.876690474" lat="59.48493806"></trkpt><trkpt lon="17.876574159" lat="59.484700884"></trkpt><trkpt lon="17.87654152" lat="59.48436002"></trkpt><trkpt lon="17.876423619" lat="59.484026615"></trkpt><trkpt lon="17.876438464" lat="59.483924029"></trkpt><trkpt lon="17.876728076" lat="59.483433204"></trkpt><trkpt lon="17.877400498" lat="59.482680896"></trkpt><trkpt lon="17.877635244" lat="59.482374573"></trkpt><trkpt lon="17.878099728" lat="59.481532303"></trkpt><trkpt lon="17.878443251" lat="59.481101756"></trkpt><trkpt lon="17.879203501" lat="59.48023938"></trkpt><trkpt lon="17.879581216" lat="59.479663264"></trkpt><trkpt lon="17.880158871" lat="59.47912557"></trkpt><trkpt lon="17.880670317" lat="59.478494997"></trkpt><trkpt lon="17.880802313" lat="59.478289558"></trkpt><trkpt lon="17.880840689" lat="59.478164462"></trkpt><trkpt lon="17.88080937" lat="59.47783886"></trkpt><trkpt lon="17.880825657" lat="59.47767308"></trkpt><trkpt lon="17.88126422" lat="59.47708741"></trkpt><trkpt lon="17.881317269" lat="59.476902724"></trkpt><trkpt lon="17.881321791" lat="59.476418272"></trkpt><trkpt lon="17.881449563" lat="59.476156097"></trkpt><trkpt lon="17.881556909" lat="59.476033308"></trkpt><trkpt lon="17.882174228" lat="59.475579301"></trkpt><trkpt lon="17.882800273" lat="59.475606613"></trkpt><trkpt lon="17.882991789" lat="59.475477973"></trkpt><trkpt lon="17.883807744" lat="59.474455122"></trkpt><trkpt lon="17.883913273" lat="59.474292294"></trkpt><trkpt lon="17.886504595" lat="59.474642046"></trkpt><trkpt lon="17.887243911" lat="59.474662703"></trkpt><trkpt lon="17.88791132" lat="59.474608252"></trkpt><trkpt lon="17.888427426" lat="59.474532843"></trkpt><trkpt lon="17.888755125" lat="59.474453411"></trkpt><trkpt lon="17.888998189" lat="59.474359456"></trkpt><trkpt lon="17.889316397" lat="59.474268256"></trkpt><trkpt lon="17.890060052" lat="59.474145907"></trkpt><trkpt lon="17.89041832" lat="59.474104018"></trkpt><trkpt lon="17.891869678" lat="59.474006935"></trkpt><trkpt lon="17.892123993" lat="59.473976895"></trkpt><trkpt lon="17.892528089" lat="59.473890516"></trkpt><trkpt lon="17.89257145" lat="59.474013708"></trkpt><trkpt lon="17.892796972" lat="59.47427367"></trkpt><trkpt lon="17.892889475" lat="59.474310998"></trkpt><trkpt lon="17.893584495" lat="59.474391006"></trkpt><trkpt lon="17.893662348" lat="59.474430746"></trkpt><trkpt lon="17.893667253" lat="59.474498252"></trkpt><trkpt lon="17.894148541" lat="59.474551065"></trkpt><trkpt lon="17.894750918" lat="59.474640956"></trkpt><trkpt lon="17.898783454" lat="59.475329219"></trkpt><trkpt lon="17.899774709" lat="59.47547558"></trkpt><trkpt lon="17.900448652" lat="59.475537225"></trkpt><trkpt lon="17.904478456" lat="59.475772451"></trkpt><trkpt lon="17.905319798" lat="59.475787604"></trkpt><trkpt lon="17.907162829" lat="59.475764151"></trkpt><trkpt lon="17.908681506" lat="59.475769081"></trkpt><trkpt lon="17.908634925" lat="59.473287253"></trkpt><trkpt lon="17.909033934" lat="59.473237174"></trkpt><trkpt lon="17.909795001" lat="59.473231867"></trkpt><trkpt lon="17.909906077" lat="59.47292495"></trkpt><trkpt lon="17.910059541" lat="59.4726651"></trkpt><trkpt lon="17.910082314" lat="59.472460004"></trkpt><trkpt lon="17.910060984" lat="59.472321215"></trkpt><trkpt lon="17.909973721" lat="59.472298983"></trkpt><trkpt lon="17.909876616" lat="59.472063644"></trkpt><trkpt lon="17.909629005" lat="59.471708457"></trkpt><trkpt lon="17.909301155" lat="59.471477626"></trkpt><trkpt lon="17.909092256" lat="59.47116205"></trkpt><trkpt lon="17.907639379" lat="59.471425835"></trkpt><trkpt lon="17.907223692" lat="59.470810298"></trkpt><trkpt lon="17.907097928" lat="59.470677807"></trkpt><trkpt lon="17.906949513" lat="59.470315234"></trkpt><trkpt lon="17.906797867" lat="59.470166118"></trkpt><trkpt lon="17.906728048" lat="59.470025587"></trkpt><trkpt lon="17.906829413" lat="59.469535727"></trkpt><trkpt lon="17.907042013" lat="59.468877818"></trkpt><trkpt lon="17.907123999" lat="59.468698259"></trkpt><trkpt lon="17.908642646" lat="59.466636101"></trkpt><trkpt lon="17.908799548" lat="59.466467993"></trkpt><trkpt lon="17.903793776" lat="59.465518829"></trkpt><trkpt lon="17.902484487" lat="59.465417861"></trkpt><trkpt lon="17.901764564" lat="59.465284112"></trkpt><trkpt lon="17.901307221" lat="59.464983776"></trkpt><trkpt lon="17.900981455" lat="59.464383636"></trkpt><trkpt lon="17.900920021" lat="59.4630172"></trkpt><trkpt lon="17.901512249" lat="59.461984462"></trkpt><trkpt lon="17.902562567" lat="59.461085363"></trkpt><trkpt lon="17.902694951" lat="59.460552262"></trkpt><trkpt lon="17.902696867" lat="59.459885764"></trkpt><trkpt lon="17.902829532" lat="59.459252577"></trkpt><trkpt lon="17.903026916" lat="59.458986213"></trkpt><trkpt lon="17.906041873" lat="59.457755235"></trkpt><trkpt lon="17.90643687" lat="59.456922327"></trkpt><trkpt lon="17.906438435" lat="59.456355826"></trkpt><trkpt lon="17.905982282" lat="59.455655696"></trkpt><trkpt lon="17.905525693" lat="59.455055382"></trkpt><trkpt lon="17.905331415" lat="59.454288745"></trkpt><trkpt lon="17.905332626" lat="59.453855543"></trkpt><trkpt lon="17.906187106" lat="59.452622978"></trkpt><trkpt lon="17.903878238" lat="59.452480459"></trkpt><trkpt lon="17.902778036" lat="59.452005869"></trkpt><trkpt lon="17.901452481" lat="59.451677147"></trkpt><trkpt lon="17.901018369" lat="59.451575295"></trkpt><trkpt lon="17.900738896" lat="59.45152697"></trkpt><trkpt lon="17.898803975" lat="59.451412382"></trkpt><trkpt lon="17.898181608" lat="59.45136217"></trkpt><trkpt lon="17.89850308" lat="59.450689546"></trkpt><trkpt lon="17.89859394" lat="59.450314043"></trkpt><trkpt lon="17.898590582" lat="59.450257937"></trkpt><trkpt lon="17.898547164" lat="59.450215445"></trkpt><trkpt lon="17.898295003" lat="59.450059149"></trkpt><trkpt lon="17.898247505" lat="59.449849422"></trkpt><trkpt lon="17.898259768" lat="59.449698987"></trkpt><trkpt lon="17.89831911" lat="59.449545357"></trkpt><trkpt lon="17.898579279" lat="59.44926334"></trkpt><trkpt lon="17.898652657" lat="59.449131892"></trkpt><trkpt lon="17.898838455" lat="59.448603773"></trkpt><trkpt lon="17.898839988" lat="59.448503776"></trkpt><trkpt lon="17.898751233" lat="59.448295813"></trkpt><trkpt lon="17.898685859" lat="59.44799191"></trkpt><trkpt lon="17.898618266" lat="59.447428227"></trkpt><trkpt lon="17.898578985" lat="59.447359347"></trkpt><trkpt lon="17.89839668" lat="59.447252566"></trkpt><trkpt lon="17.897865004" lat="59.447083035"></trkpt><trkpt lon="17.8977157" lat="59.447022956"></trkpt><trkpt lon="17.89763411" lat="59.446956017"></trkpt><trkpt lon="17.897314781" lat="59.446578397"></trkpt><trkpt lon="17.897149314" lat="59.446269657"></trkpt><trkpt lon="17.896846943" lat="59.445884329"></trkpt><trkpt lon="17.896605267" lat="59.445482263"></trkpt><trkpt lon="17.896459819" lat="59.44531743"></trkpt><trkpt lon="17.896292055" lat="59.445187767"></trkpt><trkpt lon="17.896008894" lat="59.445039251"></trkpt></trkseg><trkseg><trkpt lon="17.922467943" lat="59.466214525"></trkpt><trkpt lon="17.921871294" lat="59.466121533"></trkpt><trkpt lon="17.920980304" lat="59.4658649"></trkpt><trkpt lon="17.919504254" lat="59.465624778"></trkpt><trkpt lon="17.919681848" lat="59.465333782"></trkpt><trkpt lon="17.919832517" lat="59.465240071"></trkpt><trkpt lon="17.919715519" lat="59.465191886"></trkpt><trkpt lon="17.919469378" lat="59.465011847"></trkpt><trkpt lon="17.919319585" lat="59.464960589"></trkpt><trkpt lon="17.918928721" lat="59.464897064"></trkpt><trkpt lon="17.918283693" lat="59.464839931"></trkpt><trkpt lon="17.916576879" lat="59.464654657"></trkpt><trkpt lon="17.914552798" lat="59.464678663"></trkpt><trkpt lon="17.910153487" lat="59.464854074"></trkpt><trkpt lon="17.910207998" lat="59.465181661"></trkpt><trkpt lon="17.910217943" lat="59.465488571"></trkpt><trkpt lon="17.910072986" lat="59.466077683"></trkpt><trkpt lon="17.909950887" lat="59.466293931"></trkpt><trkpt lon="17.909848277" lat="59.466344218"></trkpt><trkpt lon="17.909676033" lat="59.466380812"></trkpt><trkpt lon="17.908799548" lat="59.466467993"></trkpt></trkseg><trkseg><trkpt lon="17.956188839" lat="59.517803468"></trkpt><trkpt lon="17.955747285" lat="59.517484839"></trkpt><trkpt lon="17.954952703" lat="59.516977405"></trkpt><trkpt lon="17.954778915" lat="59.516824388"></trkpt><trkpt lon="17.954520314" lat="59.516821516"></trkpt><trkpt lon="17.954463517" lat="59.51715398"></trkpt><trkpt lon="17.954394331" lat="59.517242013"></trkpt><trkpt lon="17.953301188" lat="59.517802649"></trkpt><trkpt lon="17.952959521" lat="59.517951713"></trkpt><trkpt lon="17.952759466" lat="59.518015732"></trkpt><trkpt lon="17.95253646" lat="59.518069509"></trkpt><trkpt lon="17.952165954" lat="59.518121706"></trkpt><trkpt lon="17.949465751" lat="59.518323108"></trkpt><trkpt lon="17.949204437" lat="59.518355052"></trkpt><trkpt lon="17.949007587" lat="59.518396356"></trkpt><trkpt lon="17.948813696" lat="59.518465847"></trkpt><trkpt lon="17.948547453" lat="59.518601645"></trkpt><trkpt lon="17.948370621" lat="59.518719614"></trkpt><trkpt lon="17.94804255" lat="59.518967859"></trkpt><trkpt lon="17.946917181" lat="59.519922848"></trkpt><trkpt lon="17.946384502" lat="59.520290661"></trkpt><trkpt lon="17.946058157" lat="59.520545275"></trkpt><trkpt lon="17.945794918" lat="59.520774063"></trkpt><trkpt lon="17.945334292" lat="59.521251591"></trkpt><trkpt lon="17.944941523" lat="59.521819"></trkpt><trkpt lon="17.944563622" lat="59.523008114"></trkpt><trkpt lon="17.944574117" lat="59.523180016"></trkpt><trkpt lon="17.944640298" lat="59.523439818"></trkpt><trkpt lon="17.944623651" lat="59.523571943"></trkpt><trkpt lon="17.944553162" lat="59.523783754"></trkpt><trkpt lon="17.944407663" lat="59.524054329"></trkpt><trkpt lon="17.944231023" lat="59.524244372"></trkpt><trkpt lon="17.943296504" lat="59.525012973"></trkpt><trkpt lon="17.942739281" lat="59.52550948"></trkpt><trkpt lon="17.942300236" lat="59.525909362"></trkpt><trkpt lon="17.942036288" lat="59.526202771"></trkpt><trkpt lon="17.941765716" lat="59.526646261"></trkpt><trkpt lon="17.941067866" lat="59.528417695"></trkpt><trkpt lon="17.941048047" lat="59.528535276"></trkpt><trkpt lon="17.939846917" lat="59.530364193"></trkpt><trkpt lon="17.938899826" lat="59.531681209"></trkpt><trkpt lon="17.938702515" lat="59.53192635"></trkpt><trkpt lon="17.9371253" lat="59.533243863"></trkpt><trkpt lon="17.936970113" lat="59.533348811"></trkpt><trkpt lon="17.93659091" lat="59.533506791"></trkpt><trkpt lon="17.936454326" lat="59.533586165"></trkpt><trkpt lon="17.936408241" lat="59.533657594"></trkpt><trkpt lon="17.936376975" lat="59.533837285"></trkpt><trkpt lon="17.936339567" lat="59.533899742"></trkpt><trkpt lon="17.935605655" lat="59.534520544"></trkpt><trkpt lon="17.935398438" lat="59.534748709"></trkpt><trkpt lon="17.935213187" lat="59.535041515"></trkpt><trkpt lon="17.935138332" lat="59.535090937"></trkpt><trkpt lon="17.934956035" lat="59.535132856"></trkpt><trkpt lon="17.934938082" lat="59.535277635"></trkpt><trkpt lon="17.93421567" lat="59.535410123"></trkpt><trkpt lon="17.934030364" lat="59.535452308"></trkpt><trkpt lon="17.933750047" lat="59.535546956"></trkpt><trkpt lon="17.933527405" lat="59.535700787"></trkpt><trkpt lon="17.932995027" lat="59.536252469"></trkpt><trkpt lon="17.932801121" lat="59.536350032"></trkpt><trkpt lon="17.932587018" lat="59.536382775"></trkpt><trkpt lon="17.932318585" lat="59.536362171"></trkpt><trkpt lon="17.931834976" lat="59.536292712"></trkpt><trkpt lon="17.931678387" lat="59.536289669"></trkpt><trkpt lon="17.931455987" lat="59.536317289"></trkpt><trkpt lon="17.931164389" lat="59.536389306"></trkpt><trkpt lon="17.929944629" lat="59.53675175"></trkpt><trkpt lon="17.929490759" lat="59.536829511"></trkpt><trkpt lon="17.929199334" lat="59.536814722"></trkpt><trkpt lon="17.928829292" lat="59.536700073"></trkpt><trkpt lon="17.928612378" lat="59.536721857"></trkpt><trkpt lon="17.927978781" lat="59.53695265"></trkpt><trkpt lon="17.927840745" lat="59.537033541"></trkpt><trkpt lon="17.927643631" lat="59.537217177"></trkpt><trkpt lon="17.92750436" lat="59.537295822"></trkpt><trkpt lon="17.927415223" lat="59.537321983"></trkpt><trkpt lon="17.92731763" lat="59.537334317"></trkpt><trkpt lon="17.927185458" lat="59.537317457"></trkpt><trkpt lon="17.926922962" lat="59.537164983"></trkpt><trkpt lon="17.926789526" lat="59.53716051"></trkpt><trkpt lon="17.926714882" lat="59.537186769"></trkpt><trkpt lon="17.926616993" lat="59.537253767"></trkpt><trkpt lon="17.926524677" lat="59.537441141"></trkpt><trkpt lon="17.926365731" lat="59.537624797"></trkpt><trkpt lon="17.926243441" lat="59.53769582"></trkpt><trkpt lon="17.926153603" lat="59.537717941"></trkpt><trkpt lon="17.925658269" lat="59.537752489"></trkpt><trkpt lon="17.925519" lat="59.537747652"></trkpt><trkpt lon="17.925318329" lat="59.53769359"></trkpt><trkpt lon="17.925266617" lat="59.537659271"></trkpt><trkpt lon="17.925192098" lat="59.537547832"></trkpt><trkpt lon="17.92479749" lat="59.537593026"></trkpt><trkpt lon="17.924229369" lat="59.537691079"></trkpt><trkpt lon="17.923914165" lat="59.537716479"></trkpt><trkpt lon="17.922891767" lat="59.537591379"></trkpt></trkseg></trk>
</gpx>