<?xml version="1.0" encoding="UTF-8"?>
<gpx version="1.1" creator="pilegrimsleden-osm-extractor 1.0" xmlns="http://www.topografix.com/GPX/1/1">
  <trk><name>Pilgrimsleder i Tyresö</name><trkseg>
    <trkpt lat="59.2366490" lon="18.3008190"></trkpt>
    <trkpt lat="59.2367260" lon="18.3007870"></trkpt>
    <trkpt lat="59.2367780" lon="18.3007360"></trkpt>
    <trkpt lat="59.2368790" lon="18.3005140"></trkpt>
    <trkpt lat="59.2369120" lon="18.3004040"></trkpt>
    <trkpt lat="59.2368270" lon="18.3003750"></trkpt>
    <trkpt lat="59.2367620" lon="18.3003240"></trkpt>
    <trkpt lat="59.2367020" lon="18.3002220"></trkpt>
    <trkpt lat="59.2366560" lon="18.3001250"></trkpt>
    <trkpt lat="59.2366210" lon="18.3000380"></trkpt>
    <trkpt lat="59.2365900" lon="18.2999230"></trkpt>
    <trkpt lat="59.2365420" lon="18.2996670"></trkpt>
    <trkpt lat="59.2364440" lon="18.2987880"></trkpt>
    <trkpt lat="59.2364390" lon="18.2987420"></trkpt>
    <trkpt lat="59.2363850" lon="18.2982670"></trkpt>
    <trkpt lat="59.2363810" lon="18.2978360"></trkpt>
    <trkpt lat="59.2364190" lon="18.2974280"></trkpt>
    <trkpt lat="59.2364670" lon="18.2969510"></trkpt>
    <trkpt lat="59.2365420" lon="18.2969400"></trkpt>
    <trkpt lat="59.2365920" lon="18.2969320"></trkpt>
    <trkpt lat="59.2369590" lon="18.2968770"></trkpt>
    <trkpt lat="59.2371730" lon="18.2968480"></trkpt>
    <trkpt lat="59.2373200" lon="18.2968150"></trkpt>
    <trkpt lat="59.2374940" lon="18.2967760"></trkpt>
    <trkpt lat="59.2377040" lon="18.2966690"></trkpt>
    <trkpt lat="59.2379260" lon="18.2965560"></trkpt>
    <trkpt lat="59.2380840" lon="18.2965270"></trkpt>
    <trkpt lat="59.2384310" lon="18.2965580"></trkpt>
    <trkpt lat="59.2386550" lon="18.2964200"></trkpt>
    <trkpt lat="59.2387750" lon="18.2962180"></trkpt>
    <trkpt lat="59.2389430" lon="18.2958000"></trkpt>
    <trkpt lat="59.2393190" lon="18.2954280"></trkpt>
    <trkpt lat="59.2394760" lon="18.2954760"></trkpt>
    <trkpt lat="59.2395490" lon="18.2955190"></trkpt>
    <trkpt lat="59.2395900" lon="18.2955810"></trkpt>
    <trkpt lat="59.2396010" lon="18.2956170"></trkpt>
    <trkpt lat="59.2396200" lon="18.2956520"></trkpt>
    <trkpt lat="59.2396300" lon="18.2958710"></trkpt>
    <trkpt lat="59.2396050" lon="18.2963540"></trkpt>
    <trkpt lat="59.2394510" lon="18.2974620"></trkpt>
    <trkpt lat="59.2394180" lon="18.2977210"></trkpt>
    <trkpt lat="59.2392835" lon="18.2987460"></trkpt>
    <trkpt lat="59.2391490" lon="18.2997710"></trkpt>
    <trkpt lat="59.2391350" lon="18.2999460"></trkpt>
    <trkpt lat="59.2391240" lon="18.3003380"></trkpt>
    <trkpt lat="59.2391310" lon="18.3007710"></trkpt>
    <trkpt lat="59.2391360" lon="18.3011710"></trkpt>
    <trkpt lat="59.2391840" lon="18.3018670"></trkpt>
    <trkpt lat="59.2391920" lon="18.3020580"></trkpt>
    <trkpt lat="59.2392630" lon="18.3025590"></trkpt>
    <trkpt lat="59.2393670" lon="18.3030270"></trkpt>
    <trkpt lat="59.2394730" lon="18.3033100"></trkpt>
    <trkpt lat="59.2395870" lon="18.3035640"></trkpt>
    <trkpt lat="59.2399170" lon="18.3040980"></trkpt>
    <trkpt lat="59.2400820" lon="18.3043880"></trkpt>
    <trkpt lat="59.2402160" lon="18.3046730"></trkpt>
    <trkpt lat="59.2403710" lon="18.3050490"></trkpt>
    <trkpt lat="59.2404370" lon="18.3052660"></trkpt>
    <trkpt lat="59.2405000" lon="18.3056400"></trkpt>
    <trkpt lat="59.2405290" lon="18.3058810"></trkpt>
    <trkpt lat="59.2405430" lon="18.3061660"></trkpt>
    <trkpt lat="59.2405470" lon="18.3063970"></trkpt>
    <trkpt lat="59.2405250" lon="18.3065720"></trkpt>
    <trkpt lat="59.2404680" lon="18.3070260"></trkpt>
    <trkpt lat="59.2402860" lon="18.3077290"></trkpt>
    <trkpt lat="59.2401910" lon="18.3079820"></trkpt>
    <trkpt lat="59.2401020" lon="18.3083340"></trkpt>
    <trkpt lat="59.2399190" lon="18.3089520"></trkpt>
    <trkpt lat="59.2398590" lon="18.3094090"></trkpt>
    <trkpt lat="59.2398560" lon="18.3097470"></trkpt>
    <trkpt lat="59.2399140" lon="18.3101250"></trkpt>
    <trkpt lat="59.2401310" lon="18.3109780"></trkpt>
    <trkpt lat="59.2401480" lon="18.3115810"></trkpt>
    <trkpt lat="59.2400760" lon="18.3120070"></trkpt>
    <trkpt lat="59.2399620" lon="18.3123470"></trkpt>
    <trkpt lat="59.2398550" lon="18.3125740"></trkpt>
    <trkpt lat="59.2394250" lon="18.3131360"></trkpt>
    <trkpt lat="59.2391125" lon="18.3139860"></trkpt>
    <trkpt lat="59.2388000" lon="18.3148360"></trkpt>
    <trkpt lat="59.2386100" lon="18.3158280"></trkpt>
    <trkpt lat="59.2384070" lon="18.3170993"></trkpt>
    <trkpt lat="59.2382040" lon="18.3183707"></trkpt>
    <trkpt lat="59.2380010" lon="18.3196420"></trkpt>
    <trkpt lat="59.2379150" lon="18.3200260"></trkpt>
    <trkpt lat="59.2378750" lon="18.3202980"></trkpt>
    <trkpt lat="59.2377010" lon="18.3211615"></trkpt>
    <trkpt lat="59.2375270" lon="18.3220250"></trkpt>
    <trkpt lat="59.2373800" lon="18.3226680"></trkpt>
    <trkpt lat="59.2371193" lon="18.3239000"></trkpt>
    <trkpt lat="59.2368587" lon="18.3251320"></trkpt>
    <trkpt lat="59.2365980" lon="18.3263640"></trkpt>
    <trkpt lat="59.2365530" lon="18.3265790"></trkpt>
    <trkpt lat="59.2362900" lon="18.3272840"></trkpt>
    <trkpt lat="59.2361900" lon="18.3273980"></trkpt>
    <trkpt lat="59.2361450" lon="18.3274400"></trkpt>
    <trkpt lat="59.2361340" lon="18.3274400"></trkpt>
    <trkpt lat="59.2361240" lon="18.3274450"></trkpt>
    <trkpt lat="59.2361150" lon="18.3274520"></trkpt>
    <trkpt lat="59.2361050" lon="18.3274610"></trkpt>
    <trkpt lat="59.2358850" lon="18.3276820"></trkpt>
    <trkpt lat="59.2353580" lon="18.3280940"></trkpt>
    <trkpt lat="59.2351760" lon="18.3282290"></trkpt>
    <trkpt lat="59.2349950" lon="18.3283620"></trkpt>
    <trkpt lat="59.2346510" lon="18.3286110"></trkpt>
    <trkpt lat="59.2343060" lon="18.3288600"></trkpt>
    <trkpt lat="59.2342000" lon="18.3289560"></trkpt>
    <trkpt lat="59.2338210" lon="18.3293360"></trkpt>
    <trkpt lat="59.2333865" lon="18.3298035"></trkpt>
    <trkpt lat="59.2329520" lon="18.3302710"></trkpt>
    <trkpt lat="59.2325890" lon="18.3306920"></trkpt>
    <trkpt lat="59.2318670" lon="18.3317315"></trkpt>
    <trkpt lat="59.2311450" lon="18.3327710"></trkpt>
    <trkpt lat="59.2308850" lon="18.3331380"></trkpt>
    <trkpt lat="59.2307200" lon="18.3333960"></trkpt>
    <trkpt lat="59.2305780" lon="18.3336440"></trkpt>
    <trkpt lat="59.2305050" lon="18.3337980"></trkpt>
    <trkpt lat="59.2304740" lon="18.3337680"></trkpt>
    <trkpt lat="59.2304530" lon="18.3337650"></trkpt>
    <trkpt lat="59.2304330" lon="18.3337750"></trkpt>
    <trkpt lat="59.2304160" lon="18.3337970"></trkpt>
    <trkpt lat="59.2304030" lon="18.3338290"></trkpt>
    <trkpt lat="59.2303950" lon="18.3338670"></trkpt>
    <trkpt lat="59.2303940" lon="18.3339070"></trkpt>
    <trkpt lat="59.2304010" lon="18.3339530"></trkpt>
    <trkpt lat="59.2302250" lon="18.3343670"></trkpt>
    <trkpt lat="59.2301280" lon="18.3346750"></trkpt>
    <trkpt lat="59.2299330" lon="18.3354640"></trkpt>
    <trkpt lat="59.2299260" lon="18.3354610"></trkpt>
    <trkpt lat="59.2298970" lon="18.3354720"></trkpt>
    <trkpt lat="59.2298690" lon="18.3355000"></trkpt>
    <trkpt lat="59.2298560" lon="18.3355360"></trkpt>
    <trkpt lat="59.2298460" lon="18.3355920"></trkpt>
    <trkpt lat="59.2298490" lon="18.3356420"></trkpt>
    <trkpt lat="59.2298570" lon="18.3356960"></trkpt>
    <trkpt lat="59.2298890" lon="18.3357540"></trkpt>
    <trkpt lat="59.2297350" lon="18.3363750"></trkpt>
    <trkpt lat="59.2296410" lon="18.3367530"></trkpt>
    <trkpt lat="59.2296010" lon="18.3369150"></trkpt>
    <trkpt lat="59.2293180" lon="18.3381310"></trkpt>
    <trkpt lat="59.2291220" lon="18.3387970"></trkpt>
    <trkpt lat="59.2289870" lon="18.3393140"></trkpt>
    <trkpt lat="59.2289560" lon="18.3394240"></trkpt>
    <trkpt lat="59.2285840" lon="18.3406640"></trkpt>
    <trkpt lat="59.2283270" lon="18.3414640"></trkpt>
    <trkpt lat="59.2280420" lon="18.3422530"></trkpt>
    <trkpt lat="59.2279370" lon="18.3425150"></trkpt>
    <trkpt lat="59.2278000" lon="18.3428590"></trkpt>
    <trkpt lat="59.2275490" lon="18.3434340"></trkpt>
    <trkpt lat="59.2273340" lon="18.3438600"></trkpt>
    <trkpt lat="59.2271740" lon="18.3441680"></trkpt>
    <trkpt lat="59.2268590" lon="18.3446830"></trkpt>
    <trkpt lat="59.2266830" lon="18.3449460"></trkpt>
    <trkpt lat="59.2265350" lon="18.3451930"></trkpt>
    <trkpt lat="59.2262300" lon="18.3457340"></trkpt>
    <trkpt lat="59.2261150" lon="18.3458270"></trkpt>
    <trkpt lat="59.2258990" lon="18.3462970"></trkpt>
    <trkpt lat="59.2258360" lon="18.3464330"></trkpt>
    <trkpt lat="59.2256840" lon="18.3468530"></trkpt>
    <trkpt lat="59.2255510" lon="18.3473860"></trkpt>
    <trkpt lat="59.2254750" lon="18.3477730"></trkpt>
    <trkpt lat="59.2253580" lon="18.3483330"></trkpt>
    <trkpt lat="59.2253490" lon="18.3484590"></trkpt>
    <trkpt lat="59.2253470" lon="18.3485780"></trkpt>
    <trkpt lat="59.2253690" lon="18.3487170"></trkpt>
    <trkpt lat="59.2254170" lon="18.3488620"></trkpt>
    <trkpt lat="59.2256340" lon="18.3494070"></trkpt>
    <trkpt lat="59.2257940" lon="18.3499160"></trkpt>
    <trkpt lat="59.2259740" lon="18.3505750"></trkpt>
    <trkpt lat="59.2261290" lon="18.3511270"></trkpt>
    <trkpt lat="59.2262400" lon="18.3514620"></trkpt>
    <trkpt lat="59.2259850" lon="18.3521750"></trkpt>
    <trkpt lat="59.2257950" lon="18.3524730"></trkpt>
    <trkpt lat="59.2255180" lon="18.3527310"></trkpt>
    <trkpt lat="59.2254660" lon="18.3527630"></trkpt>
    <trkpt lat="59.2254120" lon="18.3527950"></trkpt>
    <trkpt lat="59.2251480" lon="18.3529180"></trkpt>
    <trkpt lat="59.2249890" lon="18.3529610"></trkpt>
    <trkpt lat="59.2249340" lon="18.3529700"></trkpt>
    <trkpt lat="59.2248630" lon="18.3529650"></trkpt>
    <trkpt lat="59.2246760" lon="18.3528880"></trkpt>
    <trkpt lat="59.2243160" lon="18.3526620"></trkpt>
    <trkpt lat="59.2241650" lon="18.3526090"></trkpt>
    <trkpt lat="59.2240610" lon="18.3525760"></trkpt>
    <trkpt lat="59.2238970" lon="18.3525460"></trkpt>
    <trkpt lat="59.2235920" lon="18.3524920"></trkpt>
    <trkpt lat="59.2235100" lon="18.3524490"></trkpt>
    <trkpt lat="59.2234200" lon="18.3523910"></trkpt>
    <trkpt lat="59.2232670" lon="18.3522350"></trkpt>
    <trkpt lat="59.2230370" lon="18.3519580"></trkpt>
    <trkpt lat="59.2226100" lon="18.3514880"></trkpt>
    <trkpt lat="59.2224120" lon="18.3513500"></trkpt>
    <trkpt lat="59.2222460" lon="18.3512900"></trkpt>
    <trkpt lat="59.2222180" lon="18.3512860"></trkpt>
    <trkpt lat="59.2221250" lon="18.3512700"></trkpt>
    <trkpt lat="59.2220220" lon="18.3512710"></trkpt>
    <trkpt lat="59.2219960" lon="18.3512760"></trkpt>
    <trkpt lat="59.2219390" lon="18.3512880"></trkpt>
    <trkpt lat="59.2218870" lon="18.3513130"></trkpt>
    <trkpt lat="59.2217150" lon="18.3513950"></trkpt>
    <trkpt lat="59.2214430" lon="18.3515770"></trkpt>
    <trkpt lat="59.2213030" lon="18.3517200"></trkpt>
    <trkpt lat="59.2211910" lon="18.3518360"></trkpt>
    <trkpt lat="59.2205770" lon="18.3525140"></trkpt>
    <trkpt lat="59.2203150" lon="18.3528030"></trkpt>
    <trkpt lat="59.2201330" lon="18.3529180"></trkpt>
    <trkpt lat="59.2200070" lon="18.3529730"></trkpt>
    <trkpt lat="59.2194530" lon="18.3531840"></trkpt>
    <trkpt lat="59.2193100" lon="18.3532260"></trkpt>
    <trkpt lat="59.2190560" lon="18.3532820"></trkpt>
    <trkpt lat="59.2189510" lon="18.3533090"></trkpt>
    <trkpt lat="59.2187740" lon="18.3533540"></trkpt>
    <trkpt lat="59.2183790" lon="18.3534700"></trkpt>
    <trkpt lat="59.2182270" lon="18.3535370"></trkpt>
    <trkpt lat="59.2179530" lon="18.3536860"></trkpt>
    <trkpt lat="59.2173210" lon="18.3541140"></trkpt>
    <trkpt lat="59.2170180" lon="18.3543530"></trkpt>
    <trkpt lat="59.2168560" lon="18.3545130"></trkpt>
    <trkpt lat="59.2163350" lon="18.3551170"></trkpt>
    <trkpt lat="59.2160730" lon="18.3554260"></trkpt>
    <trkpt lat="59.2158580" lon="18.3556160"></trkpt>
    <trkpt lat="59.2156670" lon="18.3557660"></trkpt>
    <trkpt lat="59.2154630" lon="18.3559900"></trkpt>
    <trkpt lat="59.2152250" lon="18.3563280"></trkpt>
    <trkpt lat="59.2149350" lon="18.3567480"></trkpt>
    <trkpt lat="59.2148120" lon="18.3569360"></trkpt>
    <trkpt lat="59.2146400" lon="18.3572340"></trkpt>
    <trkpt lat="59.2145810" lon="18.3573650"></trkpt>
    <trkpt lat="59.2145230" lon="18.3575080"></trkpt>
    <trkpt lat="59.2143420" lon="18.3579990"></trkpt>
    <trkpt lat="59.2142630" lon="18.3581760"></trkpt>
    <trkpt lat="59.2142290" lon="18.3582390"></trkpt>
    <trkpt lat="59.2141610" lon="18.3583500"></trkpt>
    <trkpt lat="59.2140870" lon="18.3584300"></trkpt>
    <trkpt lat="59.2139980" lon="18.3585710"></trkpt>
    <trkpt lat="59.2139410" lon="18.3586880"></trkpt>
    <trkpt lat="59.2137560" lon="18.3591430"></trkpt>
    <trkpt lat="59.2135670" lon="18.3595290"></trkpt>
    <trkpt lat="59.2133240" lon="18.3599650"></trkpt>
    <trkpt lat="59.2129860" lon="18.3605450"></trkpt>
    <trkpt lat="59.2126450" lon="18.3611590"></trkpt>
    <trkpt lat="59.2122500" lon="18.3619830"></trkpt>
    <trkpt lat="59.2119330" lon="18.3626930"></trkpt>
    <trkpt lat="59.2116160" lon="18.3634030"></trkpt>
    <trkpt lat="59.2115390" lon="18.3636800"></trkpt>
    <trkpt lat="59.2114480" lon="18.3644450"></trkpt>
    <trkpt lat="59.2113435" lon="18.3654860"></trkpt>
    <trkpt lat="59.2112390" lon="18.3665270"></trkpt>
    <trkpt lat="59.2111160" lon="18.3676530"></trkpt>
    <trkpt lat="59.2109930" lon="18.3687790"></trkpt>
    <trkpt lat="59.2109720" lon="18.3690060"></trkpt>
    <trkpt lat="59.2109670" lon="18.3691970"></trkpt>
    <trkpt lat="59.2109870" lon="18.3694570"></trkpt>
    <trkpt lat="59.2110410" lon="18.3697350"></trkpt>
    <trkpt lat="59.2112280" lon="18.3705470"></trkpt>
    <trkpt lat="59.2107270" lon="18.3710780"></trkpt>
    <trkpt lat="59.2103630" lon="18.3716670"></trkpt>
    <trkpt lat="59.2102990" lon="18.3717720"></trkpt>
    <trkpt lat="59.2099540" lon="18.3724040"></trkpt>
    <trkpt lat="59.2095990" lon="18.3727720"></trkpt>
    <trkpt lat="59.2092750" lon="18.3729350"></trkpt>
    <trkpt lat="59.2087460" lon="18.3732920"></trkpt>
    <trkpt lat="59.2082870" lon="18.3736890"></trkpt>
    <trkpt lat="59.2082370" lon="18.3737940"></trkpt>
    <trkpt lat="59.2080180" lon="18.3744140"></trkpt>
    <trkpt lat="59.2079430" lon="18.3745430"></trkpt>
    <trkpt lat="59.2078880" lon="18.3746130"></trkpt>
    <trkpt lat="59.2078110" lon="18.3746850"></trkpt>
    <trkpt lat="59.2076990" lon="18.3747720"></trkpt>
    <trkpt lat="59.2075830" lon="18.3748270"></trkpt>
    <trkpt lat="59.2074490" lon="18.3748540"></trkpt>
    <trkpt lat="59.2070820" lon="18.3748880"></trkpt>
    <trkpt lat="59.2069390" lon="18.3749510"></trkpt>
    <trkpt lat="59.2067330" lon="18.3750770"></trkpt>
    <trkpt lat="59.2065040" lon="18.3752400"></trkpt>
    <trkpt lat="59.2062870" lon="18.3754060"></trkpt>
    <trkpt lat="59.2061550" lon="18.3755140"></trkpt>
    <trkpt lat="59.2059300" lon="18.3757180"></trkpt>
    <trkpt lat="59.2057600" lon="18.3758710"></trkpt>
    <trkpt lat="59.2057160" lon="18.3759350"></trkpt>
    <trkpt lat="59.2056660" lon="18.3760490"></trkpt>
    <trkpt lat="59.2056140" lon="18.3762190"></trkpt>
    <trkpt lat="59.2055230" lon="18.3766030"></trkpt>
  </trkseg></trk>
</gpx>
