<?xml version="1.0" encoding="UTF-8"?>
<gpx version="1.1" creator="pilegrimsleden-osm-extractor 1.0" xmlns="http://www.topografix.com/GPX/1/1">
  <trk><name>Kyrkstigen</name><trkseg>
    <trkpt lat="64.5188720" lon="20.6551450"></trkpt>
    <trkpt lat="64.5188690" lon="20.6551480"></trkpt>
    <trkpt lat="64.5187860" lon="20.6552410"></trkpt>
    <trkpt lat="64.5181610" lon="20.6559620"></trkpt>
    <trkpt lat="64.5182750" lon="20.6565560"></trkpt>
    <trkpt lat="64.5185400" lon="20.6579360"></trkpt>
    <trkpt lat="64.5179540" lon="20.6585370"></trkpt>
    <trkpt lat="64.5178440" lon="20.6586500"></trkpt>
    <trkpt lat="64.5172410" lon="20.6592680"></trkpt>
    <trkpt lat="64.5168930" lon="20.6576865"></trkpt>
    <trkpt lat="64.5165450" lon="20.6561050"></trkpt>
    <trkpt lat="64.5163100" lon="20.6552590"></trkpt>
    <trkpt lat="64.5161030" lon="20.6546070"></trkpt>
    <trkpt lat="64.5158300" lon="20.6539270"></trkpt>
    <trkpt lat="64.5152710" lon="20.6527270"></trkpt>
    <trkpt lat="64.5148800" lon="20.6520370"></trkpt>
    <trkpt lat="64.5143690" lon="20.6513600"></trkpt>
    <trkpt lat="64.5141600" lon="20.6510830"></trkpt>
    <trkpt lat="64.5137480" lon="20.6505740"></trkpt>
    <trkpt lat="64.5131870" lon="20.6497760"></trkpt>
    <trkpt lat="64.5127480" lon="20.6487830"></trkpt>
    <trkpt lat="64.5125030" lon="20.6481520"></trkpt>
    <trkpt lat="64.5122265" lon="20.6472975"></trkpt>
    <trkpt lat="64.5119500" lon="20.6464430"></trkpt>
    <trkpt lat="64.5118170" lon="20.6456710"></trkpt>
    <trkpt lat="64.5116120" lon="20.6458360"></trkpt>
    <trkpt lat="64.5112560" lon="20.6460540"></trkpt>
    <trkpt lat="64.5107160" lon="20.6463860"></trkpt>
    <trkpt lat="64.5103630" lon="20.6467100"></trkpt>
    <trkpt lat="64.5100150" lon="20.6471360"></trkpt>
    <trkpt lat="64.5095070" lon="20.6480480"></trkpt>
    <trkpt lat="64.5091490" lon="20.6487480"></trkpt>
    <trkpt lat="64.5087400" lon="20.6496700"></trkpt>
    <trkpt lat="64.5081857" lon="20.6509377"></trkpt>
    <trkpt lat="64.5076313" lon="20.6522053"></trkpt>
    <trkpt lat="64.5070770" lon="20.6534730"></trkpt>
    <trkpt lat="64.5066150" lon="20.6545310"></trkpt>
    <trkpt lat="64.5062475" lon="20.6553995"></trkpt>
    <trkpt lat="64.5058800" lon="20.6562680"></trkpt>
    <trkpt lat="64.5055630" lon="20.6570160"></trkpt>
    <trkpt lat="64.5051480" lon="20.6581600"></trkpt>
    <trkpt lat="64.5047870" lon="20.6592725"></trkpt>
    <trkpt lat="64.5044260" lon="20.6603850"></trkpt>
    <trkpt lat="64.5041340" lon="20.6612105"></trkpt>
    <trkpt lat="64.5038420" lon="20.6620360"></trkpt>
    <trkpt lat="64.5034715" lon="20.6628615"></trkpt>
    <trkpt lat="64.5031010" lon="20.6636870"></trkpt>
    <trkpt lat="64.5027170" lon="20.6645745"></trkpt>
    <trkpt lat="64.5023330" lon="20.6654620"></trkpt>
    <trkpt lat="64.5018717" lon="20.6664890"></trkpt>
    <trkpt lat="64.5014103" lon="20.6675160"></trkpt>
    <trkpt lat="64.5009490" lon="20.6685430"></trkpt>
    <trkpt lat="64.5005340" lon="20.6693795"></trkpt>
    <trkpt lat="64.5001190" lon="20.6702160"></trkpt>
    <trkpt lat="64.4995920" lon="20.6711175"></trkpt>
    <trkpt lat="64.4990650" lon="20.6720190"></trkpt>
    <trkpt lat="64.4985665" lon="20.6727645"></trkpt>
    <trkpt lat="64.4980680" lon="20.6735100"></trkpt>
    <trkpt lat="64.4974640" lon="20.6743320"></trkpt>
    <trkpt lat="64.4968600" lon="20.6751540"></trkpt>
    <trkpt lat="64.4964620" lon="20.6757315"></trkpt>
    <trkpt lat="64.4960640" lon="20.6763090"></trkpt>
    <trkpt lat="64.4956030" lon="20.6771870"></trkpt>
    <trkpt lat="64.4950790" lon="20.6784140"></trkpt>
    <trkpt lat="64.4946455" lon="20.6796165"></trkpt>
    <trkpt lat="64.4942120" lon="20.6808190"></trkpt>
    <trkpt lat="64.4937480" lon="20.6821082"></trkpt>
    <trkpt lat="64.4932840" lon="20.6833975"></trkpt>
    <trkpt lat="64.4928200" lon="20.6846868"></trkpt>
    <trkpt lat="64.4923560" lon="20.6859760"></trkpt>
    <trkpt lat="64.4918500" lon="20.6873910"></trkpt>
    <trkpt lat="64.4913860" lon="20.6887410"></trkpt>
    <trkpt lat="64.4911445" lon="20.6896625"></trkpt>
    <trkpt lat="64.4909030" lon="20.6905840"></trkpt>
    <trkpt lat="64.4905270" lon="20.6923340"></trkpt>
    <trkpt lat="64.4901650" lon="20.6941050"></trkpt>
    <trkpt lat="64.4899540" lon="20.6952110"></trkpt>
    <trkpt lat="64.4897000" lon="20.6970540"></trkpt>
    <trkpt lat="64.4896380" lon="20.6989630"></trkpt>
    <trkpt lat="64.4896170" lon="20.7009120"></trkpt>
    <trkpt lat="64.4897710" lon="20.7024590"></trkpt>
    <trkpt lat="64.4900095" lon="20.7039860"></trkpt>
    <trkpt lat="64.4902480" lon="20.7055130"></trkpt>
    <trkpt lat="64.4907245" lon="20.7069290"></trkpt>
    <trkpt lat="64.4912010" lon="20.7083450"></trkpt>
    <trkpt lat="64.4916740" lon="20.7093650"></trkpt>
    <trkpt lat="64.4921470" lon="20.7103850"></trkpt>
    <trkpt lat="64.4925730" lon="20.7112660"></trkpt>
    <trkpt lat="64.4930970" lon="20.7123505"></trkpt>
    <trkpt lat="64.4936210" lon="20.7134350"></trkpt>
    <trkpt lat="64.4940657" lon="20.7144380"></trkpt>
    <trkpt lat="64.4945103" lon="20.7154410"></trkpt>
    <trkpt lat="64.4949550" lon="20.7164440"></trkpt>
    <trkpt lat="64.4955013" lon="20.7180667"></trkpt>
    <trkpt lat="64.4960477" lon="20.7196893"></trkpt>
    <trkpt lat="64.4965940" lon="20.7213120"></trkpt>
    <trkpt lat="64.4970640" lon="20.7228757"></trkpt>
    <trkpt lat="64.4975340" lon="20.7244393"></trkpt>
    <trkpt lat="64.4980040" lon="20.7260030"></trkpt>
    <trkpt lat="64.4982905" lon="20.7270935"></trkpt>
    <trkpt lat="64.4985770" lon="20.7281840"></trkpt>
    <trkpt lat="64.4989810" lon="20.7297190"></trkpt>
    <trkpt lat="64.4991400" lon="20.7307155"></trkpt>
    <trkpt lat="64.4992990" lon="20.7317120"></trkpt>
    <trkpt lat="64.4993780" lon="20.7333890"></trkpt>
    <trkpt lat="64.4994520" lon="20.7349430"></trkpt>
    <trkpt lat="64.4994985" lon="20.7359920"></trkpt>
    <trkpt lat="64.4995450" lon="20.7370410"></trkpt>
    <trkpt lat="64.4996420" lon="20.7389990"></trkpt>
    <trkpt lat="64.4997390" lon="20.7409570"></trkpt>
    <trkpt lat="64.4998360" lon="20.7429150"></trkpt>
    <trkpt lat="64.4999150" lon="20.7443820"></trkpt>
    <trkpt lat="64.4999940" lon="20.7458490"></trkpt>
    <trkpt lat="64.5001060" lon="20.7463730"></trkpt>
    <trkpt lat="64.5003090" lon="20.7473160"></trkpt>
    <trkpt lat="64.5005580" lon="20.7482260"></trkpt>
    <trkpt lat="64.5008070" lon="20.7491360"></trkpt>
    <trkpt lat="64.5011660" lon="20.7504080"></trkpt>
    <trkpt lat="64.5015250" lon="20.7516800"></trkpt>
    <trkpt lat="64.5018567" lon="20.7528417"></trkpt>
    <trkpt lat="64.5021883" lon="20.7540033"></trkpt>
    <trkpt lat="64.5025200" lon="20.7551650"></trkpt>
    <trkpt lat="64.5029423" lon="20.7565585"></trkpt>
    <trkpt lat="64.5033645" lon="20.7579520"></trkpt>
    <trkpt lat="64.5037868" lon="20.7593455"></trkpt>
    <trkpt lat="64.5042090" lon="20.7607390"></trkpt>
    <trkpt lat="64.5046960" lon="20.7623090"></trkpt>
    <trkpt lat="64.5051830" lon="20.7638790"></trkpt>
    <trkpt lat="64.5056700" lon="20.7654490"></trkpt>
    <trkpt lat="64.5060720" lon="20.7669740"></trkpt>
    <trkpt lat="64.5062330" lon="20.7674970"></trkpt>
    <trkpt lat="64.5064840" lon="20.7683910"></trkpt>
    <trkpt lat="64.5067350" lon="20.7692850"></trkpt>
    <trkpt lat="64.5070820" lon="20.7708620"></trkpt>
    <trkpt lat="64.5073220" lon="20.7725198"></trkpt>
    <trkpt lat="64.5075620" lon="20.7741776"></trkpt>
    <trkpt lat="64.5078020" lon="20.7758354"></trkpt>
    <trkpt lat="64.5080420" lon="20.7774932"></trkpt>
    <trkpt lat="64.5082820" lon="20.7791510"></trkpt>
    <trkpt lat="64.5085553" lon="20.7811270"></trkpt>
    <trkpt lat="64.5088287" lon="20.7831030"></trkpt>
    <trkpt lat="64.5091020" lon="20.7850790"></trkpt>
    <trkpt lat="64.5092565" lon="20.7862000"></trkpt>
    <trkpt lat="64.5094110" lon="20.7873210"></trkpt>
    <trkpt lat="64.5095700" lon="20.7885580"></trkpt>
    <trkpt lat="64.5096000" lon="20.7887910"></trkpt>
    <trkpt lat="64.5097800" lon="20.7899390"></trkpt>
    <trkpt lat="64.5100020" lon="20.7907540"></trkpt>
    <trkpt lat="64.5102280" lon="20.7916120"></trkpt>
    <trkpt lat="64.5107320" lon="20.7930610"></trkpt>
    <trkpt lat="64.5111070" lon="20.7939680"></trkpt>
    <trkpt lat="64.5114140" lon="20.7947920"></trkpt>
    <trkpt lat="64.5117210" lon="20.7956160"></trkpt>
    <trkpt lat="64.5121320" lon="20.7967175"></trkpt>
    <trkpt lat="64.5125430" lon="20.7978190"></trkpt>
    <trkpt lat="64.5130507" lon="20.7991613"></trkpt>
    <trkpt lat="64.5135583" lon="20.8005037"></trkpt>
    <trkpt lat="64.5140660" lon="20.8018460"></trkpt>
    <trkpt lat="64.5145632" lon="20.8031606"></trkpt>
    <trkpt lat="64.5150604" lon="20.8044752"></trkpt>
    <trkpt lat="64.5155576" lon="20.8057898"></trkpt>
    <trkpt lat="64.5160548" lon="20.8071044"></trkpt>
    <trkpt lat="64.5165520" lon="20.8084190"></trkpt>
    <trkpt lat="64.5170423" lon="20.8097183"></trkpt>
    <trkpt lat="64.5175327" lon="20.8110177"></trkpt>
    <trkpt lat="64.5180230" lon="20.8123170"></trkpt>
    <trkpt lat="64.5182880" lon="20.8130040"></trkpt>
    <trkpt lat="64.5188530" lon="20.8142680"></trkpt>
    <trkpt lat="64.5194180" lon="20.8155320"></trkpt>
    <trkpt lat="64.5200900" lon="20.8168840"></trkpt>
    <trkpt lat="64.5204300" lon="20.8175695"></trkpt>
    <trkpt lat="64.5207700" lon="20.8182550"></trkpt>
    <trkpt lat="64.5208830" lon="20.8184830"></trkpt>
    <trkpt lat="64.5214785" lon="20.8197605"></trkpt>
    <trkpt lat="64.5220740" lon="20.8210380"></trkpt>
    <trkpt lat="64.5224620" lon="20.8218720"></trkpt>
    <trkpt lat="64.5228015" lon="20.8225685"></trkpt>
    <trkpt lat="64.5231410" lon="20.8232650"></trkpt>
    <trkpt lat="64.5233780" lon="20.8237370"></trkpt>
    <trkpt lat="64.5233800" lon="20.8237400"></trkpt>
    <trkpt lat="64.5235000" lon="20.8239790"></trkpt>
    <trkpt lat="64.5238730" lon="20.8247040"></trkpt>
    <trkpt lat="64.5243980" lon="20.8257910"></trkpt>
    <trkpt lat="64.5250530" lon="20.8271530"></trkpt>
    <trkpt lat="64.5257080" lon="20.8285150"></trkpt>
    <trkpt lat="64.5263630" lon="20.8298770"></trkpt>
    <trkpt lat="64.5268757" lon="20.8308930"></trkpt>
    <trkpt lat="64.5273883" lon="20.8319090"></trkpt>
    <trkpt lat="64.5279010" lon="20.8329250"></trkpt>
    <trkpt lat="64.5279470" lon="20.8329880"></trkpt>
    <trkpt lat="64.5283380" lon="20.8336730"></trkpt>
    <trkpt lat="64.5287290" lon="20.8343580"></trkpt>
    <trkpt lat="64.5294025" lon="20.8355060"></trkpt>
    <trkpt lat="64.5300760" lon="20.8366540"></trkpt>
    <trkpt lat="64.5307495" lon="20.8378020"></trkpt>
    <trkpt lat="64.5314230" lon="20.8389500"></trkpt>
    <trkpt lat="64.5321530" lon="20.8401406"></trkpt>
    <trkpt lat="64.5328830" lon="20.8413312"></trkpt>
    <trkpt lat="64.5336130" lon="20.8425218"></trkpt>
    <trkpt lat="64.5343430" lon="20.8437124"></trkpt>
    <trkpt lat="64.5350730" lon="20.8449030"></trkpt>
    <trkpt lat="64.5355910" lon="20.8457797"></trkpt>
    <trkpt lat="64.5361090" lon="20.8466563"></trkpt>
    <trkpt lat="64.5366270" lon="20.8475330"></trkpt>
    <trkpt lat="64.5372080" lon="20.8485092"></trkpt>
    <trkpt lat="64.5377890" lon="20.8494855"></trkpt>
    <trkpt lat="64.5383700" lon="20.8504618"></trkpt>
    <trkpt lat="64.5389510" lon="20.8514380"></trkpt>
    <trkpt lat="64.5396522" lon="20.8526182"></trkpt>
    <trkpt lat="64.5403533" lon="20.8537983"></trkpt>
    <trkpt lat="64.5410545" lon="20.8549785"></trkpt>
    <trkpt lat="64.5417557" lon="20.8561587"></trkpt>
    <trkpt lat="64.5424568" lon="20.8573388"></trkpt>
    <trkpt lat="64.5431580" lon="20.8585190"></trkpt>
    <trkpt lat="64.5438357" lon="20.8596348"></trkpt>
    <trkpt lat="64.5445135" lon="20.8607505"></trkpt>
    <trkpt lat="64.5451913" lon="20.8618662"></trkpt>
    <trkpt lat="64.5458690" lon="20.8629820"></trkpt>
    <trkpt lat="64.5465514" lon="20.8641408"></trkpt>
    <trkpt lat="64.5472338" lon="20.8652996"></trkpt>
    <trkpt lat="64.5479162" lon="20.8664584"></trkpt>
    <trkpt lat="64.5485986" lon="20.8676172"></trkpt>
    <trkpt lat="64.5492810" lon="20.8687760"></trkpt>
    <trkpt lat="64.5498513" lon="20.8697273"></trkpt>
    <trkpt lat="64.5504217" lon="20.8706787"></trkpt>
    <trkpt lat="64.5509920" lon="20.8716300"></trkpt>
    <trkpt lat="64.5514940" lon="20.8724670"></trkpt>
    <trkpt lat="64.5515700" lon="20.8725940"></trkpt>
    <trkpt lat="64.5522883" lon="20.8737960"></trkpt>
    <trkpt lat="64.5530067" lon="20.8749980"></trkpt>
    <trkpt lat="64.5537250" lon="20.8762000"></trkpt>
    <trkpt lat="64.5543473" lon="20.8772838"></trkpt>
    <trkpt lat="64.5549695" lon="20.8783675"></trkpt>
    <trkpt lat="64.5555917" lon="20.8794512"></trkpt>
    <trkpt lat="64.5562140" lon="20.8805350"></trkpt>
    <trkpt lat="64.5562560" lon="20.8805900"></trkpt>
    <trkpt lat="64.5562950" lon="20.8806420"></trkpt>
    <trkpt lat="64.5569275" lon="20.8814895"></trkpt>
    <trkpt lat="64.5575600" lon="20.8823370"></trkpt>
    <trkpt lat="64.5578180" lon="20.8827660"></trkpt>
    <trkpt lat="64.5583530" lon="20.8840540"></trkpt>
    <trkpt lat="64.5588875" lon="20.8853845"></trkpt>
    <trkpt lat="64.5594220" lon="20.8867150"></trkpt>
    <trkpt lat="64.5599198" lon="20.8879165"></trkpt>
    <trkpt lat="64.5604175" lon="20.8891180"></trkpt>
    <trkpt lat="64.5609152" lon="20.8903195"></trkpt>
    <trkpt lat="64.5614130" lon="20.8915210"></trkpt>
    <trkpt lat="64.5620277" lon="20.8929373"></trkpt>
    <trkpt lat="64.5626423" lon="20.8943537"></trkpt>
    <trkpt lat="64.5632570" lon="20.8957700"></trkpt>
    <trkpt lat="64.5635130" lon="20.8963600"></trkpt>
    <trkpt lat="64.5640910" lon="20.8976940"></trkpt>
    <trkpt lat="64.5646690" lon="20.8990280"></trkpt>
    <trkpt lat="64.5652470" lon="20.9003620"></trkpt>
    <trkpt lat="64.5658250" lon="20.9015193"></trkpt>
    <trkpt lat="64.5664030" lon="20.9026767"></trkpt>
    <trkpt lat="64.5669810" lon="20.9038340"></trkpt>
    <trkpt lat="64.5675170" lon="20.9049520"></trkpt>
    <trkpt lat="64.5680530" lon="20.9060700"></trkpt>
    <trkpt lat="64.5685890" lon="20.9071880"></trkpt>
    <trkpt lat="64.5691250" lon="20.9083060"></trkpt>
    <trkpt lat="64.5696560" lon="20.9093550"></trkpt>
    <trkpt lat="64.5701870" lon="20.9104040"></trkpt>
    <trkpt lat="64.5708500" lon="20.9111335"></trkpt>
    <trkpt lat="64.5715130" lon="20.9118630"></trkpt>
    <trkpt lat="64.5721030" lon="20.9123565"></trkpt>
    <trkpt lat="64.5726930" lon="20.9128500"></trkpt>
    <trkpt lat="64.5732730" lon="20.9132150"></trkpt>
    <trkpt lat="64.5738530" lon="20.9135800"></trkpt>
    <trkpt lat="64.5745350" lon="20.9138375"></trkpt>
    <trkpt lat="64.5752170" lon="20.9140950"></trkpt>
    <trkpt lat="64.5758557" lon="20.9142667"></trkpt>
    <trkpt lat="64.5764943" lon="20.9144383"></trkpt>
    <trkpt lat="64.5771330" lon="20.9146100"></trkpt>
    <trkpt lat="64.5780180" lon="20.9148580"></trkpt>
    <trkpt lat="64.5786620" lon="20.9150390"></trkpt>
    <trkpt lat="64.5792330" lon="20.9151890"></trkpt>
    <trkpt lat="64.5798040" lon="20.9153390"></trkpt>
    <trkpt lat="64.5806700" lon="20.9158970"></trkpt>
    <trkpt lat="64.5812650" lon="20.9164780"></trkpt>
    <trkpt lat="64.5818600" lon="20.9170590"></trkpt>
    <trkpt lat="64.5826320" lon="20.9179210"></trkpt>
    <trkpt lat="64.5833890" lon="20.9190160"></trkpt>
    <trkpt lat="64.5837810" lon="20.9196500"></trkpt>
    <trkpt lat="64.5841640" lon="20.9204260"></trkpt>
    <trkpt lat="64.5845470" lon="20.9212020"></trkpt>
    <trkpt lat="64.5847590" lon="20.9217340"></trkpt>
    <trkpt lat="64.5847950" lon="20.9218370"></trkpt>
    <trkpt lat="64.5853205" lon="20.9233730"></trkpt>
    <trkpt lat="64.5858460" lon="20.9249090"></trkpt>
    <trkpt lat="64.5862373" lon="20.9261965"></trkpt>
    <trkpt lat="64.5866285" lon="20.9274840"></trkpt>
    <trkpt lat="64.5870197" lon="20.9287715"></trkpt>
    <trkpt lat="64.5874110" lon="20.9300590"></trkpt>
    <trkpt lat="64.5878653" lon="20.9314753"></trkpt>
    <trkpt lat="64.5883197" lon="20.9328917"></trkpt>
    <trkpt lat="64.5887740" lon="20.9343080"></trkpt>
    <trkpt lat="64.5890630" lon="20.9351730"></trkpt>
    <trkpt lat="64.5892220" lon="20.9356110"></trkpt>
    <trkpt lat="64.5896240" lon="20.9367190"></trkpt>
    <trkpt lat="64.5900260" lon="20.9378270"></trkpt>
    <trkpt lat="64.5905030" lon="20.9389330"></trkpt>
    <trkpt lat="64.5909220" lon="20.9397180"></trkpt>
    <trkpt lat="64.5913410" lon="20.9405030"></trkpt>
    <trkpt lat="64.5914760" lon="20.9407010"></trkpt>
    <trkpt lat="64.5919310" lon="20.9413685"></trkpt>
    <trkpt lat="64.5923860" lon="20.9420360"></trkpt>
    <trkpt lat="64.5931120" lon="20.9426350"></trkpt>
    <trkpt lat="64.5938380" lon="20.9432340"></trkpt>
    <trkpt lat="64.5945807" lon="20.9436490"></trkpt>
    <trkpt lat="64.5953233" lon="20.9440640"></trkpt>
    <trkpt lat="64.5960660" lon="20.9444790"></trkpt>
    <trkpt lat="64.5967753" lon="20.9448650"></trkpt>
    <trkpt lat="64.5974847" lon="20.9452510"></trkpt>
    <trkpt lat="64.5981940" lon="20.9456370"></trkpt>
    <trkpt lat="64.5988015" lon="20.9459460"></trkpt>
    <trkpt lat="64.5994090" lon="20.9462550"></trkpt>
    <trkpt lat="64.6002835" lon="20.9467315"></trkpt>
    <trkpt lat="64.6011580" lon="20.9472080"></trkpt>
    <trkpt lat="64.6019010" lon="20.9475860"></trkpt>
    <trkpt lat="64.6026950" lon="20.9480450"></trkpt>
    <trkpt lat="64.6031355" lon="20.9483005"></trkpt>
    <trkpt lat="64.6035760" lon="20.9485560"></trkpt>
    <trkpt lat="64.6042323" lon="20.9488993"></trkpt>
    <trkpt lat="64.6048887" lon="20.9492427"></trkpt>
    <trkpt lat="64.6055450" lon="20.9495860"></trkpt>
    <trkpt lat="64.6062140" lon="20.9499465"></trkpt>
    <trkpt lat="64.6068830" lon="20.9503070"></trkpt>
    <trkpt lat="64.6075520" lon="20.9506675"></trkpt>
    <trkpt lat="64.6082210" lon="20.9510280"></trkpt>
    <trkpt lat="64.6088810" lon="20.9513997"></trkpt>
    <trkpt lat="64.6095410" lon="20.9517713"></trkpt>
    <trkpt lat="64.6102010" lon="20.9521430"></trkpt>
    <trkpt lat="64.6108793" lon="20.9525063"></trkpt>
    <trkpt lat="64.6115577" lon="20.9528697"></trkpt>
    <trkpt lat="64.6122360" lon="20.9532330"></trkpt>
    <trkpt lat="64.6128520" lon="20.9535907"></trkpt>
    <trkpt lat="64.6134680" lon="20.9539483"></trkpt>
    <trkpt lat="64.6140840" lon="20.9543060"></trkpt>
    <trkpt lat="64.6148050" lon="20.9546750"></trkpt>
    <trkpt lat="64.6155260" lon="20.9550440"></trkpt>
    <trkpt lat="64.6163843" lon="20.9554477"></trkpt>
    <trkpt lat="64.6172427" lon="20.9558513"></trkpt>
    <trkpt lat="64.6181010" lon="20.9562550"></trkpt>
    <trkpt lat="64.6186790" lon="20.9564680"></trkpt>
    <trkpt lat="64.6192570" lon="20.9566810"></trkpt>
    <trkpt lat="64.6200248" lon="20.9569696"></trkpt>
    <trkpt lat="64.6207926" lon="20.9572582"></trkpt>
    <trkpt lat="64.6215604" lon="20.9575468"></trkpt>
    <trkpt lat="64.6223282" lon="20.9578354"></trkpt>
    <trkpt lat="64.6230960" lon="20.9581240"></trkpt>
    <trkpt lat="64.6239130" lon="20.9584520"></trkpt>
    <trkpt lat="64.6247300" lon="20.9587800"></trkpt>
    <trkpt lat="64.6254633" lon="20.9590710"></trkpt>
    <trkpt lat="64.6261967" lon="20.9593620"></trkpt>
    <trkpt lat="64.6269300" lon="20.9596530"></trkpt>
    <trkpt lat="64.6277167" lon="20.9599623"></trkpt>
    <trkpt lat="64.6285033" lon="20.9602717"></trkpt>
    <trkpt lat="64.6292900" lon="20.9605810"></trkpt>
    <trkpt lat="64.6300130" lon="20.9608690"></trkpt>
    <trkpt lat="64.6307360" lon="20.9611570"></trkpt>
    <trkpt lat="64.6314590" lon="20.9614450"></trkpt>
    <trkpt lat="64.6321820" lon="20.9617330"></trkpt>
    <trkpt lat="64.6328300" lon="20.9620040"></trkpt>
    <trkpt lat="64.6337020" lon="20.9622010"></trkpt>
    <trkpt lat="64.6341680" lon="20.9621845"></trkpt>
    <trkpt lat="64.6346340" lon="20.9621680"></trkpt>
    <trkpt lat="64.6352095" lon="20.9620910"></trkpt>
    <trkpt lat="64.6357850" lon="20.9620140"></trkpt>
    <trkpt lat="64.6363045" lon="20.9619275"></trkpt>
    <trkpt lat="64.6368240" lon="20.9618410"></trkpt>
    <trkpt lat="64.6373480" lon="20.9617310"></trkpt>
    <trkpt lat="64.6374680" lon="20.9617170"></trkpt>
    <trkpt lat="64.6381990" lon="20.9616300"></trkpt>
    <trkpt lat="64.6382470" lon="20.9616230"></trkpt>
    <trkpt lat="64.6387375" lon="20.9615490"></trkpt>
    <trkpt lat="64.6392280" lon="20.9614750"></trkpt>
    <trkpt lat="64.6395570" lon="20.9614090"></trkpt>
    <trkpt lat="64.6402180" lon="20.9612770"></trkpt>
    <trkpt lat="64.6402900" lon="20.9612620"></trkpt>
    <trkpt lat="64.6407530" lon="20.9611810"></trkpt>
    <trkpt lat="64.6411380" lon="20.9610590"></trkpt>
    <trkpt lat="64.6416035" lon="20.9608330"></trkpt>
    <trkpt lat="64.6420690" lon="20.9606070"></trkpt>
    <trkpt lat="64.6425830" lon="20.9603730"></trkpt>
    <trkpt lat="64.6430890" lon="20.9601260"></trkpt>
    <trkpt lat="64.6432310" lon="20.9600710"></trkpt>
    <trkpt lat="64.6437580" lon="20.9598670"></trkpt>
    <trkpt lat="64.6437830" lon="20.9598560"></trkpt>
    <trkpt lat="64.6445770" lon="20.9594990"></trkpt>
    <trkpt lat="64.6453710" lon="20.9591420"></trkpt>
    <trkpt lat="64.6459930" lon="20.9588620"></trkpt>
    <trkpt lat="64.6468290" lon="20.9584850"></trkpt>
    <trkpt lat="64.6476630" lon="20.9580120"></trkpt>
    <trkpt lat="64.6478710" lon="20.9578930"></trkpt>
    <trkpt lat="64.6485405" lon="20.9573010"></trkpt>
    <trkpt lat="64.6492100" lon="20.9567090"></trkpt>
    <trkpt lat="64.6497520" lon="20.9562815"></trkpt>
    <trkpt lat="64.6502940" lon="20.9558540"></trkpt>
    <trkpt lat="64.6506050" lon="20.9557220"></trkpt>
    <trkpt lat="64.6514630" lon="20.9553600"></trkpt>
    <trkpt lat="64.6521863" lon="20.9550970"></trkpt>
    <trkpt lat="64.6529097" lon="20.9548340"></trkpt>
    <trkpt lat="64.6536330" lon="20.9545710"></trkpt>
    <trkpt lat="64.6538150" lon="20.9545050"></trkpt>
    <trkpt lat="64.6545367" lon="20.9542500"></trkpt>
    <trkpt lat="64.6552585" lon="20.9539950"></trkpt>
    <trkpt lat="64.6559802" lon="20.9537400"></trkpt>
    <trkpt lat="64.6567020" lon="20.9534850"></trkpt>
    <trkpt lat="64.6573873" lon="20.9532767"></trkpt>
    <trkpt lat="64.6580727" lon="20.9530683"></trkpt>
    <trkpt lat="64.6587580" lon="20.9528600"></trkpt>
    <trkpt lat="64.6594340" lon="20.9526460"></trkpt>
    <trkpt lat="64.6601100" lon="20.9524320"></trkpt>
    <trkpt lat="64.6607860" lon="20.9522180"></trkpt>
    <trkpt lat="64.6614620" lon="20.9520040"></trkpt>
    <trkpt lat="64.6621523" lon="20.9517603"></trkpt>
    <trkpt lat="64.6628427" lon="20.9515167"></trkpt>
    <trkpt lat="64.6635330" lon="20.9512730"></trkpt>
    <trkpt lat="64.6641393" lon="20.9510620"></trkpt>
    <trkpt lat="64.6647457" lon="20.9508510"></trkpt>
    <trkpt lat="64.6653520" lon="20.9506400"></trkpt>
    <trkpt lat="64.6662416" lon="20.9503458"></trkpt>
    <trkpt lat="64.6671313" lon="20.9500516"></trkpt>
    <trkpt lat="64.6680209" lon="20.9497574"></trkpt>
    <trkpt lat="64.6689106" lon="20.9494631"></trkpt>
    <trkpt lat="64.6698002" lon="20.9491689"></trkpt>
    <trkpt lat="64.6706899" lon="20.9488747"></trkpt>
    <trkpt lat="64.6715795" lon="20.9485805"></trkpt>
    <trkpt lat="64.6724691" lon="20.9482863"></trkpt>
    <trkpt lat="64.6733588" lon="20.9479921"></trkpt>
    <trkpt lat="64.6742484" lon="20.9476979"></trkpt>
    <trkpt lat="64.6751381" lon="20.9474036"></trkpt>
    <trkpt lat="64.6760277" lon="20.9471094"></trkpt>
    <trkpt lat="64.6769174" lon="20.9468152"></trkpt>
    <trkpt lat="64.6778070" lon="20.9465210"></trkpt>
    <trkpt lat="64.6786505" lon="20.9462302"></trkpt>
    <trkpt lat="64.6794940" lon="20.9459395"></trkpt>
    <trkpt lat="64.6803375" lon="20.9456488"></trkpt>
    <trkpt lat="64.6811810" lon="20.9453580"></trkpt>
    <trkpt lat="64.6816685" lon="20.9451540"></trkpt>
    <trkpt lat="64.6821560" lon="20.9449500"></trkpt>
    <trkpt lat="64.6827550" lon="20.9445950"></trkpt>
    <trkpt lat="64.6833270" lon="20.9441420"></trkpt>
    <trkpt lat="64.6838990" lon="20.9436890"></trkpt>
    <trkpt lat="64.6845530" lon="20.9431180"></trkpt>
    <trkpt lat="64.6852060" lon="20.9426750"></trkpt>
    <trkpt lat="64.6859510" lon="20.9424960"></trkpt>
    <trkpt lat="64.6867140" lon="20.9424960"></trkpt>
    <trkpt lat="64.6875273" lon="20.9424996"></trkpt>
    <trkpt lat="64.6883407" lon="20.9425031"></trkpt>
    <trkpt lat="64.6891540" lon="20.9425067"></trkpt>
    <trkpt lat="64.6899673" lon="20.9425102"></trkpt>
    <trkpt lat="64.6907807" lon="20.9425138"></trkpt>
    <trkpt lat="64.6915940" lon="20.9425173"></trkpt>
    <trkpt lat="64.6924073" lon="20.9425209"></trkpt>
    <trkpt lat="64.6932207" lon="20.9425244"></trkpt>
    <trkpt lat="64.6940340" lon="20.9425280"></trkpt>
    <trkpt lat="64.6949050" lon="20.9425335"></trkpt>
    <trkpt lat="64.6957760" lon="20.9425390"></trkpt>
    <trkpt lat="64.6966350" lon="20.9425440"></trkpt>
    <trkpt lat="64.6972310" lon="20.9425680"></trkpt>
    <trkpt lat="64.6978270" lon="20.9425920"></trkpt>
    <trkpt lat="64.6986860" lon="20.9424010"></trkpt>
    <trkpt lat="64.6992820" lon="20.9421150"></trkpt>
    <trkpt lat="64.6998780" lon="20.9418290"></trkpt>
    <trkpt lat="64.7001400" lon="20.9417480"></trkpt>
    <trkpt lat="64.7009390" lon="20.9415020"></trkpt>
    <trkpt lat="64.7017380" lon="20.9412560"></trkpt>
    <trkpt lat="64.7023740" lon="20.9412560"></trkpt>
    <trkpt lat="64.7030100" lon="20.9412560"></trkpt>
    <trkpt lat="64.7036460" lon="20.9412560"></trkpt>
    <trkpt lat="64.7044845" lon="20.9414560"></trkpt>
    <trkpt lat="64.7053230" lon="20.9416560"></trkpt>
    <trkpt lat="64.7060730" lon="20.9421090"></trkpt>
    <trkpt lat="64.7067920" lon="20.9428280"></trkpt>
    <trkpt lat="64.7072760" lon="20.9435155"></trkpt>
    <trkpt lat="64.7077600" lon="20.9442030"></trkpt>
    <trkpt lat="64.7082707" lon="20.9450677"></trkpt>
    <trkpt lat="64.7087813" lon="20.9459323"></trkpt>
    <trkpt lat="64.7092920" lon="20.9467970"></trkpt>
    <trkpt lat="64.7099425" lon="20.9476220"></trkpt>
    <trkpt lat="64.7105930" lon="20.9484470"></trkpt>
    <trkpt lat="64.7110210" lon="20.9489030"></trkpt>
    <trkpt lat="64.7111320" lon="20.9490230"></trkpt>
    <trkpt lat="64.7117080" lon="20.9494950"></trkpt>
    <trkpt lat="64.7124710" lon="20.9499920"></trkpt>
    <trkpt lat="64.7132700" lon="20.9503700"></trkpt>
    <trkpt lat="64.7137500" lon="20.9504900"></trkpt>
    <trkpt lat="64.7142300" lon="20.9506100"></trkpt>
    <trkpt lat="64.7147070" lon="20.9505975"></trkpt>
    <trkpt lat="64.7151840" lon="20.9505850"></trkpt>
    <trkpt lat="64.7160100" lon="20.9504060"></trkpt>
    <trkpt lat="64.7168110" lon="20.9500995"></trkpt>
    <trkpt lat="64.7176120" lon="20.9497930"></trkpt>
    <trkpt lat="64.7179250" lon="20.9496730"></trkpt>
    <trkpt lat="64.7184170" lon="20.9494840"></trkpt>
    <trkpt lat="64.7190785" lon="20.9492535"></trkpt>
    <trkpt lat="64.7197400" lon="20.9490230"></trkpt>
    <trkpt lat="64.7202750" lon="20.9489155"></trkpt>
    <trkpt lat="64.7208100" lon="20.9488080"></trkpt>
    <trkpt lat="64.7214695" lon="20.9488610"></trkpt>
    <trkpt lat="64.7221290" lon="20.9489140"></trkpt>
    <trkpt lat="64.7228167" lon="20.9492413"></trkpt>
    <trkpt lat="64.7235043" lon="20.9495687"></trkpt>
    <trkpt lat="64.7241920" lon="20.9498960"></trkpt>
    <trkpt lat="64.7245970" lon="20.9502560"></trkpt>
    <trkpt lat="64.7250845" lon="20.9509715"></trkpt>
    <trkpt lat="64.7255720" lon="20.9516870"></trkpt>
    <trkpt lat="64.7259660" lon="20.9525375"></trkpt>
    <trkpt lat="64.7263600" lon="20.9533880"></trkpt>
    <trkpt lat="64.7267750" lon="20.9547465"></trkpt>
    <trkpt lat="64.7271900" lon="20.9561050"></trkpt>
    <trkpt lat="64.7275630" lon="20.9573635"></trkpt>
    <trkpt lat="64.7279360" lon="20.9586220"></trkpt>
    <trkpt lat="64.7282395" lon="20.9596460"></trkpt>
    <trkpt lat="64.7285430" lon="20.9606700"></trkpt>
    <trkpt lat="64.7288110" lon="20.9616390"></trkpt>
    <trkpt lat="64.7289790" lon="20.9623890"></trkpt>
    <trkpt lat="64.7291020" lon="20.9629060"></trkpt>
    <trkpt lat="64.7292290" lon="20.9634990"></trkpt>
    <trkpt lat="64.7293550" lon="20.9642000"></trkpt>
    <trkpt lat="64.7294740" lon="20.9649890"></trkpt>
    <trkpt lat="64.7295630" lon="20.9657370"></trkpt>
    <trkpt lat="64.7296300" lon="20.9664370"></trkpt>
    <trkpt lat="64.7296880" lon="20.9672880"></trkpt>
    <trkpt lat="64.7297140" lon="20.9679900"></trkpt>
    <trkpt lat="64.7297230" lon="20.9689570"></trkpt>
    <trkpt lat="64.7297230" lon="20.9695240"></trkpt>
    <trkpt lat="64.7297260" lon="20.9700350"></trkpt>
    <trkpt lat="64.7297090" lon="20.9704580"></trkpt>
    <trkpt lat="64.7296940" lon="20.9706140"></trkpt>
    <trkpt lat="64.7296630" lon="20.9707990"></trkpt>
    <trkpt lat="64.7296270" lon="20.9709430"></trkpt>
    <trkpt lat="64.7295980" lon="20.9709800"></trkpt>
    <trkpt lat="64.7295730" lon="20.9710300"></trkpt>
    <trkpt lat="64.7295520" lon="20.9710900"></trkpt>
    <trkpt lat="64.7295370" lon="20.9711570"></trkpt>
    <trkpt lat="64.7295280" lon="20.9712310"></trkpt>
    <trkpt lat="64.7295240" lon="20.9713070"></trkpt>
    <trkpt lat="64.7295270" lon="20.9713840"></trkpt>
    <trkpt lat="64.7295370" lon="20.9714570"></trkpt>
    <trkpt lat="64.7295520" lon="20.9715250"></trkpt>
    <trkpt lat="64.7295720" lon="20.9715850"></trkpt>
    <trkpt lat="64.7296380" lon="20.9719850"></trkpt>
    <trkpt lat="64.7296890" lon="20.9723250"></trkpt>
    <trkpt lat="64.7297450" lon="20.9727820"></trkpt>
    <trkpt lat="64.7298060" lon="20.9732200"></trkpt>
    <trkpt lat="64.7298860" lon="20.9736920"></trkpt>
    <trkpt lat="64.7299340" lon="20.9739240"></trkpt>
    <trkpt lat="64.7300150" lon="20.9742510"></trkpt>
    <trkpt lat="64.7301110" lon="20.9745560"></trkpt>
    <trkpt lat="64.7301940" lon="20.9748010"></trkpt>
    <trkpt lat="64.7302280" lon="20.9749230"></trkpt>
    <trkpt lat="64.7302360" lon="20.9749860"></trkpt>
    <trkpt lat="64.7302420" lon="20.9750380"></trkpt>
    <trkpt lat="64.7302440" lon="20.9751930"></trkpt>
    <trkpt lat="64.7302200" lon="20.9752680"></trkpt>
    <trkpt lat="64.7302000" lon="20.9753490"></trkpt>
    <trkpt lat="64.7301850" lon="20.9754350"></trkpt>
    <trkpt lat="64.7301740" lon="20.9755260"></trkpt>
    <trkpt lat="64.7301690" lon="20.9756190"></trkpt>
    <trkpt lat="64.7301690" lon="20.9757130"></trkpt>
    <trkpt lat="64.7301740" lon="20.9758130"></trkpt>
    <trkpt lat="64.7301860" lon="20.9759100"></trkpt>
    <trkpt lat="64.7302030" lon="20.9760030"></trkpt>
    <trkpt lat="64.7302250" lon="20.9760900"></trkpt>
    <trkpt lat="64.7302530" lon="20.9761680"></trkpt>
    <trkpt lat="64.7302840" lon="20.9762370"></trkpt>
    <trkpt lat="64.7303200" lon="20.9762960"></trkpt>
    <trkpt lat="64.7303600" lon="20.9763420"></trkpt>
    <trkpt lat="64.7304020" lon="20.9763750"></trkpt>
    <trkpt lat="64.7304450" lon="20.9763940"></trkpt>
    <trkpt lat="64.7304880" lon="20.9763980"></trkpt>
    <trkpt lat="64.7305310" lon="20.9763880"></trkpt>
    <trkpt lat="64.7305720" lon="20.9763650"></trkpt>
    <trkpt lat="64.7306120" lon="20.9763280"></trkpt>
    <trkpt lat="64.7306500" lon="20.9762790"></trkpt>
    <trkpt lat="64.7306840" lon="20.9762190"></trkpt>
    <trkpt lat="64.7307140" lon="20.9761480"></trkpt>
    <trkpt lat="64.7307410" lon="20.9760660"></trkpt>
    <trkpt lat="64.7307620" lon="20.9759760"></trkpt>
    <trkpt lat="64.7307770" lon="20.9758800"></trkpt>
    <trkpt lat="64.7307870" lon="20.9757800"></trkpt>
    <trkpt lat="64.7307910" lon="20.9756780"></trkpt>
    <trkpt lat="64.7308720" lon="20.9753330"></trkpt>
    <trkpt lat="64.7309290" lon="20.9751530"></trkpt>
    <trkpt lat="64.7310260" lon="20.9748740"></trkpt>
    <trkpt lat="64.7312730" lon="20.9742760"></trkpt>
    <trkpt lat="64.7317385" lon="20.9734630"></trkpt>
    <trkpt lat="64.7322040" lon="20.9726500"></trkpt>
    <trkpt lat="64.7329225" lon="20.9714125"></trkpt>
    <trkpt lat="64.7336410" lon="20.9701750"></trkpt>
    <trkpt lat="64.7343660" lon="20.9690800"></trkpt>
    <trkpt lat="64.7350960" lon="20.9681910"></trkpt>
    <trkpt lat="64.7355920" lon="20.9675670"></trkpt>
    <trkpt lat="64.7362440" lon="20.9668610"></trkpt>
    <trkpt lat="64.7369630" lon="20.9661980"></trkpt>
    <trkpt lat="64.7376360" lon="20.9656190"></trkpt>
    <trkpt lat="64.7380830" lon="20.9652760"></trkpt>
    <trkpt lat="64.7383100" lon="20.9651160"></trkpt>
    <trkpt lat="64.7388080" lon="20.9647645"></trkpt>
    <trkpt lat="64.7393060" lon="20.9644130"></trkpt>
    <trkpt lat="64.7395910" lon="20.9641880"></trkpt>
    <trkpt lat="64.7402070" lon="20.9637280"></trkpt>
    <trkpt lat="64.7406550" lon="20.9633390"></trkpt>
    <trkpt lat="64.7411960" lon="20.9627960"></trkpt>
    <trkpt lat="64.7420000" lon="20.9619610"></trkpt>
    <trkpt lat="64.7424580" lon="20.9616070"></trkpt>
    <trkpt lat="64.7427940" lon="20.9613280"></trkpt>
    <trkpt lat="64.7428660" lon="20.9612970"></trkpt>
    <trkpt lat="64.7429240" lon="20.9612920"></trkpt>
    <trkpt lat="64.7429900" lon="20.9613400"></trkpt>
    <trkpt lat="64.7430240" lon="20.9614350"></trkpt>
    <trkpt lat="64.7430740" lon="20.9615330"></trkpt>
    <trkpt lat="64.7431460" lon="20.9616170"></trkpt>
    <trkpt lat="64.7431800" lon="20.9616410"></trkpt>
    <trkpt lat="64.7432230" lon="20.9616560"></trkpt>
    <trkpt lat="64.7432850" lon="20.9616550"></trkpt>
    <trkpt lat="64.7433400" lon="20.9616300"></trkpt>
    <trkpt lat="64.7433830" lon="20.9615920"></trkpt>
    <trkpt lat="64.7434330" lon="20.9615240"></trkpt>
    <trkpt lat="64.7434570" lon="20.9614810"></trkpt>
    <trkpt lat="64.7434720" lon="20.9614450"></trkpt>
    <trkpt lat="64.7434950" lon="20.9613910"></trkpt>
    <trkpt lat="64.7435080" lon="20.9613510"></trkpt>
    <trkpt lat="64.7436450" lon="20.9608370"></trkpt>
    <trkpt lat="64.7437520" lon="20.9605930"></trkpt>
    <trkpt lat="64.7438640" lon="20.9603830"></trkpt>
    <trkpt lat="64.7439700" lon="20.9602400"></trkpt>
    <trkpt lat="64.7441650" lon="20.9600720"></trkpt>
    <trkpt lat="64.7444330" lon="20.9599590"></trkpt>
    <trkpt lat="64.7448500" lon="20.9598400"></trkpt>
    <trkpt lat="64.7452780" lon="20.9597750"></trkpt>
    <trkpt lat="64.7454770" lon="20.9597610"></trkpt>
    <trkpt lat="64.7457320" lon="20.9597550"></trkpt>
    <trkpt lat="64.7460240" lon="20.9597710"></trkpt>
    <trkpt lat="64.7462690" lon="20.9598110"></trkpt>
    <trkpt lat="64.7468810" lon="20.9599250"></trkpt>
    <trkpt lat="64.7474595" lon="20.9600215"></trkpt>
    <trkpt lat="64.7480380" lon="20.9601180"></trkpt>
    <trkpt lat="64.7485030" lon="20.9602440"></trkpt>
    <trkpt lat="64.7485620" lon="20.9602630"></trkpt>
    <trkpt lat="64.7490790" lon="20.9604870"></trkpt>
    <trkpt lat="64.7491930" lon="20.9605330"></trkpt>
    <trkpt lat="64.7493050" lon="20.9605760"></trkpt>
    <trkpt lat="64.7496760" lon="20.9607170"></trkpt>
    <trkpt lat="64.7500980" lon="20.9608620"></trkpt>
    <trkpt lat="64.7501800" lon="20.9608890"></trkpt>
    <trkpt lat="64.7503480" lon="20.9609460"></trkpt>
    <trkpt lat="64.7506050" lon="20.9610360"></trkpt>
    <trkpt lat="64.7508680" lon="20.9611220"></trkpt>
    <trkpt lat="64.7509550" lon="20.9611500"></trkpt>
    <trkpt lat="64.7509920" lon="20.9611630"></trkpt>
    <trkpt lat="64.7510910" lon="20.9611930"></trkpt>
    <trkpt lat="64.7513290" lon="20.9612590"></trkpt>
    <trkpt lat="64.7513510" lon="20.9609020"></trkpt>
    <trkpt lat="64.7513670" lon="20.9606590"></trkpt>
    <trkpt lat="64.7514040" lon="20.9601000"></trkpt>
    <trkpt lat="64.7514160" lon="20.9599140"></trkpt>
    <trkpt lat="64.7514180" lon="20.9598930"></trkpt>
    <trkpt lat="64.7515230" lon="20.9582410"></trkpt>
    <trkpt lat="64.7515350" lon="20.9580340"></trkpt>
    <trkpt lat="64.7515490" lon="20.9577760"></trkpt>
    <trkpt lat="64.7516170" lon="20.9577950"></trkpt>
    <trkpt lat="64.7521490" lon="20.9579670"></trkpt>
    <trkpt lat="64.7527370" lon="20.9581720"></trkpt>
    <trkpt lat="64.7526990" lon="20.9588440"></trkpt>
    <trkpt lat="64.7526830" lon="20.9592110"></trkpt>
    <trkpt lat="64.7526650" lon="20.9596020"></trkpt>
    <trkpt lat="64.7526000" lon="20.9595800"></trkpt>
    <trkpt lat="64.7523450" lon="20.9594950"></trkpt>
    <trkpt lat="64.7523480" lon="20.9594310"></trkpt>
  </trkseg></trk>
</gpx>
