<?xml version="1.0" encoding="UTF-8"?>
<gpx version="1.1" creator="pilegrimsleden-osm-extractor 1.0" xmlns="http://www.topografix.com/GPX/1/1">
  <trk><name>Norra S:t Sigfridsleden</name><trkseg>
    <trkpt lat="57.7827280" lon="14.1648800"></trkpt>
    <trkpt lat="57.7829460" lon="14.1650310"></trkpt>
    <trkpt lat="57.7830290" lon="14.1651320"></trkpt>
    <trkpt lat="57.7830920" lon="14.1653160"></trkpt>
    <trkpt lat="57.7831100" lon="14.1654510"></trkpt>
    <trkpt lat="57.7831380" lon="14.1655790"></trkpt>
    <trkpt lat="57.7831950" lon="14.1656600"></trkpt>
    <trkpt lat="57.7836460" lon="14.1658230"></trkpt>
    <trkpt lat="57.7837120" lon="14.1658460"></trkpt>
    <trkpt lat="57.7838060" lon="14.1658980"></trkpt>
    <trkpt lat="57.7838360" lon="14.1656170"></trkpt>
    <trkpt lat="57.7839530" lon="14.1644950"></trkpt>
    <trkpt lat="57.7839970" lon="14.1641110"></trkpt>
    <trkpt lat="57.7840170" lon="14.1639180"></trkpt>
    <trkpt lat="57.7840430" lon="14.1636790"></trkpt>
    <trkpt lat="57.7841120" lon="14.1630530"></trkpt>
    <trkpt lat="57.7841670" lon="14.1625760"></trkpt>
    <trkpt lat="57.7841950" lon="14.1624350"></trkpt>
    <trkpt lat="57.7842300" lon="14.1622070"></trkpt>
    <trkpt lat="57.7842760" lon="14.1619520"></trkpt>
    <trkpt lat="57.7843170" lon="14.1617560"></trkpt>
    <trkpt lat="57.7843490" lon="14.1615990"></trkpt>
    <trkpt lat="57.7844440" lon="14.1613390"></trkpt>
    <trkpt lat="57.7844980" lon="14.1611930"></trkpt>
    <trkpt lat="57.7845670" lon="14.1609970"></trkpt>
    <trkpt lat="57.7847300" lon="14.1605120"></trkpt>
    <trkpt lat="57.7847750" lon="14.1603960"></trkpt>
    <trkpt lat="57.7848280" lon="14.1602060"></trkpt>
    <trkpt lat="57.7848880" lon="14.1599360"></trkpt>
    <trkpt lat="57.7849840" lon="14.1593870"></trkpt>
    <trkpt lat="57.7850620" lon="14.1589390"></trkpt>
    <trkpt lat="57.7851930" lon="14.1584690"></trkpt>
    <trkpt lat="57.7855275" lon="14.1573525"></trkpt>
    <trkpt lat="57.7858620" lon="14.1562360"></trkpt>
    <trkpt lat="57.7859140" lon="14.1560460"></trkpt>
    <trkpt lat="57.7859360" lon="14.1559490"></trkpt>
    <trkpt lat="57.7859560" lon="14.1558390"></trkpt>
    <trkpt lat="57.7859970" lon="14.1557010"></trkpt>
    <trkpt lat="57.7860230" lon="14.1556030"></trkpt>
    <trkpt lat="57.7860370" lon="14.1554840"></trkpt>
    <trkpt lat="57.7860400" lon="14.1553910"></trkpt>
    <trkpt lat="57.7860350" lon="14.1552960"></trkpt>
    <trkpt lat="57.7860060" lon="14.1550710"></trkpt>
    <trkpt lat="57.7859830" lon="14.1549170"></trkpt>
    <trkpt lat="57.7859910" lon="14.1548250"></trkpt>
    <trkpt lat="57.7859940" lon="14.1547070"></trkpt>
    <trkpt lat="57.7860090" lon="14.1545970"></trkpt>
    <trkpt lat="57.7860330" lon="14.1545050"></trkpt>
    <trkpt lat="57.7862340" lon="14.1539960"></trkpt>
    <trkpt lat="57.7863350" lon="14.1537990"></trkpt>
    <trkpt lat="57.7863910" lon="14.1536770"></trkpt>
    <trkpt lat="57.7864350" lon="14.1535600"></trkpt>
    <trkpt lat="57.7864790" lon="14.1533970"></trkpt>
    <trkpt lat="57.7865200" lon="14.1532050"></trkpt>
    <trkpt lat="57.7865690" lon="14.1528790"></trkpt>
    <trkpt lat="57.7865990" lon="14.1526350"></trkpt>
    <trkpt lat="57.7866470" lon="14.1522780"></trkpt>
    <trkpt lat="57.7866770" lon="14.1520840"></trkpt>
    <trkpt lat="57.7867240" lon="14.1518870"></trkpt>
    <trkpt lat="57.7867870" lon="14.1516830"></trkpt>
    <trkpt lat="57.7868700" lon="14.1514650"></trkpt>
    <trkpt lat="57.7869900" lon="14.1511510"></trkpt>
    <trkpt lat="57.7871050" lon="14.1509220"></trkpt>
    <trkpt lat="57.7872540" lon="14.1506170"></trkpt>
    <trkpt lat="57.7873020" lon="14.1505180"></trkpt>
    <trkpt lat="57.7873780" lon="14.1503570"></trkpt>
    <trkpt lat="57.7874570" lon="14.1502900"></trkpt>
    <trkpt lat="57.7875850" lon="14.1502120"></trkpt>
    <trkpt lat="57.7877320" lon="14.1501400"></trkpt>
    <trkpt lat="57.7882040" lon="14.1499350"></trkpt>
    <trkpt lat="57.7886440" lon="14.1497510"></trkpt>
    <trkpt lat="57.7887620" lon="14.1496960"></trkpt>
    <trkpt lat="57.7891240" lon="14.1495360"></trkpt>
    <trkpt lat="57.7892280" lon="14.1494870"></trkpt>
    <trkpt lat="57.7893110" lon="14.1494480"></trkpt>
    <trkpt lat="57.7897130" lon="14.1492630"></trkpt>
    <trkpt lat="57.7904830" lon="14.1489440"></trkpt>
    <trkpt lat="57.7912370" lon="14.1487050"></trkpt>
    <trkpt lat="57.7914430" lon="14.1486640"></trkpt>
    <trkpt lat="57.7921140" lon="14.1485725"></trkpt>
    <trkpt lat="57.7927850" lon="14.1484810"></trkpt>
    <trkpt lat="57.7932870" lon="14.1484040"></trkpt>
    <trkpt lat="57.7937890" lon="14.1483270"></trkpt>
    <trkpt lat="57.7938750" lon="14.1483260"></trkpt>
    <trkpt lat="57.7939790" lon="14.1483260"></trkpt>
    <trkpt lat="57.7942150" lon="14.1483370"></trkpt>
    <trkpt lat="57.7942180" lon="14.1482030"></trkpt>
    <trkpt lat="57.7942250" lon="14.1478130"></trkpt>
    <trkpt lat="57.7942440" lon="14.1476730"></trkpt>
    <trkpt lat="57.7942840" lon="14.1475570"></trkpt>
    <trkpt lat="57.7945110" lon="14.1471210"></trkpt>
    <trkpt lat="57.7946480" lon="14.1468860"></trkpt>
    <trkpt lat="57.7947980" lon="14.1466850"></trkpt>
    <trkpt lat="57.7949930" lon="14.1464800"></trkpt>
    <trkpt lat="57.7951030" lon="14.1463900"></trkpt>
    <trkpt lat="57.7953240" lon="14.1462090"></trkpt>
    <trkpt lat="57.7954460" lon="14.1461240"></trkpt>
    <trkpt lat="57.7957270" lon="14.1459550"></trkpt>
    <trkpt lat="57.7960710" lon="14.1457450"></trkpt>
    <trkpt lat="57.7964190" lon="14.1455250"></trkpt>
    <trkpt lat="57.7966890" lon="14.1453400"></trkpt>
    <trkpt lat="57.7967360" lon="14.1453060"></trkpt>
    <trkpt lat="57.7969550" lon="14.1450900"></trkpt>
    <trkpt lat="57.7972990" lon="14.1447780"></trkpt>
    <trkpt lat="57.7976650" lon="14.1444090"></trkpt>
    <trkpt lat="57.7979510" lon="14.1440880"></trkpt>
    <trkpt lat="57.7981890" lon="14.1438390"></trkpt>
    <trkpt lat="57.7985330" lon="14.1434610"></trkpt>
    <trkpt lat="57.7986650" lon="14.1432960"></trkpt>
    <trkpt lat="57.7987000" lon="14.1432530"></trkpt>
    <trkpt lat="57.7987510" lon="14.1431680"></trkpt>
    <trkpt lat="57.7988330" lon="14.1430340"></trkpt>
    <trkpt lat="57.7992030" lon="14.1424980"></trkpt>
    <trkpt lat="57.7993730" lon="14.1422180"></trkpt>
    <trkpt lat="57.7996530" lon="14.1417650"></trkpt>
    <trkpt lat="57.7998470" lon="14.1414010"></trkpt>
    <trkpt lat="57.8000250" lon="14.1410680"></trkpt>
    <trkpt lat="57.8001820" lon="14.1407430"></trkpt>
    <trkpt lat="57.8003380" lon="14.1404250"></trkpt>
    <trkpt lat="57.8003960" lon="14.1403020"></trkpt>
    <trkpt lat="57.8006860" lon="14.1396620"></trkpt>
    <trkpt lat="57.8008750" lon="14.1392630"></trkpt>
    <trkpt lat="57.8009930" lon="14.1390790"></trkpt>
    <trkpt lat="57.8011090" lon="14.1389420"></trkpt>
    <trkpt lat="57.8012180" lon="14.1388360"></trkpt>
    <trkpt lat="57.8014970" lon="14.1386170"></trkpt>
    <trkpt lat="57.8019910" lon="14.1382900"></trkpt>
    <trkpt lat="57.8024850" lon="14.1379630"></trkpt>
    <trkpt lat="57.8026090" lon="14.1378360"></trkpt>
    <trkpt lat="57.8027290" lon="14.1376840"></trkpt>
    <trkpt lat="57.8028480" lon="14.1375150"></trkpt>
    <trkpt lat="57.8030020" lon="14.1372690"></trkpt>
    <trkpt lat="57.8030730" lon="14.1371560"></trkpt>
    <trkpt lat="57.8031360" lon="14.1370600"></trkpt>
    <trkpt lat="57.8031740" lon="14.1370030"></trkpt>
    <trkpt lat="57.8032270" lon="14.1369160"></trkpt>
    <trkpt lat="57.8034260" lon="14.1365960"></trkpt>
    <trkpt lat="57.8036390" lon="14.1362580"></trkpt>
    <trkpt lat="57.8037480" lon="14.1360400"></trkpt>
    <trkpt lat="57.8038500" lon="14.1357780"></trkpt>
    <trkpt lat="57.8039270" lon="14.1355280"></trkpt>
    <trkpt lat="57.8039750" lon="14.1353660"></trkpt>
    <trkpt lat="57.8040140" lon="14.1352290"></trkpt>
    <trkpt lat="57.8040720" lon="14.1350270"></trkpt>
    <trkpt lat="57.8041520" lon="14.1347550"></trkpt>
    <trkpt lat="57.8043610" lon="14.1341160"></trkpt>
    <trkpt lat="57.8046410" lon="14.1332330"></trkpt>
    <trkpt lat="57.8049210" lon="14.1323500"></trkpt>
    <trkpt lat="57.8050580" lon="14.1319400"></trkpt>
    <trkpt lat="57.8052100" lon="14.1315140"></trkpt>
    <trkpt lat="57.8053510" lon="14.1311920"></trkpt>
    <trkpt lat="57.8055110" lon="14.1309300"></trkpt>
    <trkpt lat="57.8056170" lon="14.1307870"></trkpt>
    <trkpt lat="57.8057280" lon="14.1306750"></trkpt>
    <trkpt lat="57.8058580" lon="14.1305610"></trkpt>
    <trkpt lat="57.8061270" lon="14.1303700"></trkpt>
    <trkpt lat="57.8064540" lon="14.1301700"></trkpt>
    <trkpt lat="57.8067530" lon="14.1300030"></trkpt>
    <trkpt lat="57.8070430" lon="14.1298960"></trkpt>
    <trkpt lat="57.8074240" lon="14.1298050"></trkpt>
    <trkpt lat="57.8077780" lon="14.1296740"></trkpt>
    <trkpt lat="57.8079960" lon="14.1295340"></trkpt>
    <trkpt lat="57.8082250" lon="14.1293270"></trkpt>
    <trkpt lat="57.8083600" lon="14.1291210"></trkpt>
    <trkpt lat="57.8084830" lon="14.1288480"></trkpt>
    <trkpt lat="57.8085440" lon="14.1286500"></trkpt>
    <trkpt lat="57.8085950" lon="14.1283910"></trkpt>
    <trkpt lat="57.8086270" lon="14.1279780"></trkpt>
    <trkpt lat="57.8086600" lon="14.1271990"></trkpt>
    <trkpt lat="57.8087030" lon="14.1261760"></trkpt>
    <trkpt lat="57.8087340" lon="14.1257120"></trkpt>
    <trkpt lat="57.8087870" lon="14.1253310"></trkpt>
    <trkpt lat="57.8088380" lon="14.1251300"></trkpt>
    <trkpt lat="57.8089110" lon="14.1249300"></trkpt>
    <trkpt lat="57.8090190" lon="14.1247250"></trkpt>
    <trkpt lat="57.8091450" lon="14.1245560"></trkpt>
    <trkpt lat="57.8094250" lon="14.1242650"></trkpt>
    <trkpt lat="57.8094690" lon="14.1242190"></trkpt>
    <trkpt lat="57.8098420" lon="14.1237960"></trkpt>
    <trkpt lat="57.8100680" lon="14.1235580"></trkpt>
    <trkpt lat="57.8103050" lon="14.1233700"></trkpt>
    <trkpt lat="57.8106790" lon="14.1230910"></trkpt>
    <trkpt lat="57.8110250" lon="14.1227850"></trkpt>
    <trkpt lat="57.8113560" lon="14.1224490"></trkpt>
    <trkpt lat="57.8117160" lon="14.1220750"></trkpt>
    <trkpt lat="57.8120280" lon="14.1217820"></trkpt>
    <trkpt lat="57.8124590" lon="14.1214130"></trkpt>
    <trkpt lat="57.8129050" lon="14.1210100"></trkpt>
    <trkpt lat="57.8130980" lon="14.1207880"></trkpt>
    <trkpt lat="57.8132850" lon="14.1205430"></trkpt>
    <trkpt lat="57.8136720" lon="14.1200075"></trkpt>
    <trkpt lat="57.8140590" lon="14.1194720"></trkpt>
    <trkpt lat="57.8146300" lon="14.1187260"></trkpt>
    <trkpt lat="57.8151760" lon="14.1179150"></trkpt>
    <trkpt lat="57.8154600" lon="14.1174610"></trkpt>
    <trkpt lat="57.8157290" lon="14.1169920"></trkpt>
    <trkpt lat="57.8159660" lon="14.1165030"></trkpt>
    <trkpt lat="57.8161810" lon="14.1160000"></trkpt>
    <trkpt lat="57.8162640" lon="14.1158080"></trkpt>
    <trkpt lat="57.8163920" lon="14.1154220"></trkpt>
    <trkpt lat="57.8165370" lon="14.1150050"></trkpt>
    <trkpt lat="57.8167700" lon="14.1142830"></trkpt>
    <trkpt lat="57.8169480" lon="14.1138120"></trkpt>
    <trkpt lat="57.8170760" lon="14.1135100"></trkpt>
    <trkpt lat="57.8172480" lon="14.1132140"></trkpt>
    <trkpt lat="57.8174670" lon="14.1129220"></trkpt>
    <trkpt lat="57.8176780" lon="14.1126790"></trkpt>
    <trkpt lat="57.8184660" lon="14.1119910"></trkpt>
    <trkpt lat="57.8188890" lon="14.1116370"></trkpt>
    <trkpt lat="57.8191410" lon="14.1114450"></trkpt>
    <trkpt lat="57.8194680" lon="14.1111510"></trkpt>
    <trkpt lat="57.8200465" lon="14.1106655"></trkpt>
    <trkpt lat="57.8206250" lon="14.1101800"></trkpt>
    <trkpt lat="57.8210990" lon="14.1099400"></trkpt>
    <trkpt lat="57.8217290" lon="14.1097360"></trkpt>
    <trkpt lat="57.8224190" lon="14.1093000"></trkpt>
    <trkpt lat="57.8229080" lon="14.1090000"></trkpt>
    <trkpt lat="57.8233330" lon="14.1087600"></trkpt>
    <trkpt lat="57.8237910" lon="14.1084850"></trkpt>
    <trkpt lat="57.8241200" lon="14.1083130"></trkpt>
    <trkpt lat="57.8243710" lon="14.1083130"></trkpt>
    <trkpt lat="57.8245550" lon="14.1086540"></trkpt>
    <trkpt lat="57.8246980" lon="14.1084440"></trkpt>
    <trkpt lat="57.8249470" lon="14.1080610"></trkpt>
    <trkpt lat="57.8253705" lon="14.1073670"></trkpt>
    <trkpt lat="57.8257940" lon="14.1066730"></trkpt>
    <trkpt lat="57.8262870" lon="14.1057325"></trkpt>
    <trkpt lat="57.8267800" lon="14.1047920"></trkpt>
    <trkpt lat="57.8269930" lon="14.1043420"></trkpt>
    <trkpt lat="57.8272770" lon="14.1037790"></trkpt>
    <trkpt lat="57.8274300" lon="14.1034300"></trkpt>
    <trkpt lat="57.8275190" lon="14.1031620"></trkpt>
    <trkpt lat="57.8275730" lon="14.1029450"></trkpt>
    <trkpt lat="57.8276070" lon="14.1027600"></trkpt>
    <trkpt lat="57.8276470" lon="14.1023240"></trkpt>
    <trkpt lat="57.8276570" lon="14.1020960"></trkpt>
    <trkpt lat="57.8276600" lon="14.1017710"></trkpt>
    <trkpt lat="57.8276610" lon="14.1016890"></trkpt>
    <trkpt lat="57.8277670" lon="14.1016940"></trkpt>
    <trkpt lat="57.8278880" lon="14.1016690"></trkpt>
    <trkpt lat="57.8279980" lon="14.1016260"></trkpt>
    <trkpt lat="57.8280800" lon="14.1015580"></trkpt>
    <trkpt lat="57.8281560" lon="14.1014770"></trkpt>
    <trkpt lat="57.8283040" lon="14.1013380"></trkpt>
    <trkpt lat="57.8283800" lon="14.1012430"></trkpt>
    <trkpt lat="57.8284640" lon="14.1011220"></trkpt>
    <trkpt lat="57.8285490" lon="14.1009540"></trkpt>
    <trkpt lat="57.8286070" lon="14.1008200"></trkpt>
    <trkpt lat="57.8286590" lon="14.1006690"></trkpt>
    <trkpt lat="57.8287010" lon="14.1005350"></trkpt>
    <trkpt lat="57.8287280" lon="14.1003960"></trkpt>
    <trkpt lat="57.8287900" lon="14.1000320"></trkpt>
    <trkpt lat="57.8288290" lon="14.0997030"></trkpt>
    <trkpt lat="57.8288390" lon="14.0995530"></trkpt>
    <trkpt lat="57.8288450" lon="14.0994180"></trkpt>
    <trkpt lat="57.8288870" lon="14.0990870"></trkpt>
    <trkpt lat="57.8289090" lon="14.0988630"></trkpt>
    <trkpt lat="57.8289430" lon="14.0986530"></trkpt>
    <trkpt lat="57.8289660" lon="14.0985470"></trkpt>
    <trkpt lat="57.8290270" lon="14.0984970"></trkpt>
    <trkpt lat="57.8290810" lon="14.0984340"></trkpt>
    <trkpt lat="57.8291520" lon="14.0983210"></trkpt>
    <trkpt lat="57.8291860" lon="14.0982250"></trkpt>
    <trkpt lat="57.8293150" lon="14.0980950"></trkpt>
    <trkpt lat="57.8294960" lon="14.0979640"></trkpt>
    <trkpt lat="57.8296430" lon="14.0978690"></trkpt>
    <trkpt lat="57.8297490" lon="14.0977920"></trkpt>
    <trkpt lat="57.8298650" lon="14.0977010"></trkpt>
    <trkpt lat="57.8300010" lon="14.0975870"></trkpt>
    <trkpt lat="57.8300960" lon="14.0975010"></trkpt>
    <trkpt lat="57.8302640" lon="14.0973260"></trkpt>
    <trkpt lat="57.8304540" lon="14.0971030"></trkpt>
    <trkpt lat="57.8306480" lon="14.0968390"></trkpt>
    <trkpt lat="57.8308250" lon="14.0965690"></trkpt>
    <trkpt lat="57.8310010" lon="14.0962760"></trkpt>
    <trkpt lat="57.8311650" lon="14.0959720"></trkpt>
    <trkpt lat="57.8316535" lon="14.0949760"></trkpt>
    <trkpt lat="57.8321420" lon="14.0939800"></trkpt>
    <trkpt lat="57.8323770" lon="14.0934980"></trkpt>
    <trkpt lat="57.8327090" lon="14.0927770"></trkpt>
    <trkpt lat="57.8330040" lon="14.0920550"></trkpt>
    <trkpt lat="57.8333080" lon="14.0912540"></trkpt>
    <trkpt lat="57.8335530" lon="14.0904800"></trkpt>
    <trkpt lat="57.8338010" lon="14.0896630"></trkpt>
    <trkpt lat="57.8340010" lon="14.0889190"></trkpt>
    <trkpt lat="57.8342040" lon="14.0880410"></trkpt>
    <trkpt lat="57.8344820" lon="14.0868025"></trkpt>
    <trkpt lat="57.8347600" lon="14.0855640"></trkpt>
    <trkpt lat="57.8350325" lon="14.0843400"></trkpt>
    <trkpt lat="57.8353050" lon="14.0831160"></trkpt>
    <trkpt lat="57.8356420" lon="14.0816247"></trkpt>
    <trkpt lat="57.8359790" lon="14.0801333"></trkpt>
    <trkpt lat="57.8363160" lon="14.0786420"></trkpt>
    <trkpt lat="57.8365710" lon="14.0775590"></trkpt>
    <trkpt lat="57.8367620" lon="14.0767915"></trkpt>
    <trkpt lat="57.8369530" lon="14.0760240"></trkpt>
    <trkpt lat="57.8371805" lon="14.0751635"></trkpt>
    <trkpt lat="57.8374080" lon="14.0743030"></trkpt>
    <trkpt lat="57.8376905" lon="14.0732850"></trkpt>
    <trkpt lat="57.8379730" lon="14.0722670"></trkpt>
    <trkpt lat="57.8381910" lon="14.0715165"></trkpt>
    <trkpt lat="57.8384090" lon="14.0707660"></trkpt>
    <trkpt lat="57.8387200" lon="14.0696610"></trkpt>
    <trkpt lat="57.8390310" lon="14.0685560"></trkpt>
    <trkpt lat="57.8394000" lon="14.0671790"></trkpt>
    <trkpt lat="57.8396610" lon="14.0661610"></trkpt>
    <trkpt lat="57.8398860" lon="14.0652410"></trkpt>
    <trkpt lat="57.8402010" lon="14.0639010"></trkpt>
    <trkpt lat="57.8404470" lon="14.0627810"></trkpt>
    <trkpt lat="57.8406580" lon="14.0617800"></trkpt>
    <trkpt lat="57.8408070" lon="14.0610150"></trkpt>
    <trkpt lat="57.8409720" lon="14.0601335"></trkpt>
    <trkpt lat="57.8411370" lon="14.0592520"></trkpt>
    <trkpt lat="57.8412280" lon="14.0587340"></trkpt>
    <trkpt lat="57.8413540" lon="14.0580200"></trkpt>
    <trkpt lat="57.8416010" lon="14.0566120"></trkpt>
    <trkpt lat="57.8418606" lon="14.0550786"></trkpt>
    <trkpt lat="57.8421202" lon="14.0535452"></trkpt>
    <trkpt lat="57.8423798" lon="14.0520118"></trkpt>
    <trkpt lat="57.8426394" lon="14.0504784"></trkpt>
    <trkpt lat="57.8428990" lon="14.0489450"></trkpt>
    <trkpt lat="57.8430833" lon="14.0478580"></trkpt>
    <trkpt lat="57.8432677" lon="14.0467710"></trkpt>
    <trkpt lat="57.8434520" lon="14.0456840"></trkpt>
    <trkpt lat="57.8436295" lon="14.0446235"></trkpt>
    <trkpt lat="57.8438070" lon="14.0435630"></trkpt>
    <trkpt lat="57.8439495" lon="14.0427215"></trkpt>
    <trkpt lat="57.8440920" lon="14.0418800"></trkpt>
    <trkpt lat="57.8442720" lon="14.0408090"></trkpt>
    <trkpt lat="57.8444520" lon="14.0397380"></trkpt>
    <trkpt lat="57.8445895" lon="14.0389255"></trkpt>
    <trkpt lat="57.8447270" lon="14.0381130"></trkpt>
    <trkpt lat="57.8448880" lon="14.0372420"></trkpt>
    <trkpt lat="57.8450160" lon="14.0366360"></trkpt>
    <trkpt lat="57.8451450" lon="14.0360760"></trkpt>
    <trkpt lat="57.8453360" lon="14.0353730"></trkpt>
    <trkpt lat="57.8455340" lon="14.0347350"></trkpt>
    <trkpt lat="57.8456620" lon="14.0343450"></trkpt>
    <trkpt lat="57.8458230" lon="14.0338900"></trkpt>
    <trkpt lat="57.8459950" lon="14.0334460"></trkpt>
    <trkpt lat="57.8462460" lon="14.0328560"></trkpt>
    <trkpt lat="57.8464870" lon="14.0323320"></trkpt>
    <trkpt lat="57.8467520" lon="14.0318110"></trkpt>
    <trkpt lat="57.8469780" lon="14.0314030"></trkpt>
    <trkpt lat="57.8473070" lon="14.0308600"></trkpt>
    <trkpt lat="57.8476040" lon="14.0304300"></trkpt>
    <trkpt lat="57.8478730" lon="14.0300680"></trkpt>
    <trkpt lat="57.8481870" lon="14.0296930"></trkpt>
    <trkpt lat="57.8484880" lon="14.0293540"></trkpt>
    <trkpt lat="57.8489120" lon="14.0289160"></trkpt>
    <trkpt lat="57.8491870" lon="14.0286440"></trkpt>
    <trkpt lat="57.8498460" lon="14.0280040"></trkpt>
    <trkpt lat="57.8503350" lon="14.0275510"></trkpt>
    <trkpt lat="57.8508125" lon="14.0271365"></trkpt>
    <trkpt lat="57.8512900" lon="14.0267220"></trkpt>
    <trkpt lat="57.8518670" lon="14.0262340"></trkpt>
    <trkpt lat="57.8523080" lon="14.0258240"></trkpt>
    <trkpt lat="57.8526190" lon="14.0255040"></trkpt>
    <trkpt lat="57.8529840" lon="14.0250710"></trkpt>
    <trkpt lat="57.8533450" lon="14.0246020"></trkpt>
    <trkpt lat="57.8535860" lon="14.0242410"></trkpt>
    <trkpt lat="57.8538290" lon="14.0238500"></trkpt>
    <trkpt lat="57.8540190" lon="14.0235410"></trkpt>
    <trkpt lat="57.8544250" lon="14.0228380"></trkpt>
    <trkpt lat="57.8547700" lon="14.0221810"></trkpt>
    <trkpt lat="57.8550730" lon="14.0215270"></trkpt>
    <trkpt lat="57.8553470" lon="14.0208650"></trkpt>
    <trkpt lat="57.8556240" lon="14.0201020"></trkpt>
    <trkpt lat="57.8559340" lon="14.0191490"></trkpt>
    <trkpt lat="57.8560380" lon="14.0187790"></trkpt>
    <trkpt lat="57.8561670" lon="14.0182520"></trkpt>
    <trkpt lat="57.8563520" lon="14.0174680"></trkpt>
    <trkpt lat="57.8565620" lon="14.0163230"></trkpt>
    <trkpt lat="57.8567180" lon="14.0152420"></trkpt>
    <trkpt lat="57.8568585" lon="14.0140885"></trkpt>
    <trkpt lat="57.8569990" lon="14.0129350"></trkpt>
    <trkpt lat="57.8571230" lon="14.0120450"></trkpt>
    <trkpt lat="57.8573010" lon="14.0109120"></trkpt>
    <trkpt lat="57.8574840" lon="14.0099010"></trkpt>
    <trkpt lat="57.8577260" lon="14.0086720"></trkpt>
    <trkpt lat="57.8579770" lon="14.0075540"></trkpt>
    <trkpt lat="57.8582650" lon="14.0063830"></trkpt>
    <trkpt lat="57.8585470" lon="14.0053230"></trkpt>
    <trkpt lat="57.8589050" lon="14.0041170"></trkpt>
    <trkpt lat="57.8592460" lon="14.0030230"></trkpt>
    <trkpt lat="57.8593960" lon="14.0025390"></trkpt>
    <trkpt lat="57.8595090" lon="14.0021770"></trkpt>
    <trkpt lat="57.8598913" lon="14.0009922"></trkpt>
    <trkpt lat="57.8602735" lon="13.9998075"></trkpt>
    <trkpt lat="57.8606557" lon="13.9986228"></trkpt>
    <trkpt lat="57.8610380" lon="13.9974380"></trkpt>
    <trkpt lat="57.8611510" lon="13.9970870"></trkpt>
    <trkpt lat="57.8615920" lon="13.9957430"></trkpt>
    <trkpt lat="57.8620545" lon="13.9943767"></trkpt>
    <trkpt lat="57.8625170" lon="13.9930105"></trkpt>
    <trkpt lat="57.8629795" lon="13.9916443"></trkpt>
    <trkpt lat="57.8634420" lon="13.9902780"></trkpt>
    <trkpt lat="57.8636230" lon="13.9897500"></trkpt>
    <trkpt lat="57.8639020" lon="13.9888800"></trkpt>
    <trkpt lat="57.8640780" lon="13.9883100"></trkpt>
    <trkpt lat="57.8642880" lon="13.9875390"></trkpt>
    <trkpt lat="57.8644680" lon="13.9867780"></trkpt>
    <trkpt lat="57.8646590" lon="13.9858700"></trkpt>
    <trkpt lat="57.8648110" lon="13.9850320"></trkpt>
    <trkpt lat="57.8649370" lon="13.9842700"></trkpt>
    <trkpt lat="57.8650480" lon="13.9834650"></trkpt>
    <trkpt lat="57.8651410" lon="13.9827110"></trkpt>
    <trkpt lat="57.8652170" lon="13.9819280"></trkpt>
    <trkpt lat="57.8653010" lon="13.9808410"></trkpt>
    <trkpt lat="57.8653875" lon="13.9797370"></trkpt>
    <trkpt lat="57.8654740" lon="13.9786330"></trkpt>
    <trkpt lat="57.8655545" lon="13.9777720"></trkpt>
    <trkpt lat="57.8656350" lon="13.9769110"></trkpt>
    <trkpt lat="57.8657270" lon="13.9760525"></trkpt>
    <trkpt lat="57.8658190" lon="13.9751940"></trkpt>
    <trkpt lat="57.8659245" lon="13.9743360"></trkpt>
    <trkpt lat="57.8660300" lon="13.9734780"></trkpt>
    <trkpt lat="57.8661870" lon="13.9722880"></trkpt>
    <trkpt lat="57.8663910" lon="13.9708960"></trkpt>
    <trkpt lat="57.8665500" lon="13.9698810"></trkpt>
    <trkpt lat="57.8667910" lon="13.9684310"></trkpt>
    <trkpt lat="57.8670630" lon="13.9669280"></trkpt>
    <trkpt lat="57.8672225" lon="13.9661180"></trkpt>
    <trkpt lat="57.8673820" lon="13.9653080"></trkpt>
    <trkpt lat="57.8675510" lon="13.9645035"></trkpt>
    <trkpt lat="57.8677200" lon="13.9636990"></trkpt>
    <trkpt lat="57.8680240" lon="13.9623670"></trkpt>
    <trkpt lat="57.8682435" lon="13.9614565"></trkpt>
    <trkpt lat="57.8684630" lon="13.9605460"></trkpt>
    <trkpt lat="57.8687845" lon="13.9592475"></trkpt>
    <trkpt lat="57.8691060" lon="13.9579490"></trkpt>
    <trkpt lat="57.8694690" lon="13.9564470"></trkpt>
    <trkpt lat="57.8698320" lon="13.9549450"></trkpt>
    <trkpt lat="57.8701000" lon="13.9537640"></trkpt>
    <trkpt lat="57.8703620" lon="13.9526440"></trkpt>
    <trkpt lat="57.8706630" lon="13.9513050"></trkpt>
    <trkpt lat="57.8709290" lon="13.9500910"></trkpt>
    <trkpt lat="57.8711480" lon="13.9490710"></trkpt>
    <trkpt lat="57.8713490" lon="13.9481195"></trkpt>
    <trkpt lat="57.8715500" lon="13.9471680"></trkpt>
    <trkpt lat="57.8718650" lon="13.9456280"></trkpt>
    <trkpt lat="57.8721050" lon="13.9444360"></trkpt>
    <trkpt lat="57.8722775" lon="13.9435470"></trkpt>
    <trkpt lat="57.8724500" lon="13.9426580"></trkpt>
    <trkpt lat="57.8726785" lon="13.9414635"></trkpt>
    <trkpt lat="57.8729070" lon="13.9402690"></trkpt>
    <trkpt lat="57.8731340" lon="13.9390110"></trkpt>
    <trkpt lat="57.8733610" lon="13.9377530"></trkpt>
    <trkpt lat="57.8735680" lon="13.9365727"></trkpt>
    <trkpt lat="57.8737750" lon="13.9353923"></trkpt>
    <trkpt lat="57.8739820" lon="13.9342120"></trkpt>
    <trkpt lat="57.8741750" lon="13.9332230"></trkpt>
    <trkpt lat="57.8743960" lon="13.9321340"></trkpt>
    <trkpt lat="57.8746290" lon="13.9310600"></trkpt>
    <trkpt lat="57.8749080" lon="13.9298690"></trkpt>
    <trkpt lat="57.8752140" lon="13.9286510"></trkpt>
    <trkpt lat="57.8755570" lon="13.9273760"></trkpt>
    <trkpt lat="57.8759450" lon="13.9260320"></trkpt>
    <trkpt lat="57.8761970" lon="13.9252040"></trkpt>
    <trkpt lat="57.8764430" lon="13.9244405"></trkpt>
    <trkpt lat="57.8766890" lon="13.9236770"></trkpt>
    <trkpt lat="57.8770500" lon="13.9226520"></trkpt>
    <trkpt lat="57.8772870" lon="13.9219820"></trkpt>
    <trkpt lat="57.8776020" lon="13.9211380"></trkpt>
    <trkpt lat="57.8779850" lon="13.9201730"></trkpt>
    <trkpt lat="57.8783740" lon="13.9192555"></trkpt>
    <trkpt lat="57.8787630" lon="13.9183380"></trkpt>
    <trkpt lat="57.8791050" lon="13.9174790"></trkpt>
    <trkpt lat="57.8795665" lon="13.9162495"></trkpt>
    <trkpt lat="57.8800280" lon="13.9150200"></trkpt>
    <trkpt lat="57.8805250" lon="13.9137605"></trkpt>
    <trkpt lat="57.8810220" lon="13.9125010"></trkpt>
    <trkpt lat="57.8814460" lon="13.9114720"></trkpt>
    <trkpt lat="57.8818700" lon="13.9104430"></trkpt>
    <trkpt lat="57.8823860" lon="13.9092555"></trkpt>
    <trkpt lat="57.8829020" lon="13.9080680"></trkpt>
    <trkpt lat="57.8833357" lon="13.9071247"></trkpt>
    <trkpt lat="57.8837693" lon="13.9061813"></trkpt>
    <trkpt lat="57.8842030" lon="13.9052380"></trkpt>
    <trkpt lat="57.8847490" lon="13.9040190"></trkpt>
    <trkpt lat="57.8851960" lon="13.9029290"></trkpt>
    <trkpt lat="57.8855770" lon="13.9019060"></trkpt>
    <trkpt lat="57.8858010" lon="13.9012650"></trkpt>
    <trkpt lat="57.8859780" lon="13.9007470"></trkpt>
    <trkpt lat="57.8862540" lon="13.8998700"></trkpt>
    <trkpt lat="57.8864340" lon="13.8992770"></trkpt>
    <trkpt lat="57.8868220" lon="13.8979470"></trkpt>
    <trkpt lat="57.8871210" lon="13.8969990"></trkpt>
    <trkpt lat="57.8874530" lon="13.8960010"></trkpt>
    <trkpt lat="57.8875560" lon="13.8957160"></trkpt>
    <trkpt lat="57.8877970" lon="13.8950460"></trkpt>
    <trkpt lat="57.8879120" lon="13.8947280"></trkpt>
    <trkpt lat="57.8882360" lon="13.8939040"></trkpt>
    <trkpt lat="57.8885550" lon="13.8931390"></trkpt>
    <trkpt lat="57.8889950" lon="13.8921530"></trkpt>
    <trkpt lat="57.8895500" lon="13.8909990"></trkpt>
    <trkpt lat="57.8900810" lon="13.8900120"></trkpt>
    <trkpt lat="57.8905710" lon="13.8891510"></trkpt>
    <trkpt lat="57.8909160" lon="13.8885670"></trkpt>
    <trkpt lat="57.8912610" lon="13.8879830"></trkpt>
    <trkpt lat="57.8915490" lon="13.8874730"></trkpt>
    <trkpt lat="57.8919860" lon="13.8866650"></trkpt>
    <trkpt lat="57.8923090" lon="13.8860260"></trkpt>
    <trkpt lat="57.8927350" lon="13.8851180"></trkpt>
    <trkpt lat="57.8929510" lon="13.8846400"></trkpt>
    <trkpt lat="57.8932060" lon="13.8840560"></trkpt>
    <trkpt lat="57.8935960" lon="13.8830690"></trkpt>
    <trkpt lat="57.8939410" lon="13.8821490"></trkpt>
    <trkpt lat="57.8941130" lon="13.8816330"></trkpt>
    <trkpt lat="57.8943000" lon="13.8811070"></trkpt>
    <trkpt lat="57.8945080" lon="13.8804880"></trkpt>
    <trkpt lat="57.8948290" lon="13.8794310"></trkpt>
    <trkpt lat="57.8950570" lon="13.8786070"></trkpt>
    <trkpt lat="57.8952850" lon="13.8777830"></trkpt>
    <trkpt lat="57.8956160" lon="13.8764040"></trkpt>
    <trkpt lat="57.8959470" lon="13.8748920"></trkpt>
    <trkpt lat="57.8962250" lon="13.8735930"></trkpt>
    <trkpt lat="57.8964270" lon="13.8727700"></trkpt>
    <trkpt lat="57.8966560" lon="13.8719500"></trkpt>
    <trkpt lat="57.8969590" lon="13.8710190"></trkpt>
    <trkpt lat="57.8972130" lon="13.8703380"></trkpt>
    <trkpt lat="57.8974660" lon="13.8697130"></trkpt>
    <trkpt lat="57.8978500" lon="13.8688750"></trkpt>
    <trkpt lat="57.8982380" lon="13.8681360"></trkpt>
    <trkpt lat="57.8986560" lon="13.8674250"></trkpt>
    <trkpt lat="57.8990040" lon="13.8669110"></trkpt>
    <trkpt lat="57.8995700" lon="13.8661640"></trkpt>
    <trkpt lat="57.9000090" lon="13.8656660"></trkpt>
    <trkpt lat="57.9003890" lon="13.8653000"></trkpt>
    <trkpt lat="57.9008280" lon="13.8648990"></trkpt>
    <trkpt lat="57.9013500" lon="13.8645020"></trkpt>
    <trkpt lat="57.9017330" lon="13.8642580"></trkpt>
    <trkpt lat="57.9020130" lon="13.8640500"></trkpt>
    <trkpt lat="57.9022650" lon="13.8639240"></trkpt>
    <trkpt lat="57.9028290" lon="13.8636590"></trkpt>
    <trkpt lat="57.9032200" lon="13.8634420"></trkpt>
    <trkpt lat="57.9035350" lon="13.8632420"></trkpt>
    <trkpt lat="57.9037920" lon="13.8631540"></trkpt>
    <trkpt lat="57.9039000" lon="13.8631440"></trkpt>
    <trkpt lat="57.9040390" lon="13.8631900"></trkpt>
    <trkpt lat="57.9041470" lon="13.8632500"></trkpt>
    <trkpt lat="57.9041760" lon="13.8632780"></trkpt>
    <trkpt lat="57.9042060" lon="13.8633000"></trkpt>
    <trkpt lat="57.9042380" lon="13.8633170"></trkpt>
    <trkpt lat="57.9042780" lon="13.8633300"></trkpt>
    <trkpt lat="57.9043200" lon="13.8633330"></trkpt>
    <trkpt lat="57.9043610" lon="13.8633280"></trkpt>
    <trkpt lat="57.9044010" lon="13.8633130"></trkpt>
    <trkpt lat="57.9044400" lon="13.8632890"></trkpt>
    <trkpt lat="57.9044780" lon="13.8632570"></trkpt>
    <trkpt lat="57.9045130" lon="13.8632160"></trkpt>
    <trkpt lat="57.9045450" lon="13.8631680"></trkpt>
    <trkpt lat="57.9045740" lon="13.8631120"></trkpt>
    <trkpt lat="57.9045990" lon="13.8630510"></trkpt>
    <trkpt lat="57.9046140" lon="13.8630080"></trkpt>
    <trkpt lat="57.9046260" lon="13.8629620"></trkpt>
    <trkpt lat="57.9046370" lon="13.8629150"></trkpt>
    <trkpt lat="57.9046460" lon="13.8628660"></trkpt>
    <trkpt lat="57.9047490" lon="13.8625760"></trkpt>
    <trkpt lat="57.9048290" lon="13.8624010"></trkpt>
    <trkpt lat="57.9049650" lon="13.8621980"></trkpt>
    <trkpt lat="57.9050570" lon="13.8620610"></trkpt>
    <trkpt lat="57.9056030" lon="13.8615210"></trkpt>
    <trkpt lat="57.9063005" lon="13.8608430"></trkpt>
    <trkpt lat="57.9069980" lon="13.8601650"></trkpt>
    <trkpt lat="57.9074760" lon="13.8597520"></trkpt>
    <trkpt lat="57.9081530" lon="13.8592610"></trkpt>
    <trkpt lat="57.9085850" lon="13.8589800"></trkpt>
    <trkpt lat="57.9092230" lon="13.8586430"></trkpt>
    <trkpt lat="57.9097800" lon="13.8584130"></trkpt>
    <trkpt lat="57.9104965" lon="13.8581645"></trkpt>
    <trkpt lat="57.9112130" lon="13.8579160"></trkpt>
    <trkpt lat="57.9120550" lon="13.8575953"></trkpt>
    <trkpt lat="57.9128970" lon="13.8572747"></trkpt>
    <trkpt lat="57.9137390" lon="13.8569540"></trkpt>
    <trkpt lat="57.9139490" lon="13.8568610"></trkpt>
    <trkpt lat="57.9148170" lon="13.8564695"></trkpt>
    <trkpt lat="57.9156850" lon="13.8560780"></trkpt>
    <trkpt lat="57.9162797" lon="13.8557570"></trkpt>
    <trkpt lat="57.9168743" lon="13.8554360"></trkpt>
    <trkpt lat="57.9174690" lon="13.8551150"></trkpt>
    <trkpt lat="57.9181680" lon="13.8547620"></trkpt>
    <trkpt lat="57.9184900" lon="13.8546180"></trkpt>
    <trkpt lat="57.9187580" lon="13.8545170"></trkpt>
    <trkpt lat="57.9190720" lon="13.8544020"></trkpt>
    <trkpt lat="57.9197460" lon="13.8542440"></trkpt>
    <trkpt lat="57.9204370" lon="13.8541680"></trkpt>
    <trkpt lat="57.9213295" lon="13.8540865"></trkpt>
    <trkpt lat="57.9222220" lon="13.8540050"></trkpt>
    <trkpt lat="57.9228400" lon="13.8539190"></trkpt>
    <trkpt lat="57.9234740" lon="13.8537790"></trkpt>
    <trkpt lat="57.9239370" lon="13.8536345"></trkpt>
    <trkpt lat="57.9244000" lon="13.8534900"></trkpt>
    <trkpt lat="57.9248480" lon="13.8533000"></trkpt>
    <trkpt lat="57.9253690" lon="13.8530620"></trkpt>
    <trkpt lat="57.9258285" lon="13.8527960"></trkpt>
    <trkpt lat="57.9262880" lon="13.8525300"></trkpt>
    <trkpt lat="57.9271220" lon="13.8519460"></trkpt>
    <trkpt lat="57.9277300" lon="13.8514530"></trkpt>
    <trkpt lat="57.9282910" lon="13.8509530"></trkpt>
    <trkpt lat="57.9286965" lon="13.8505360"></trkpt>
    <trkpt lat="57.9291020" lon="13.8501190"></trkpt>
    <trkpt lat="57.9293740" lon="13.8497880"></trkpt>
    <trkpt lat="57.9298970" lon="13.8491667"></trkpt>
    <trkpt lat="57.9304200" lon="13.8485453"></trkpt>
    <trkpt lat="57.9309430" lon="13.8479240"></trkpt>
    <trkpt lat="57.9313425" lon="13.8474060"></trkpt>
    <trkpt lat="57.9317420" lon="13.8468880"></trkpt>
    <trkpt lat="57.9321270" lon="13.8464160"></trkpt>
    <trkpt lat="57.9325120" lon="13.8459440"></trkpt>
    <trkpt lat="57.9330730" lon="13.8452570"></trkpt>
    <trkpt lat="57.9336660" lon="13.8445760"></trkpt>
    <trkpt lat="57.9341977" lon="13.8439610"></trkpt>
    <trkpt lat="57.9347293" lon="13.8433460"></trkpt>
    <trkpt lat="57.9352610" lon="13.8427310"></trkpt>
    <trkpt lat="57.9359215" lon="13.8421515"></trkpt>
    <trkpt lat="57.9365820" lon="13.8415720"></trkpt>
    <trkpt lat="57.9369050" lon="13.8413340"></trkpt>
    <trkpt lat="57.9374185" lon="13.8409545"></trkpt>
    <trkpt lat="57.9379320" lon="13.8405750"></trkpt>
    <trkpt lat="57.9381730" lon="13.8404650"></trkpt>
    <trkpt lat="57.9382360" lon="13.8404360"></trkpt>
    <trkpt lat="57.9387200" lon="13.8403290"></trkpt>
    <trkpt lat="57.9390670" lon="13.8402040"></trkpt>
    <trkpt lat="57.9394470" lon="13.8401070"></trkpt>
    <trkpt lat="57.9398500" lon="13.8400120"></trkpt>
    <trkpt lat="57.9402540" lon="13.8399360"></trkpt>
    <trkpt lat="57.9409250" lon="13.8397940"></trkpt>
    <trkpt lat="57.9410470" lon="13.8397640"></trkpt>
    <trkpt lat="57.9417350" lon="13.8396260"></trkpt>
    <trkpt lat="57.9424240" lon="13.8393430"></trkpt>
    <trkpt lat="57.9427720" lon="13.8391670"></trkpt>
    <trkpt lat="57.9430620" lon="13.8390000"></trkpt>
    <trkpt lat="57.9433300" lon="13.8388660"></trkpt>
    <trkpt lat="57.9436140" lon="13.8387030"></trkpt>
    <trkpt lat="57.9437630" lon="13.8386330"></trkpt>
    <trkpt lat="57.9440370" lon="13.8384790"></trkpt>
    <trkpt lat="57.9442200" lon="13.8383670"></trkpt>
    <trkpt lat="57.9447650" lon="13.8380850"></trkpt>
    <trkpt lat="57.9452810" lon="13.8378250"></trkpt>
    <trkpt lat="57.9460230" lon="13.8374140"></trkpt>
    <trkpt lat="57.9463850" lon="13.8372620"></trkpt>
    <trkpt lat="57.9470890" lon="13.8368780"></trkpt>
    <trkpt lat="57.9475560" lon="13.8366250"></trkpt>
    <trkpt lat="57.9483830" lon="13.8361730"></trkpt>
    <trkpt lat="57.9488495" lon="13.8359250"></trkpt>
    <trkpt lat="57.9493160" lon="13.8356770"></trkpt>
    <trkpt lat="57.9498730" lon="13.8353840"></trkpt>
    <trkpt lat="57.9503820" lon="13.8351010"></trkpt>
    <trkpt lat="57.9509065" lon="13.8348145"></trkpt>
    <trkpt lat="57.9514310" lon="13.8345280"></trkpt>
    <trkpt lat="57.9519960" lon="13.8342740"></trkpt>
    <trkpt lat="57.9525290" lon="13.8340690"></trkpt>
    <trkpt lat="57.9532440" lon="13.8338140"></trkpt>
    <trkpt lat="57.9539590" lon="13.8335590"></trkpt>
    <trkpt lat="57.9545915" lon="13.8333385"></trkpt>
    <trkpt lat="57.9552240" lon="13.8331180"></trkpt>
    <trkpt lat="57.9559883" lon="13.8328400"></trkpt>
    <trkpt lat="57.9567527" lon="13.8325620"></trkpt>
    <trkpt lat="57.9575170" lon="13.8322840"></trkpt>
    <trkpt lat="57.9582190" lon="13.8320340"></trkpt>
    <trkpt lat="57.9586640" lon="13.8319260"></trkpt>
    <trkpt lat="57.9590380" lon="13.8318950"></trkpt>
    <trkpt lat="57.9594630" lon="13.8318880"></trkpt>
    <trkpt lat="57.9601540" lon="13.8320020"></trkpt>
    <trkpt lat="57.9608255" lon="13.8320345"></trkpt>
    <trkpt lat="57.9614970" lon="13.8320670"></trkpt>
    <trkpt lat="57.9623395" lon="13.8319700"></trkpt>
    <trkpt lat="57.9631820" lon="13.8318730"></trkpt>
    <trkpt lat="57.9640110" lon="13.8317270"></trkpt>
    <trkpt lat="57.9642780" lon="13.8317030"></trkpt>
    <trkpt lat="57.9648570" lon="13.8316300"></trkpt>
    <trkpt lat="57.9656500" lon="13.8315520"></trkpt>
    <trkpt lat="57.9660850" lon="13.8315290"></trkpt>
    <trkpt lat="57.9665060" lon="13.8315140"></trkpt>
    <trkpt lat="57.9668200" lon="13.8315020"></trkpt>
    <trkpt lat="57.9669770" lon="13.8314960"></trkpt>
    <trkpt lat="57.9675140" lon="13.8314750"></trkpt>
    <trkpt lat="57.9679650" lon="13.8314580"></trkpt>
    <trkpt lat="57.9681790" lon="13.8314480"></trkpt>
    <trkpt lat="57.9683710" lon="13.8314450"></trkpt>
    <trkpt lat="57.9685390" lon="13.8314420"></trkpt>
    <trkpt lat="57.9686930" lon="13.8314580"></trkpt>
    <trkpt lat="57.9688370" lon="13.8314790"></trkpt>
    <trkpt lat="57.9689560" lon="13.8314910"></trkpt>
    <trkpt lat="57.9691850" lon="13.8315500"></trkpt>
    <trkpt lat="57.9693450" lon="13.8316030"></trkpt>
    <trkpt lat="57.9694600" lon="13.8316480"></trkpt>
    <trkpt lat="57.9696440" lon="13.8317260"></trkpt>
    <trkpt lat="57.9698220" lon="13.8318110"></trkpt>
    <trkpt lat="57.9703400" lon="13.8320780"></trkpt>
    <trkpt lat="57.9708640" lon="13.8323510"></trkpt>
    <trkpt lat="57.9713005" lon="13.8325835"></trkpt>
    <trkpt lat="57.9717370" lon="13.8328160"></trkpt>
    <trkpt lat="57.9723120" lon="13.8331140"></trkpt>
    <trkpt lat="57.9727930" lon="13.8333790"></trkpt>
    <trkpt lat="57.9729990" lon="13.8334890"></trkpt>
    <trkpt lat="57.9735760" lon="13.8338080"></trkpt>
    <trkpt lat="57.9738750" lon="13.8339680"></trkpt>
    <trkpt lat="57.9740840" lon="13.8340800"></trkpt>
    <trkpt lat="57.9742290" lon="13.8341560"></trkpt>
    <trkpt lat="57.9745450" lon="13.8343410"></trkpt>
    <trkpt lat="57.9747500" lon="13.8344530"></trkpt>
    <trkpt lat="57.9755640" lon="13.8349050"></trkpt>
    <trkpt lat="57.9757000" lon="13.8349850"></trkpt>
    <trkpt lat="57.9759550" lon="13.8351160"></trkpt>
    <trkpt lat="57.9762900" lon="13.8352830"></trkpt>
    <trkpt lat="57.9765780" lon="13.8353970"></trkpt>
    <trkpt lat="57.9768500" lon="13.8354730"></trkpt>
    <trkpt lat="57.9770130" lon="13.8355170"></trkpt>
    <trkpt lat="57.9773160" lon="13.8355520"></trkpt>
    <trkpt lat="57.9775030" lon="13.8355610"></trkpt>
    <trkpt lat="57.9777590" lon="13.8355560"></trkpt>
    <trkpt lat="57.9778610" lon="13.8355410"></trkpt>
    <trkpt lat="57.9780520" lon="13.8355140"></trkpt>
    <trkpt lat="57.9784340" lon="13.8354190"></trkpt>
    <trkpt lat="57.9787660" lon="13.8353060"></trkpt>
    <trkpt lat="57.9790560" lon="13.8351690"></trkpt>
    <trkpt lat="57.9795580" lon="13.8348500"></trkpt>
    <trkpt lat="57.9797710" lon="13.8346680"></trkpt>
    <trkpt lat="57.9800730" lon="13.8344130"></trkpt>
    <trkpt lat="57.9802860" lon="13.8341890"></trkpt>
    <trkpt lat="57.9804990" lon="13.8339400"></trkpt>
    <trkpt lat="57.9807970" lon="13.8335470"></trkpt>
    <trkpt lat="57.9809370" lon="13.8333450"></trkpt>
    <trkpt lat="57.9812390" lon="13.8328570"></trkpt>
    <trkpt lat="57.9813890" lon="13.8325690"></trkpt>
    <trkpt lat="57.9818250" lon="13.8317150"></trkpt>
    <trkpt lat="57.9819470" lon="13.8314520"></trkpt>
    <trkpt lat="57.9821620" lon="13.8310430"></trkpt>
    <trkpt lat="57.9824400" lon="13.8305390"></trkpt>
    <trkpt lat="57.9827720" lon="13.8300400"></trkpt>
    <trkpt lat="57.9830680" lon="13.8296450"></trkpt>
    <trkpt lat="57.9835060" lon="13.8291760"></trkpt>
    <trkpt lat="57.9838660" lon="13.8288390"></trkpt>
    <trkpt lat="57.9843470" lon="13.8284960"></trkpt>
    <trkpt lat="57.9846400" lon="13.8283380"></trkpt>
    <trkpt lat="57.9850440" lon="13.8281520"></trkpt>
    <trkpt lat="57.9854270" lon="13.8280670"></trkpt>
    <trkpt lat="57.9858200" lon="13.8280620"></trkpt>
    <trkpt lat="57.9862690" lon="13.8280970"></trkpt>
    <trkpt lat="57.9868405" lon="13.8281920"></trkpt>
    <trkpt lat="57.9874120" lon="13.8282870"></trkpt>
    <trkpt lat="57.9882063" lon="13.8284383"></trkpt>
    <trkpt lat="57.9890007" lon="13.8285897"></trkpt>
    <trkpt lat="57.9897950" lon="13.8287410"></trkpt>
    <trkpt lat="57.9904095" lon="13.8289230"></trkpt>
    <trkpt lat="57.9910240" lon="13.8291050"></trkpt>
    <trkpt lat="57.9913960" lon="13.8292840"></trkpt>
    <trkpt lat="57.9917590" lon="13.8294910"></trkpt>
    <trkpt lat="57.9918880" lon="13.8295640"></trkpt>
    <trkpt lat="57.9924110" lon="13.8299210"></trkpt>
    <trkpt lat="57.9926540" lon="13.8300330"></trkpt>
    <trkpt lat="57.9933290" lon="13.8303130"></trkpt>
    <trkpt lat="57.9935360" lon="13.8303780"></trkpt>
    <trkpt lat="57.9938490" lon="13.8304420"></trkpt>
    <trkpt lat="57.9941510" lon="13.8304690"></trkpt>
    <trkpt lat="57.9944930" lon="13.8304790"></trkpt>
    <trkpt lat="57.9952140" lon="13.8304030"></trkpt>
    <trkpt lat="57.9957420" lon="13.8303570"></trkpt>
    <trkpt lat="57.9962700" lon="13.8303110"></trkpt>
    <trkpt lat="57.9965560" lon="13.8302920"></trkpt>
    <trkpt lat="57.9973080" lon="13.8302315"></trkpt>
    <trkpt lat="57.9980600" lon="13.8301710"></trkpt>
    <trkpt lat="57.9988120" lon="13.8301105"></trkpt>
    <trkpt lat="57.9995640" lon="13.8300500"></trkpt>
    <trkpt lat="58.0003730" lon="13.8299800"></trkpt>
    <trkpt lat="58.0008320" lon="13.8299820"></trkpt>
    <trkpt lat="58.0014180" lon="13.8300010"></trkpt>
    <trkpt lat="58.0021170" lon="13.8300727"></trkpt>
    <trkpt lat="58.0028160" lon="13.8301443"></trkpt>
    <trkpt lat="58.0035150" lon="13.8302160"></trkpt>
    <trkpt lat="58.0043015" lon="13.8302965"></trkpt>
    <trkpt lat="58.0050880" lon="13.8303770"></trkpt>
    <trkpt lat="58.0055350" lon="13.8304400"></trkpt>
    <trkpt lat="58.0063800" lon="13.8305190"></trkpt>
    <trkpt lat="58.0069205" lon="13.8305625"></trkpt>
    <trkpt lat="58.0074610" lon="13.8306060"></trkpt>
    <trkpt lat="58.0079380" lon="13.8306670"></trkpt>
    <trkpt lat="58.0082500" lon="13.8306870"></trkpt>
    <trkpt lat="58.0089760" lon="13.8307250"></trkpt>
    <trkpt lat="58.0093790" lon="13.8307090"></trkpt>
    <trkpt lat="58.0096110" lon="13.8306910"></trkpt>
    <trkpt lat="58.0097990" lon="13.8306420"></trkpt>
    <trkpt lat="58.0103120" lon="13.8305210"></trkpt>
    <trkpt lat="58.0107660" lon="13.8303680"></trkpt>
    <trkpt lat="58.0114120" lon="13.8300810"></trkpt>
    <trkpt lat="58.0120580" lon="13.8297940"></trkpt>
    <trkpt lat="58.0125010" lon="13.8296020"></trkpt>
    <trkpt lat="58.0129440" lon="13.8294100"></trkpt>
    <trkpt lat="58.0136430" lon="13.8290940"></trkpt>
    <trkpt lat="58.0144875" lon="13.8287130"></trkpt>
    <trkpt lat="58.0153320" lon="13.8283320"></trkpt>
    <trkpt lat="58.0161180" lon="13.8279970"></trkpt>
    <trkpt lat="58.0169260" lon="13.8276640"></trkpt>
    <trkpt lat="58.0171640" lon="13.8275860"></trkpt>
    <trkpt lat="58.0174800" lon="13.8275010"></trkpt>
    <trkpt lat="58.0179490" lon="13.8274320"></trkpt>
    <trkpt lat="58.0182650" lon="13.8274190"></trkpt>
    <trkpt lat="58.0184460" lon="13.8274130"></trkpt>
    <trkpt lat="58.0187690" lon="13.8274330"></trkpt>
    <trkpt lat="58.0191630" lon="13.8275050"></trkpt>
    <trkpt lat="58.0193650" lon="13.8275660"></trkpt>
    <trkpt lat="58.0195600" lon="13.8276290"></trkpt>
    <trkpt lat="58.0198910" lon="13.8277640"></trkpt>
    <trkpt lat="58.0201790" lon="13.8278970"></trkpt>
    <trkpt lat="58.0205610" lon="13.8281190"></trkpt>
    <trkpt lat="58.0211160" lon="13.8284840"></trkpt>
    <trkpt lat="58.0215340" lon="13.8287660"></trkpt>
    <trkpt lat="58.0217210" lon="13.8289030"></trkpt>
    <trkpt lat="58.0220080" lon="13.8290900"></trkpt>
    <trkpt lat="58.0228230" lon="13.8296210"></trkpt>
    <trkpt lat="58.0235550" lon="13.8301035"></trkpt>
    <trkpt lat="58.0242870" lon="13.8305860"></trkpt>
    <trkpt lat="58.0248553" lon="13.8310010"></trkpt>
    <trkpt lat="58.0254237" lon="13.8314160"></trkpt>
    <trkpt lat="58.0259920" lon="13.8318310"></trkpt>
    <trkpt lat="58.0264575" lon="13.8323355"></trkpt>
    <trkpt lat="58.0269230" lon="13.8328400"></trkpt>
    <trkpt lat="58.0275250" lon="13.8336440"></trkpt>
    <trkpt lat="58.0278100" lon="13.8340410"></trkpt>
    <trkpt lat="58.0282570" lon="13.8346815"></trkpt>
    <trkpt lat="58.0287040" lon="13.8353220"></trkpt>
    <trkpt lat="58.0292790" lon="13.8361270"></trkpt>
    <trkpt lat="58.0296390" lon="13.8366380"></trkpt>
    <trkpt lat="58.0300180" lon="13.8371350"></trkpt>
    <trkpt lat="58.0303970" lon="13.8376320"></trkpt>
    <trkpt lat="58.0309170" lon="13.8380700"></trkpt>
    <trkpt lat="58.0312210" lon="13.8382670"></trkpt>
    <trkpt lat="58.0315320" lon="13.8384160"></trkpt>
    <trkpt lat="58.0319060" lon="13.8385420"></trkpt>
    <trkpt lat="58.0322930" lon="13.8386110"></trkpt>
    <trkpt lat="58.0325390" lon="13.8386390"></trkpt>
    <trkpt lat="58.0327070" lon="13.8386390"></trkpt>
    <trkpt lat="58.0329090" lon="13.8386240"></trkpt>
    <trkpt lat="58.0331010" lon="13.8386010"></trkpt>
    <trkpt lat="58.0332770" lon="13.8385610"></trkpt>
    <trkpt lat="58.0334540" lon="13.8385030"></trkpt>
    <trkpt lat="58.0336340" lon="13.8384330"></trkpt>
    <trkpt lat="58.0338840" lon="13.8383040"></trkpt>
    <trkpt lat="58.0341390" lon="13.8381540"></trkpt>
    <trkpt lat="58.0344670" lon="13.8378980"></trkpt>
    <trkpt lat="58.0346750" lon="13.8377370"></trkpt>
    <trkpt lat="58.0349000" lon="13.8374950"></trkpt>
    <trkpt lat="58.0351570" lon="13.8371690"></trkpt>
    <trkpt lat="58.0355170" lon="13.8366350"></trkpt>
    <trkpt lat="58.0357520" lon="13.8362100"></trkpt>
    <trkpt lat="58.0358650" lon="13.8359940"></trkpt>
    <trkpt lat="58.0361690" lon="13.8353550"></trkpt>
    <trkpt lat="58.0366100" lon="13.8344220"></trkpt>
    <trkpt lat="58.0369970" lon="13.8335860"></trkpt>
    <trkpt lat="58.0374510" lon="13.8326210"></trkpt>
    <trkpt lat="58.0375930" lon="13.8323200"></trkpt>
    <trkpt lat="58.0376560" lon="13.8321940"></trkpt>
    <trkpt lat="58.0380790" lon="13.8312900"></trkpt>
    <trkpt lat="58.0385850" lon="13.8302470"></trkpt>
    <trkpt lat="58.0389690" lon="13.8294700"></trkpt>
    <trkpt lat="58.0392940" lon="13.8289150"></trkpt>
    <trkpt lat="58.0397260" lon="13.8282520"></trkpt>
    <trkpt lat="58.0402630" lon="13.8275230"></trkpt>
    <trkpt lat="58.0406465" lon="13.8270065"></trkpt>
    <trkpt lat="58.0410300" lon="13.8264900"></trkpt>
    <trkpt lat="58.0411090" lon="13.8263840"></trkpt>
    <trkpt lat="58.0413110" lon="13.8261180"></trkpt>
    <trkpt lat="58.0414950" lon="13.8258700"></trkpt>
    <trkpt lat="58.0417680" lon="13.8255170"></trkpt>
    <trkpt lat="58.0421885" lon="13.8249550"></trkpt>
    <trkpt lat="58.0426090" lon="13.8243930"></trkpt>
    <trkpt lat="58.0428050" lon="13.8241280"></trkpt>
    <trkpt lat="58.0429310" lon="13.8239670"></trkpt>
    <trkpt lat="58.0432370" lon="13.8235320"></trkpt>
    <trkpt lat="58.0436045" lon="13.8230270"></trkpt>
    <trkpt lat="58.0439720" lon="13.8225220"></trkpt>
    <trkpt lat="58.0442540" lon="13.8220850"></trkpt>
    <trkpt lat="58.0446950" lon="13.8212860"></trkpt>
    <trkpt lat="58.0450330" lon="13.8206180"></trkpt>
    <trkpt lat="58.0453390" lon="13.8198925"></trkpt>
    <trkpt lat="58.0456450" lon="13.8191670"></trkpt>
    <trkpt lat="58.0459100" lon="13.8184460"></trkpt>
    <trkpt lat="58.0462235" lon="13.8176050"></trkpt>
    <trkpt lat="58.0465370" lon="13.8167640"></trkpt>
    <trkpt lat="58.0465800" lon="13.8166540"></trkpt>
    <trkpt lat="58.0470750" lon="13.8153080"></trkpt>
    <trkpt lat="58.0472960" lon="13.8147080"></trkpt>
    <trkpt lat="58.0476350" lon="13.8138010"></trkpt>
    <trkpt lat="58.0478790" lon="13.8131480"></trkpt>
    <trkpt lat="58.0481910" lon="13.8123060"></trkpt>
    <trkpt lat="58.0484670" lon="13.8115690"></trkpt>
    <trkpt lat="58.0486780" lon="13.8110070"></trkpt>
    <trkpt lat="58.0488040" lon="13.8106740"></trkpt>
    <trkpt lat="58.0490800" lon="13.8099290"></trkpt>
    <trkpt lat="58.0494720" lon="13.8088700"></trkpt>
    <trkpt lat="58.0496270" lon="13.8084560"></trkpt>
    <trkpt lat="58.0498190" lon="13.8079850"></trkpt>
    <trkpt lat="58.0500780" lon="13.8074430"></trkpt>
    <trkpt lat="58.0502880" lon="13.8070310"></trkpt>
    <trkpt lat="58.0505750" lon="13.8065780"></trkpt>
    <trkpt lat="58.0507260" lon="13.8063690"></trkpt>
    <trkpt lat="58.0509940" lon="13.8060220"></trkpt>
    <trkpt lat="58.0514940" lon="13.8054240"></trkpt>
    <trkpt lat="58.0518220" lon="13.8050750"></trkpt>
    <trkpt lat="58.0520280" lon="13.8048990"></trkpt>
    <trkpt lat="58.0521570" lon="13.8048100"></trkpt>
    <trkpt lat="58.0523650" lon="13.8046670"></trkpt>
    <trkpt lat="58.0524660" lon="13.8046090"></trkpt>
    <trkpt lat="58.0526620" lon="13.8045140"></trkpt>
    <trkpt lat="58.0529000" lon="13.8044310"></trkpt>
    <trkpt lat="58.0531130" lon="13.8043890"></trkpt>
    <trkpt lat="58.0533880" lon="13.8043650"></trkpt>
    <trkpt lat="58.0535640" lon="13.8043580"></trkpt>
    <trkpt lat="58.0538310" lon="13.8043910"></trkpt>
    <trkpt lat="58.0541240" lon="13.8044610"></trkpt>
    <trkpt lat="58.0543190" lon="13.8045160"></trkpt>
    <trkpt lat="58.0548810" lon="13.8046740"></trkpt>
    <trkpt lat="58.0553760" lon="13.8048075"></trkpt>
    <trkpt lat="58.0558710" lon="13.8049410"></trkpt>
    <trkpt lat="58.0562400" lon="13.8050470"></trkpt>
    <trkpt lat="58.0568450" lon="13.8052080"></trkpt>
    <trkpt lat="58.0573530" lon="13.8053410"></trkpt>
    <trkpt lat="58.0580895" lon="13.8055395"></trkpt>
    <trkpt lat="58.0588260" lon="13.8057380"></trkpt>
    <trkpt lat="58.0588880" lon="13.8057550"></trkpt>
    <trkpt lat="58.0596400" lon="13.8059615"></trkpt>
    <trkpt lat="58.0603920" lon="13.8061680"></trkpt>
    <trkpt lat="58.0610090" lon="13.8063225"></trkpt>
    <trkpt lat="58.0616260" lon="13.8064770"></trkpt>
    <trkpt lat="58.0622805" lon="13.8066440"></trkpt>
    <trkpt lat="58.0629350" lon="13.8068110"></trkpt>
    <trkpt lat="58.0635890" lon="13.8069970"></trkpt>
    <trkpt lat="58.0642527" lon="13.8071710"></trkpt>
    <trkpt lat="58.0649163" lon="13.8073450"></trkpt>
    <trkpt lat="58.0655800" lon="13.8075190"></trkpt>
    <trkpt lat="58.0660090" lon="13.8076020"></trkpt>
    <trkpt lat="58.0663760" lon="13.8076330"></trkpt>
    <trkpt lat="58.0668380" lon="13.8076180"></trkpt>
    <trkpt lat="58.0672210" lon="13.8075760"></trkpt>
    <trkpt lat="58.0676950" lon="13.8074800"></trkpt>
    <trkpt lat="58.0681450" lon="13.8073420"></trkpt>
    <trkpt lat="58.0684350" lon="13.8072300"></trkpt>
    <trkpt lat="58.0687540" lon="13.8070850"></trkpt>
    <trkpt lat="58.0691400" lon="13.8068870"></trkpt>
    <trkpt lat="58.0693320" lon="13.8067780"></trkpt>
    <trkpt lat="58.0699100" lon="13.8063870"></trkpt>
    <trkpt lat="58.0704160" lon="13.8059740"></trkpt>
    <trkpt lat="58.0707690" lon="13.8056680"></trkpt>
    <trkpt lat="58.0711900" lon="13.8052510"></trkpt>
    <trkpt lat="58.0714220" lon="13.8049950"></trkpt>
    <trkpt lat="58.0716910" lon="13.8046810"></trkpt>
    <trkpt lat="58.0719760" lon="13.8043130"></trkpt>
    <trkpt lat="58.0722780" lon="13.8038900"></trkpt>
    <trkpt lat="58.0726880" lon="13.8032630"></trkpt>
    <trkpt lat="58.0730730" lon="13.8025880"></trkpt>
    <trkpt lat="58.0733880" lon="13.8020080"></trkpt>
    <trkpt lat="58.0738680" lon="13.8010240"></trkpt>
    <trkpt lat="58.0740290" lon="13.8006340"></trkpt>
    <trkpt lat="58.0741890" lon="13.8002380"></trkpt>
    <trkpt lat="58.0745135" lon="13.7993330"></trkpt>
    <trkpt lat="58.0748380" lon="13.7984280"></trkpt>
    <trkpt lat="58.0749540" lon="13.7980890"></trkpt>
    <trkpt lat="58.0753355" lon="13.7969770"></trkpt>
    <trkpt lat="58.0757170" lon="13.7958650"></trkpt>
    <trkpt lat="58.0761950" lon="13.7944660"></trkpt>
    <trkpt lat="58.0764625" lon="13.7936795"></trkpt>
    <trkpt lat="58.0767300" lon="13.7928930"></trkpt>
    <trkpt lat="58.0771317" lon="13.7917203"></trkpt>
    <trkpt lat="58.0775333" lon="13.7905477"></trkpt>
    <trkpt lat="58.0779350" lon="13.7893750"></trkpt>
    <trkpt lat="58.0781080" lon="13.7888610"></trkpt>
    <trkpt lat="58.0782890" lon="13.7883310"></trkpt>
    <trkpt lat="58.0784220" lon="13.7879340"></trkpt>
    <trkpt lat="58.0787090" lon="13.7871050"></trkpt>
    <trkpt lat="58.0788770" lon="13.7866050"></trkpt>
    <trkpt lat="58.0791740" lon="13.7857400"></trkpt>
    <trkpt lat="58.0795160" lon="13.7847290"></trkpt>
    <trkpt lat="58.0796700" lon="13.7842620"></trkpt>
    <trkpt lat="58.0799020" lon="13.7835150"></trkpt>
    <trkpt lat="58.0800370" lon="13.7829800"></trkpt>
    <trkpt lat="58.0801990" lon="13.7822430"></trkpt>
    <trkpt lat="58.0803670" lon="13.7813860"></trkpt>
    <trkpt lat="58.0806130" lon="13.7801630"></trkpt>
    <trkpt lat="58.0807850" lon="13.7793050"></trkpt>
    <trkpt lat="58.0808590" lon="13.7789470"></trkpt>
    <trkpt lat="58.0811060" lon="13.7777380"></trkpt>
    <trkpt lat="58.0812815" lon="13.7768940"></trkpt>
    <trkpt lat="58.0814570" lon="13.7760500"></trkpt>
    <trkpt lat="58.0815760" lon="13.7755000"></trkpt>
    <trkpt lat="58.0817705" lon="13.7745395"></trkpt>
    <trkpt lat="58.0819650" lon="13.7735790"></trkpt>
    <trkpt lat="58.0820770" lon="13.7730470"></trkpt>
    <trkpt lat="58.0823220" lon="13.7718590"></trkpt>
    <trkpt lat="58.0825680" lon="13.7706550"></trkpt>
    <trkpt lat="58.0828140" lon="13.7694510"></trkpt>
    <trkpt lat="58.0830840" lon="13.7681250"></trkpt>
    <trkpt lat="58.0834000" lon="13.7665650"></trkpt>
    <trkpt lat="58.0835740" lon="13.7656480"></trkpt>
    <trkpt lat="58.0837210" lon="13.7648060"></trkpt>
    <trkpt lat="58.0838600" lon="13.7638960"></trkpt>
    <trkpt lat="58.0840520" lon="13.7623450"></trkpt>
    <trkpt lat="58.0841950" lon="13.7610240"></trkpt>
    <trkpt lat="58.0843090" lon="13.7598625"></trkpt>
    <trkpt lat="58.0844230" lon="13.7587010"></trkpt>
    <trkpt lat="58.0845840" lon="13.7570710"></trkpt>
    <trkpt lat="58.0846310" lon="13.7566300"></trkpt>
    <trkpt lat="58.0847070" lon="13.7561380"></trkpt>
    <trkpt lat="58.0847660" lon="13.7557790"></trkpt>
    <trkpt lat="58.0849260" lon="13.7550550"></trkpt>
    <trkpt lat="58.0851130" lon="13.7543590"></trkpt>
    <trkpt lat="58.0852490" lon="13.7539620"></trkpt>
    <trkpt lat="58.0853860" lon="13.7536140"></trkpt>
    <trkpt lat="58.0855060" lon="13.7533090"></trkpt>
    <trkpt lat="58.0856920" lon="13.7529300"></trkpt>
    <trkpt lat="58.0858840" lon="13.7525840"></trkpt>
    <trkpt lat="58.0863185" lon="13.7518025"></trkpt>
    <trkpt lat="58.0867530" lon="13.7510210"></trkpt>
    <trkpt lat="58.0870650" lon="13.7503100"></trkpt>
    <trkpt lat="58.0871890" lon="13.7499920"></trkpt>
    <trkpt lat="58.0873230" lon="13.7496330"></trkpt>
    <trkpt lat="58.0873860" lon="13.7494330"></trkpt>
    <trkpt lat="58.0875800" lon="13.7487770"></trkpt>
    <trkpt lat="58.0876740" lon="13.7484210"></trkpt>
    <trkpt lat="58.0877590" lon="13.7480530"></trkpt>
    <trkpt lat="58.0878830" lon="13.7474690"></trkpt>
    <trkpt lat="58.0881360" lon="13.7459360"></trkpt>
    <trkpt lat="58.0882260" lon="13.7453480"></trkpt>
    <trkpt lat="58.0883640" lon="13.7444820"></trkpt>
    <trkpt lat="58.0884310" lon="13.7440700"></trkpt>
    <trkpt lat="58.0885670" lon="13.7432410"></trkpt>
    <trkpt lat="58.0888280" lon="13.7416870"></trkpt>
    <trkpt lat="58.0889960" lon="13.7407530"></trkpt>
    <trkpt lat="58.0892810" lon="13.7395980"></trkpt>
    <trkpt lat="58.0894570" lon="13.7390030"></trkpt>
    <trkpt lat="58.0897330" lon="13.7382080"></trkpt>
    <trkpt lat="58.0899380" lon="13.7376810"></trkpt>
    <trkpt lat="58.0902240" lon="13.7369860"></trkpt>
    <trkpt lat="58.0906160" lon="13.7361740"></trkpt>
    <trkpt lat="58.0910390" lon="13.7354720"></trkpt>
    <trkpt lat="58.0912720" lon="13.7351310"></trkpt>
    <trkpt lat="58.0915830" lon="13.7346790"></trkpt>
    <trkpt lat="58.0920655" lon="13.7340080"></trkpt>
    <trkpt lat="58.0925480" lon="13.7333370"></trkpt>
    <trkpt lat="58.0932263" lon="13.7323768"></trkpt>
    <trkpt lat="58.0939045" lon="13.7314165"></trkpt>
    <trkpt lat="58.0945828" lon="13.7304562"></trkpt>
    <trkpt lat="58.0952610" lon="13.7294960"></trkpt>
    <trkpt lat="58.0956930" lon="13.7288910"></trkpt>
    <trkpt lat="58.0961250" lon="13.7282860"></trkpt>
    <trkpt lat="58.0965555" lon="13.7276820"></trkpt>
    <trkpt lat="58.0969860" lon="13.7270780"></trkpt>
    <trkpt lat="58.0975035" lon="13.7263530"></trkpt>
    <trkpt lat="58.0980210" lon="13.7256280"></trkpt>
    <trkpt lat="58.0983210" lon="13.7252160"></trkpt>
    <trkpt lat="58.0987000" lon="13.7246450"></trkpt>
    <trkpt lat="58.0990535" lon="13.7240920"></trkpt>
    <trkpt lat="58.0994070" lon="13.7235390"></trkpt>
    <trkpt lat="58.0998290" lon="13.7228170"></trkpt>
    <trkpt lat="58.1002460" lon="13.7221130"></trkpt>
    <trkpt lat="58.1006600" lon="13.7214220"></trkpt>
    <trkpt lat="58.1008320" lon="13.7211320"></trkpt>
    <trkpt lat="58.1010470" lon="13.7207480"></trkpt>
    <trkpt lat="58.1013510" lon="13.7201860"></trkpt>
    <trkpt lat="58.1015820" lon="13.7197150"></trkpt>
    <trkpt lat="58.1017820" lon="13.7192770"></trkpt>
    <trkpt lat="58.1022290" lon="13.7181260"></trkpt>
    <trkpt lat="58.1023780" lon="13.7176540"></trkpt>
    <trkpt lat="58.1025470" lon="13.7170850"></trkpt>
    <trkpt lat="58.1027450" lon="13.7163410"></trkpt>
    <trkpt lat="58.1030123" lon="13.7152667"></trkpt>
    <trkpt lat="58.1032797" lon="13.7141923"></trkpt>
    <trkpt lat="58.1035470" lon="13.7131180"></trkpt>
    <trkpt lat="58.1037820" lon="13.7121390"></trkpt>
    <trkpt lat="58.1041403" lon="13.7107040"></trkpt>
    <trkpt lat="58.1044987" lon="13.7092690"></trkpt>
    <trkpt lat="58.1048570" lon="13.7078340"></trkpt>
    <trkpt lat="58.1049330" lon="13.7075370"></trkpt>
    <trkpt lat="58.1051820" lon="13.7065430"></trkpt>
    <trkpt lat="58.1053950" lon="13.7057010"></trkpt>
    <trkpt lat="58.1055830" lon="13.7049980"></trkpt>
    <trkpt lat="58.1059955" lon="13.7036825"></trkpt>
    <trkpt lat="58.1064080" lon="13.7023670"></trkpt>
    <trkpt lat="58.1066750" lon="13.7015810"></trkpt>
    <trkpt lat="58.1068470" lon="13.7010470"></trkpt>
    <trkpt lat="58.1071180" lon="13.7002110"></trkpt>
    <trkpt lat="58.1073890" lon="13.6993750"></trkpt>
    <trkpt lat="58.1078610" lon="13.6979270"></trkpt>
    <trkpt lat="58.1081735" lon="13.6969695"></trkpt>
    <trkpt lat="58.1084860" lon="13.6960120"></trkpt>
    <trkpt lat="58.1087130" lon="13.6953550"></trkpt>
    <trkpt lat="58.1089270" lon="13.6948220"></trkpt>
    <trkpt lat="58.1090650" lon="13.6945070"></trkpt>
    <trkpt lat="58.1093420" lon="13.6939550"></trkpt>
    <trkpt lat="58.1095940" lon="13.6935150"></trkpt>
    <trkpt lat="58.1097960" lon="13.6932010"></trkpt>
    <trkpt lat="58.1102640" lon="13.6925820"></trkpt>
    <trkpt lat="58.1104810" lon="13.6923430"></trkpt>
    <trkpt lat="58.1108130" lon="13.6920310"></trkpt>
    <trkpt lat="58.1109800" lon="13.6918930"></trkpt>
    <trkpt lat="58.1113760" lon="13.6916120"></trkpt>
    <trkpt lat="58.1115750" lon="13.6914780"></trkpt>
    <trkpt lat="58.1121643" lon="13.6910840"></trkpt>
    <trkpt lat="58.1127537" lon="13.6906900"></trkpt>
    <trkpt lat="58.1133430" lon="13.6902960"></trkpt>
    <trkpt lat="58.1140330" lon="13.6898110"></trkpt>
    <trkpt lat="58.1145955" lon="13.6894290"></trkpt>
    <trkpt lat="58.1151580" lon="13.6890470"></trkpt>
    <trkpt lat="58.1157660" lon="13.6886390"></trkpt>
    <trkpt lat="58.1163710" lon="13.6882280"></trkpt>
    <trkpt lat="58.1169760" lon="13.6878170"></trkpt>
    <trkpt lat="58.1174710" lon="13.6874820"></trkpt>
    <trkpt lat="58.1179720" lon="13.6871030"></trkpt>
    <trkpt lat="58.1181810" lon="13.6869400"></trkpt>
    <trkpt lat="58.1184840" lon="13.6866810"></trkpt>
    <trkpt lat="58.1190650" lon="13.6861340"></trkpt>
    <trkpt lat="58.1194510" lon="13.6857360"></trkpt>
    <trkpt lat="58.1197150" lon="13.6854410"></trkpt>
    <trkpt lat="58.1199090" lon="13.6852210"></trkpt>
    <trkpt lat="58.1202400" lon="13.6848210"></trkpt>
    <trkpt lat="58.1209070" lon="13.6839290"></trkpt>
    <trkpt lat="58.1213360" lon="13.6832830"></trkpt>
    <trkpt lat="58.1218610" lon="13.6824360"></trkpt>
    <trkpt lat="58.1223600" lon="13.6816340"></trkpt>
    <trkpt lat="58.1228590" lon="13.6808320"></trkpt>
    <trkpt lat="58.1231550" lon="13.6803500"></trkpt>
    <trkpt lat="58.1233430" lon="13.6800590"></trkpt>
    <trkpt lat="58.1238150" lon="13.6793425"></trkpt>
    <trkpt lat="58.1242870" lon="13.6786260"></trkpt>
    <trkpt lat="58.1246970" lon="13.6778990"></trkpt>
    <trkpt lat="58.1249550" lon="13.6774450"></trkpt>
    <trkpt lat="58.1251820" lon="13.6769160"></trkpt>
    <trkpt lat="58.1252740" lon="13.6766880"></trkpt>
    <trkpt lat="58.1254190" lon="13.6763200"></trkpt>
    <trkpt lat="58.1254600" lon="13.6762050"></trkpt>
    <trkpt lat="58.1256450" lon="13.6756240"></trkpt>
    <trkpt lat="58.1257810" lon="13.6751430"></trkpt>
    <trkpt lat="58.1259160" lon="13.6746230"></trkpt>
    <trkpt lat="58.1260630" lon="13.6738900"></trkpt>
    <trkpt lat="58.1261810" lon="13.6732230"></trkpt>
    <trkpt lat="58.1263120" lon="13.6721310"></trkpt>
    <trkpt lat="58.1264095" lon="13.6712930"></trkpt>
    <trkpt lat="58.1265070" lon="13.6704550"></trkpt>
    <trkpt lat="58.1266490" lon="13.6691820"></trkpt>
    <trkpt lat="58.1268410" lon="13.6675650"></trkpt>
    <trkpt lat="58.1268960" lon="13.6671280"></trkpt>
    <trkpt lat="58.1270040" lon="13.6664380"></trkpt>
    <trkpt lat="58.1271090" lon="13.6658750"></trkpt>
    <trkpt lat="58.1272310" lon="13.6652730"></trkpt>
    <trkpt lat="58.1273220" lon="13.6648720"></trkpt>
    <trkpt lat="58.1273880" lon="13.6645800"></trkpt>
    <trkpt lat="58.1275340" lon="13.6640100"></trkpt>
    <trkpt lat="58.1276960" lon="13.6634340"></trkpt>
    <trkpt lat="58.1278840" lon="13.6628510"></trkpt>
    <trkpt lat="58.1280910" lon="13.6622420"></trkpt>
    <trkpt lat="58.1282500" lon="13.6618260"></trkpt>
    <trkpt lat="58.1285350" lon="13.6610960"></trkpt>
    <trkpt lat="58.1287380" lon="13.6606330"></trkpt>
    <trkpt lat="58.1290300" lon="13.6600010"></trkpt>
    <trkpt lat="58.1290850" lon="13.6598880"></trkpt>
    <trkpt lat="58.1295280" lon="13.6589360"></trkpt>
    <trkpt lat="58.1300290" lon="13.6578780"></trkpt>
    <trkpt lat="58.1301940" lon="13.6575200"></trkpt>
    <trkpt lat="58.1305110" lon="13.6568600"></trkpt>
    <trkpt lat="58.1306320" lon="13.6565970"></trkpt>
    <trkpt lat="58.1309130" lon="13.6560050"></trkpt>
    <trkpt lat="58.1313160" lon="13.6551270"></trkpt>
    <trkpt lat="58.1314460" lon="13.6548200"></trkpt>
    <trkpt lat="58.1316010" lon="13.6544480"></trkpt>
    <trkpt lat="58.1318980" lon="13.6536600"></trkpt>
    <trkpt lat="58.1320700" lon="13.6531390"></trkpt>
    <trkpt lat="58.1323800" lon="13.6521610"></trkpt>
    <trkpt lat="58.1328110" lon="13.6507500"></trkpt>
    <trkpt lat="58.1331080" lon="13.6497840"></trkpt>
    <trkpt lat="58.1333570" lon="13.6489850"></trkpt>
    <trkpt lat="58.1336060" lon="13.6481860"></trkpt>
    <trkpt lat="58.1338660" lon="13.6473790"></trkpt>
    <trkpt lat="58.1339860" lon="13.6470310"></trkpt>
    <trkpt lat="58.1341550" lon="13.6465740"></trkpt>
    <trkpt lat="58.1343000" lon="13.6462200"></trkpt>
    <trkpt lat="58.1344530" lon="13.6459890"></trkpt>
    <trkpt lat="58.1349310" lon="13.6448840"></trkpt>
    <trkpt lat="58.1351380" lon="13.6444970"></trkpt>
    <trkpt lat="58.1355770" lon="13.6437440"></trkpt>
    <trkpt lat="58.1360260" lon="13.6430790"></trkpt>
    <trkpt lat="58.1361800" lon="13.6428510"></trkpt>
    <trkpt lat="58.1368610" lon="13.6419140"></trkpt>
    <trkpt lat="58.1374720" lon="13.6410530"></trkpt>
    <trkpt lat="58.1377250" lon="13.6406960"></trkpt>
    <trkpt lat="58.1382650" lon="13.6399450"></trkpt>
    <trkpt lat="58.1386490" lon="13.6393550"></trkpt>
    <trkpt lat="58.1388250" lon="13.6390660"></trkpt>
    <trkpt lat="58.1391560" lon="13.6384600"></trkpt>
    <trkpt lat="58.1393550" lon="13.6380780"></trkpt>
    <trkpt lat="58.1395650" lon="13.6376440"></trkpt>
    <trkpt lat="58.1397090" lon="13.6373390"></trkpt>
    <trkpt lat="58.1398590" lon="13.6369970"></trkpt>
    <trkpt lat="58.1400770" lon="13.6364690"></trkpt>
    <trkpt lat="58.1402700" lon="13.6358870"></trkpt>
    <trkpt lat="58.1404600" lon="13.6353460"></trkpt>
    <trkpt lat="58.1405360" lon="13.6351490"></trkpt>
    <trkpt lat="58.1406990" lon="13.6346870"></trkpt>
    <trkpt lat="58.1410250" lon="13.6337280"></trkpt>
    <trkpt lat="58.1411560" lon="13.6333020"></trkpt>
    <trkpt lat="58.1414920" lon="13.6323090"></trkpt>
    <trkpt lat="58.1418400" lon="13.6312870"></trkpt>
    <trkpt lat="58.1421630" lon="13.6303510"></trkpt>
    <trkpt lat="58.1424320" lon="13.6295350"></trkpt>
    <trkpt lat="58.1427740" lon="13.6285350"></trkpt>
    <trkpt lat="58.1431300" lon="13.6274900"></trkpt>
    <trkpt lat="58.1433140" lon="13.6269390"></trkpt>
    <trkpt lat="58.1436530" lon="13.6259480"></trkpt>
    <trkpt lat="58.1440020" lon="13.6249160"></trkpt>
    <trkpt lat="58.1443400" lon="13.6239240"></trkpt>
    <trkpt lat="58.1445270" lon="13.6233690"></trkpt>
    <trkpt lat="58.1448110" lon="13.6225360"></trkpt>
    <trkpt lat="58.1451180" lon="13.6216550"></trkpt>
    <trkpt lat="58.1454700" lon="13.6206280"></trkpt>
    <trkpt lat="58.1457140" lon="13.6198970"></trkpt>
    <trkpt lat="58.1460790" lon="13.6187180"></trkpt>
    <trkpt lat="58.1461970" lon="13.6182480"></trkpt>
    <trkpt lat="58.1463680" lon="13.6176830"></trkpt>
    <trkpt lat="58.1466500" lon="13.6166550"></trkpt>
    <trkpt lat="58.1470180" lon="13.6152900"></trkpt>
    <trkpt lat="58.1473400" lon="13.6140620"></trkpt>
    <trkpt lat="58.1475450" lon="13.6132720"></trkpt>
    <trkpt lat="58.1478610" lon="13.6121210"></trkpt>
    <trkpt lat="58.1481040" lon="13.6112550"></trkpt>
    <trkpt lat="58.1483560" lon="13.6104220"></trkpt>
    <trkpt lat="58.1485400" lon="13.6098280"></trkpt>
    <trkpt lat="58.1488730" lon="13.6088220"></trkpt>
    <trkpt lat="58.1493620" lon="13.6074450"></trkpt>
    <trkpt lat="58.1495420" lon="13.6069870"></trkpt>
    <trkpt lat="58.1496720" lon="13.6066530"></trkpt>
    <trkpt lat="58.1497490" lon="13.6064450"></trkpt>
    <trkpt lat="58.1501660" lon="13.6053930"></trkpt>
    <trkpt lat="58.1503990" lon="13.6048050"></trkpt>
    <trkpt lat="58.1507400" lon="13.6039510"></trkpt>
    <trkpt lat="58.1510660" lon="13.6031530"></trkpt>
    <trkpt lat="58.1513940" lon="13.6023120"></trkpt>
    <trkpt lat="58.1517220" lon="13.6014710"></trkpt>
    <trkpt lat="58.1521610" lon="13.6003470"></trkpt>
    <trkpt lat="58.1524935" lon="13.5994030"></trkpt>
    <trkpt lat="58.1528260" lon="13.5984590"></trkpt>
    <trkpt lat="58.1531280" lon="13.5975260"></trkpt>
    <trkpt lat="58.1535155" lon="13.5962590"></trkpt>
    <trkpt lat="58.1539030" lon="13.5949920"></trkpt>
    <trkpt lat="58.1542650" lon="13.5938120"></trkpt>
    <trkpt lat="58.1546980" lon="13.5923955"></trkpt>
    <trkpt lat="58.1551310" lon="13.5909790"></trkpt>
    <trkpt lat="58.1553290" lon="13.5903110"></trkpt>
    <trkpt lat="58.1554110" lon="13.5900580"></trkpt>
    <trkpt lat="58.1556515" lon="13.5892725"></trkpt>
    <trkpt lat="58.1558920" lon="13.5884870"></trkpt>
    <trkpt lat="58.1562490" lon="13.5873040"></trkpt>
    <trkpt lat="58.1565600" lon="13.5862680"></trkpt>
    <trkpt lat="58.1567740" lon="13.5855790"></trkpt>
    <trkpt lat="58.1571590" lon="13.5843040"></trkpt>
    <trkpt lat="58.1574480" lon="13.5834050"></trkpt>
    <trkpt lat="58.1577100" lon="13.5826440"></trkpt>
    <trkpt lat="58.1579720" lon="13.5818830"></trkpt>
    <trkpt lat="58.1582700" lon="13.5810900"></trkpt>
    <trkpt lat="58.1587110" lon="13.5799177"></trkpt>
    <trkpt lat="58.1591520" lon="13.5787453"></trkpt>
    <trkpt lat="58.1595930" lon="13.5775730"></trkpt>
    <trkpt lat="58.1597990" lon="13.5770000"></trkpt>
    <trkpt lat="58.1599620" lon="13.5765520"></trkpt>
    <trkpt lat="58.1600610" lon="13.5762610"></trkpt>
    <trkpt lat="58.1603310" lon="13.5755640"></trkpt>
    <trkpt lat="58.1606520" lon="13.5744920"></trkpt>
    <trkpt lat="58.1607380" lon="13.5742630"></trkpt>
    <trkpt lat="58.1607840" lon="13.5741830"></trkpt>
    <trkpt lat="58.1608570" lon="13.5741000"></trkpt>
    <trkpt lat="58.1609840" lon="13.5740040"></trkpt>
    <trkpt lat="58.1610620" lon="13.5739840"></trkpt>
    <trkpt lat="58.1611480" lon="13.5739250"></trkpt>
    <trkpt lat="58.1612240" lon="13.5738280"></trkpt>
    <trkpt lat="58.1612860" lon="13.5737010"></trkpt>
    <trkpt lat="58.1613310" lon="13.5735500"></trkpt>
    <trkpt lat="58.1613560" lon="13.5733820"></trkpt>
    <trkpt lat="58.1613600" lon="13.5732090"></trkpt>
    <trkpt lat="58.1613490" lon="13.5730870"></trkpt>
    <trkpt lat="58.1613470" lon="13.5728070"></trkpt>
    <trkpt lat="58.1613410" lon="13.5725440"></trkpt>
    <trkpt lat="58.1613410" lon="13.5723590"></trkpt>
    <trkpt lat="58.1613510" lon="13.5721530"></trkpt>
    <trkpt lat="58.1613960" lon="13.5718740"></trkpt>
    <trkpt lat="58.1614890" lon="13.5715140"></trkpt>
    <trkpt lat="58.1615440" lon="13.5713490"></trkpt>
    <trkpt lat="58.1615850" lon="13.5712310"></trkpt>
    <trkpt lat="58.1616280" lon="13.5710590"></trkpt>
    <trkpt lat="58.1616580" lon="13.5709050"></trkpt>
    <trkpt lat="58.1617210" lon="13.5705080"></trkpt>
    <trkpt lat="58.1618010" lon="13.5701750"></trkpt>
    <trkpt lat="58.1619750" lon="13.5693360"></trkpt>
    <trkpt lat="58.1620270" lon="13.5691080"></trkpt>
    <trkpt lat="58.1621410" lon="13.5686410"></trkpt>
    <trkpt lat="58.1621870" lon="13.5684570"></trkpt>
    <trkpt lat="58.1624870" lon="13.5671050"></trkpt>
    <trkpt lat="58.1625570" lon="13.5669620"></trkpt>
    <trkpt lat="58.1626590" lon="13.5665440"></trkpt>
    <trkpt lat="58.1627230" lon="13.5662130"></trkpt>
    <trkpt lat="58.1627620" lon="13.5659610"></trkpt>
    <trkpt lat="58.1627800" lon="13.5658860"></trkpt>
    <trkpt lat="58.1628260" lon="13.5658020"></trkpt>
    <trkpt lat="58.1628840" lon="13.5657300"></trkpt>
    <trkpt lat="58.1629190" lon="13.5657240"></trkpt>
    <trkpt lat="58.1629510" lon="13.5657020"></trkpt>
    <trkpt lat="58.1629800" lon="13.5656660"></trkpt>
    <trkpt lat="58.1630040" lon="13.5656180"></trkpt>
    <trkpt lat="58.1630210" lon="13.5655570"></trkpt>
    <trkpt lat="58.1630300" lon="13.5654900"></trkpt>
    <trkpt lat="58.1630300" lon="13.5654200"></trkpt>
    <trkpt lat="58.1630210" lon="13.5653530"></trkpt>
    <trkpt lat="58.1630500" lon="13.5650270"></trkpt>
    <trkpt lat="58.1630730" lon="13.5647390"></trkpt>
    <trkpt lat="58.1631030" lon="13.5645350"></trkpt>
    <trkpt lat="58.1631490" lon="13.5643030"></trkpt>
    <trkpt lat="58.1633020" lon="13.5636050"></trkpt>
    <trkpt lat="58.1635770" lon="13.5623140"></trkpt>
    <trkpt lat="58.1637210" lon="13.5616900"></trkpt>
    <trkpt lat="58.1637340" lon="13.5614700"></trkpt>
    <trkpt lat="58.1638420" lon="13.5610080"></trkpt>
    <trkpt lat="58.1640240" lon="13.5602010"></trkpt>
    <trkpt lat="58.1641130" lon="13.5597860"></trkpt>
    <trkpt lat="58.1641800" lon="13.5594820"></trkpt>
    <trkpt lat="58.1643520" lon="13.5587110"></trkpt>
    <trkpt lat="58.1645560" lon="13.5577980"></trkpt>
    <trkpt lat="58.1646190" lon="13.5575010"></trkpt>
    <trkpt lat="58.1646640" lon="13.5571920"></trkpt>
    <trkpt lat="58.1647250" lon="13.5566570"></trkpt>
    <trkpt lat="58.1647370" lon="13.5565380"></trkpt>
    <trkpt lat="58.1647550" lon="13.5563270"></trkpt>
    <trkpt lat="58.1647790" lon="13.5560790"></trkpt>
    <trkpt lat="58.1647880" lon="13.5560090"></trkpt>
    <trkpt lat="58.1649320" lon="13.5549260"></trkpt>
    <trkpt lat="58.1649690" lon="13.5546520"></trkpt>
    <trkpt lat="58.1651430" lon="13.5533580"></trkpt>
    <trkpt lat="58.1652330" lon="13.5527460"></trkpt>
    <trkpt lat="58.1652410" lon="13.5526860"></trkpt>
    <trkpt lat="58.1652740" lon="13.5524630"></trkpt>
    <trkpt lat="58.1653640" lon="13.5525050"></trkpt>
    <trkpt lat="58.1654050" lon="13.5525250"></trkpt>
    <trkpt lat="58.1654890" lon="13.5525640"></trkpt>
    <trkpt lat="58.1659290" lon="13.5527610"></trkpt>
    <trkpt lat="58.1665350" lon="13.5530480"></trkpt>
    <trkpt lat="58.1670220" lon="13.5532480"></trkpt>
    <trkpt lat="58.1672460" lon="13.5533410"></trkpt>
    <trkpt lat="58.1673990" lon="13.5534040"></trkpt>
    <trkpt lat="58.1675540" lon="13.5534540"></trkpt>
    <trkpt lat="58.1676140" lon="13.5534710"></trkpt>
    <trkpt lat="58.1676830" lon="13.5534690"></trkpt>
    <trkpt lat="58.1677420" lon="13.5534620"></trkpt>
    <trkpt lat="58.1678330" lon="13.5534410"></trkpt>
    <trkpt lat="58.1679250" lon="13.5534010"></trkpt>
    <trkpt lat="58.1680820" lon="13.5533310"></trkpt>
    <trkpt lat="58.1683200" lon="13.5532470"></trkpt>
    <trkpt lat="58.1687250" lon="13.5530880"></trkpt>
    <trkpt lat="58.1687750" lon="13.5530700"></trkpt>
    <trkpt lat="58.1690130" lon="13.5529810"></trkpt>
    <trkpt lat="58.1691070" lon="13.5529470"></trkpt>
    <trkpt lat="58.1691690" lon="13.5529220"></trkpt>
    <trkpt lat="58.1694180" lon="13.5528290"></trkpt>
    <trkpt lat="58.1698000" lon="13.5526860"></trkpt>
    <trkpt lat="58.1698520" lon="13.5526640"></trkpt>
    <trkpt lat="58.1700050" lon="13.5540430"></trkpt>
  </trkseg></trk>
</gpx>
