<?xml version="1.0" encoding="UTF-8"?>
<gpx version="1.1" creator="pilegrimsleden-osm-extractor 1.0" xmlns="http://www.topografix.com/GPX/1/1">
  <trk><name>Pilgrimsleden Skara - Husaby</name><trkseg>
    <trkpt lat="58.5257017" lon="13.3801598"></trkpt>
    <trkpt lat="58.5256822" lon="13.3801930"></trkpt>
    <trkpt lat="58.5256741" lon="13.3802343"></trkpt>
    <trkpt lat="58.5256682" lon="13.3803016"></trkpt>
    <trkpt lat="58.5256759" lon="13.3803995"></trkpt>
    <trkpt lat="58.5256967" lon="13.3804854"></trkpt>
    <trkpt lat="58.5257687" lon="13.3806775"></trkpt>
    <trkpt lat="58.5259630" lon="13.3811706"></trkpt>
    <trkpt lat="58.5261925" lon="13.3816664"></trkpt>
    <trkpt lat="58.5266753" lon="13.3826060"></trkpt>
    <trkpt lat="58.5267129" lon="13.3826606"></trkpt>
    <trkpt lat="58.5267727" lon="13.3826835"></trkpt>
    <trkpt lat="58.5268305" lon="13.3826555"></trkpt>
    <trkpt lat="58.5269061" lon="13.3825638"></trkpt>
    <trkpt lat="58.5270359" lon="13.3827899"></trkpt>
    <trkpt lat="58.5271885" lon="13.3830497"></trkpt>
    <trkpt lat="58.5273215" lon="13.3833037"></trkpt>
    <trkpt lat="58.5274457" lon="13.3835956"></trkpt>
    <trkpt lat="58.5275650" lon="13.3839065"></trkpt>
    <trkpt lat="58.5276758" lon="13.3842623"></trkpt>
    <trkpt lat="58.5277849" lon="13.3846682"></trkpt>
    <trkpt lat="58.5279119" lon="13.3852184"></trkpt>
    <trkpt lat="58.5280832" lon="13.3859852"></trkpt>
    <trkpt lat="58.5282353" lon="13.3866482"></trkpt>
    <trkpt lat="58.5283209" lon="13.3869679"></trkpt>
    <trkpt lat="58.5284208" lon="13.3872574"></trkpt>
    <trkpt lat="58.5285046" lon="13.3874577"></trkpt>
    <trkpt lat="58.5286027" lon="13.3876643"></trkpt>
    <trkpt lat="58.5287513" lon="13.3879230"></trkpt>
    <trkpt lat="58.5286104" lon="13.3882932"></trkpt>
    <trkpt lat="58.5285369" lon="13.3884622"></trkpt>
    <trkpt lat="58.5284730" lon="13.3885994"></trkpt>
    <trkpt lat="58.5284737" lon="13.3887781"></trkpt>
    <trkpt lat="58.5285007" lon="13.3902268"></trkpt>
    <trkpt lat="58.5285278" lon="13.3916754"></trkpt>
    <trkpt lat="58.5285499" lon="13.3925800"></trkpt>
    <trkpt lat="58.5285719" lon="13.3934847"></trkpt>
    <trkpt lat="58.5285778" lon="13.3938134"></trkpt>
    <trkpt lat="58.5285761" lon="13.3939406"></trkpt>
    <trkpt lat="58.5285642" lon="13.3940653"></trkpt>
    <trkpt lat="58.5285432" lon="13.3941782"></trkpt>
    <trkpt lat="58.5282620" lon="13.3949350"></trkpt>
    <trkpt lat="58.5279683" lon="13.3957323"></trkpt>
    <trkpt lat="58.5275644" lon="13.3968159"></trkpt>
    <trkpt lat="58.5275330" lon="13.3969446"></trkpt>
    <trkpt lat="58.5275055" lon="13.3970815"></trkpt>
    <trkpt lat="58.5274982" lon="13.3972267"></trkpt>
    <trkpt lat="58.5275013" lon="13.3973752"></trkpt>
    <trkpt lat="58.5275099" lon="13.3975652"></trkpt>
    <trkpt lat="58.5275300" lon="13.3977666"></trkpt>
    <trkpt lat="58.5275491" lon="13.3980027"></trkpt>
    <trkpt lat="58.5275678" lon="13.3982113"></trkpt>
    <trkpt lat="58.5275950" lon="13.3984142"></trkpt>
    <trkpt lat="58.5276296" lon="13.3986738"></trkpt>
    <trkpt lat="58.5276427" lon="13.3988630"></trkpt>
    <trkpt lat="58.5276518" lon="13.3990234"></trkpt>
    <trkpt lat="58.5276411" lon="13.3991638"></trkpt>
    <trkpt lat="58.5276097" lon="13.3993390"></trkpt>
    <trkpt lat="58.5275533" lon="13.3996161"></trkpt>
    <trkpt lat="58.5274927" lon="13.3999070"></trkpt>
    <trkpt lat="58.5274424" lon="13.4001485"></trkpt>
    <trkpt lat="58.5274053" lon="13.4003631"></trkpt>
    <trkpt lat="58.5273914" lon="13.4004852"></trkpt>
    <trkpt lat="58.5273858" lon="13.4006297"></trkpt>
    <trkpt lat="58.5274008" lon="13.4008874"></trkpt>
    <trkpt lat="58.5274256" lon="13.4012086"></trkpt>
    <trkpt lat="58.5274417" lon="13.4014084"></trkpt>
    <trkpt lat="58.5274548" lon="13.4016060"></trkpt>
    <trkpt lat="58.5274691" lon="13.4019430"></trkpt>
    <trkpt lat="58.5274773" lon="13.4023152"></trkpt>
    <trkpt lat="58.5274733" lon="13.4024620"></trkpt>
    <trkpt lat="58.5274623" lon="13.4026039"></trkpt>
    <trkpt lat="58.5274438" lon="13.4027180"></trkpt>
    <trkpt lat="58.5274250" lon="13.4028389"></trkpt>
    <trkpt lat="58.5274159" lon="13.4029233"></trkpt>
    <trkpt lat="58.5274215" lon="13.4030052"></trkpt>
    <trkpt lat="58.5274381" lon="13.4030670"></trkpt>
    <trkpt lat="58.5274733" lon="13.4031296"></trkpt>
    <trkpt lat="58.5275474" lon="13.4032064"></trkpt>
    <trkpt lat="58.5275901" lon="13.4032750"></trkpt>
    <trkpt lat="58.5276079" lon="13.4033201"></trkpt>
    <trkpt lat="58.5276227" lon="13.4034107"></trkpt>
    <trkpt lat="58.5276260" lon="13.4035307"></trkpt>
    <trkpt lat="58.5276147" lon="13.4036514"></trkpt>
    <trkpt lat="58.5275805" lon="13.4037808"></trkpt>
    <trkpt lat="58.5275464" lon="13.4038951"></trkpt>
    <trkpt lat="58.5275027" lon="13.4040164"></trkpt>
    <trkpt lat="58.5274590" lon="13.4041429"></trkpt>
    <trkpt lat="58.5274183" lon="13.4042917"></trkpt>
    <trkpt lat="58.5273942" lon="13.4044026"></trkpt>
    <trkpt lat="58.5273886" lon="13.4045105"></trkpt>
    <trkpt lat="58.5273866" lon="13.4045866"></trkpt>
    <trkpt lat="58.5274070" lon="13.4046487"></trkpt>
    <trkpt lat="58.5274469" lon="13.4047028"></trkpt>
    <trkpt lat="58.5275022" lon="13.4047651"></trkpt>
    <trkpt lat="58.5274950" lon="13.4048595"></trkpt>
    <trkpt lat="58.5274336" lon="13.4052591"></trkpt>
    <trkpt lat="58.5270993" lon="13.4068532"></trkpt>
    <trkpt lat="58.5267649" lon="13.4084474"></trkpt>
    <trkpt lat="58.5264306" lon="13.4100415"></trkpt>
    <trkpt lat="58.5263958" lon="13.4103247"></trkpt>
    <trkpt lat="58.5262842" lon="13.4103518"></trkpt>
    <trkpt lat="58.5260129" lon="13.4104179"></trkpt>
    <trkpt lat="58.5256569" lon="13.4103919"></trkpt>
    <trkpt lat="58.5253070" lon="13.4104179"></trkpt>
    <trkpt lat="58.5248365" lon="13.4101390"></trkpt>
    <trkpt lat="58.5246786" lon="13.4100847"></trkpt>
    <trkpt lat="58.5244718" lon="13.4100797"></trkpt>
    <trkpt lat="58.5240746" lon="13.4101604"></trkpt>
    <trkpt lat="58.5237935" lon="13.4102549"></trkpt>
    <trkpt lat="58.5236030" lon="13.4104239"></trkpt>
    <trkpt lat="58.5234896" lon="13.4105151"></trkpt>
    <trkpt lat="58.5233355" lon="13.4105714"></trkpt>
    <trkpt lat="58.5230960" lon="13.4105982"></trkpt>
    <trkpt lat="58.5228453" lon="13.4106787"></trkpt>
    <trkpt lat="58.5226618" lon="13.4106921"></trkpt>
    <trkpt lat="58.5220134" lon="13.4109657"></trkpt>
    <trkpt lat="58.5215274" lon="13.4109389"></trkpt>
    <trkpt lat="58.5212725" lon="13.4109711"></trkpt>
    <trkpt lat="58.5211254" lon="13.4109362"></trkpt>
    <trkpt lat="58.5207161" lon="13.4107666"></trkpt>
    <trkpt lat="58.5206568" lon="13.4107516"></trkpt>
    <trkpt lat="58.5201391" lon="13.4105976"></trkpt>
    <trkpt lat="58.5200275" lon="13.4105703"></trkpt>
    <trkpt lat="58.5199351" lon="13.4105247"></trkpt>
    <trkpt lat="58.5198623" lon="13.4104657"></trkpt>
    <trkpt lat="58.5197572" lon="13.4103718"></trkpt>
    <trkpt lat="58.5196381" lon="13.4102619"></trkpt>
    <trkpt lat="58.5195421" lon="13.4101418"></trkpt>
    <trkpt lat="58.5194617" lon="13.4100205"></trkpt>
    <trkpt lat="58.5193838" lon="13.4098920"></trkpt>
    <trkpt lat="58.5192348" lon="13.4096557"></trkpt>
    <trkpt lat="58.5191480" lon="13.4095301"></trkpt>
    <trkpt lat="58.5190455" lon="13.4093760"></trkpt>
    <trkpt lat="58.5189630" lon="13.4092239"></trkpt>
    <trkpt lat="58.5188762" lon="13.4090254"></trkpt>
    <trkpt lat="58.5187986" lon="13.4088343"></trkpt>
    <trkpt lat="58.5187249" lon="13.4085774"></trkpt>
    <trkpt lat="58.5186830" lon="13.4084412"></trkpt>
    <trkpt lat="58.5186128" lon="13.4082824"></trkpt>
    <trkpt lat="58.5185413" lon="13.4081663"></trkpt>
    <trkpt lat="58.5184620" lon="13.4082255"></trkpt>
    <trkpt lat="58.5184184" lon="13.4082792"></trkpt>
    <trkpt lat="58.5183428" lon="13.4083669"></trkpt>
    <trkpt lat="58.5182650" lon="13.4084814"></trkpt>
    <trkpt lat="58.5181343" lon="13.4094787"></trkpt>
    <trkpt lat="58.5179186" lon="13.4109814"></trkpt>
    <trkpt lat="58.5178649" lon="13.4113552"></trkpt>
    <trkpt lat="58.5178389" lon="13.4115363"></trkpt>
    <trkpt lat="58.5177625" lon="13.4119055"></trkpt>
    <trkpt lat="58.5176543" lon="13.4122847"></trkpt>
    <trkpt lat="58.5175341" lon="13.4126223"></trkpt>
    <trkpt lat="58.5174434" lon="13.4128631"></trkpt>
    <trkpt lat="58.5173550" lon="13.4130594"></trkpt>
    <trkpt lat="58.5172838" lon="13.4132138"></trkpt>
    <trkpt lat="58.5172163" lon="13.4134376"></trkpt>
    <trkpt lat="58.5171343" lon="13.4137913"></trkpt>
    <trkpt lat="58.5170608" lon="13.4141645"></trkpt>
    <trkpt lat="58.5169823" lon="13.4146957"></trkpt>
    <trkpt lat="58.5168488" lon="13.4158947"></trkpt>
    <trkpt lat="58.5167117" lon="13.4172024"></trkpt>
    <trkpt lat="58.5166822" lon="13.4174214"></trkpt>
    <trkpt lat="58.5166036" lon="13.4173176"></trkpt>
    <trkpt lat="58.5160613" lon="13.4165070"></trkpt>
    <trkpt lat="58.5155190" lon="13.4156963"></trkpt>
    <trkpt lat="58.5152804" lon="13.4153634"></trkpt>
    <trkpt lat="58.5151795" lon="13.4152052"></trkpt>
    <trkpt lat="58.5150633" lon="13.4150228"></trkpt>
    <trkpt lat="58.5148911" lon="13.4147315"></trkpt>
    <trkpt lat="58.5148587" lon="13.4146768"></trkpt>
    <trkpt lat="58.5146073" lon="13.4142592"></trkpt>
    <trkpt lat="58.5139116" lon="13.4132084"></trkpt>
    <trkpt lat="58.5132158" lon="13.4121576"></trkpt>
    <trkpt lat="58.5125966" lon="13.4112488"></trkpt>
    <trkpt lat="58.5119896" lon="13.4104062"></trkpt>
    <trkpt lat="58.5119057" lon="13.4103094"></trkpt>
    <trkpt lat="58.5118236" lon="13.4102399"></trkpt>
    <trkpt lat="58.5117531" lon="13.4102141"></trkpt>
    <trkpt lat="58.5116857" lon="13.4102216"></trkpt>
    <trkpt lat="58.5115990" lon="13.4102568"></trkpt>
    <trkpt lat="58.5114760" lon="13.4103367"></trkpt>
    <trkpt lat="58.5113488" lon="13.4104352"></trkpt>
    <trkpt lat="58.5110632" lon="13.4090051"></trkpt>
    <trkpt lat="58.5107775" lon="13.4075749"></trkpt>
    <trkpt lat="58.5104919" lon="13.4061448"></trkpt>
    <trkpt lat="58.5103597" lon="13.4054458"></trkpt>
    <trkpt lat="58.5102969" lon="13.4054452"></trkpt>
    <trkpt lat="58.5102605" lon="13.4054304"></trkpt>
    <trkpt lat="58.5102122" lon="13.4053754"></trkpt>
    <trkpt lat="58.5100828" lon="13.4050855"></trkpt>
    <trkpt lat="58.5098915" lon="13.4043754"></trkpt>
    <trkpt lat="58.5097884" lon="13.4039969"></trkpt>
    <trkpt lat="58.5092320" lon="13.4042828"></trkpt>
    <trkpt lat="58.5089494" lon="13.4044173"></trkpt>
    <trkpt lat="58.5087007" lon="13.4045564"></trkpt>
    <trkpt lat="58.5085781" lon="13.4046346"></trkpt>
    <trkpt lat="58.5084387" lon="13.4047372"></trkpt>
    <trkpt lat="58.5081457" lon="13.4049855"></trkpt>
    <trkpt lat="58.5079378" lon="13.4051603"></trkpt>
    <trkpt lat="58.5077165" lon="13.4053615"></trkpt>
    <trkpt lat="58.5073043" lon="13.4057334"></trkpt>
    <trkpt lat="58.5071336" lon="13.4058845"></trkpt>
    <trkpt lat="58.5069452" lon="13.4060303"></trkpt>
    <trkpt lat="58.5067382" lon="13.4061809"></trkpt>
    <trkpt lat="58.5064740" lon="13.4063649"></trkpt>
    <trkpt lat="58.5057436" lon="13.4069842"></trkpt>
    <trkpt lat="58.5055054" lon="13.4071666"></trkpt>
    <trkpt lat="58.5052476" lon="13.4073651"></trkpt>
    <trkpt lat="58.5049316" lon="13.4075913"></trkpt>
    <trkpt lat="58.5047042" lon="13.4077791"></trkpt>
    <trkpt lat="58.5045508" lon="13.4079349"></trkpt>
    <trkpt lat="58.5043881" lon="13.4080920"></trkpt>
    <trkpt lat="58.5039822" lon="13.4085479"></trkpt>
    <trkpt lat="58.5036111" lon="13.4089744"></trkpt>
    <trkpt lat="58.5035282" lon="13.4090683"></trkpt>
    <trkpt lat="58.5034441" lon="13.4091851"></trkpt>
    <trkpt lat="58.5032111" lon="13.4095227"></trkpt>
    <trkpt lat="58.5027153" lon="13.4102676"></trkpt>
    <trkpt lat="58.5022194" lon="13.4110124"></trkpt>
    <trkpt lat="58.5016904" lon="13.4118804"></trkpt>
    <trkpt lat="58.5011613" lon="13.4127483"></trkpt>
    <trkpt lat="58.5008776" lon="13.4132106"></trkpt>
    <trkpt lat="58.5007605" lon="13.4134001"></trkpt>
    <trkpt lat="58.5005951" lon="13.4136321"></trkpt>
    <trkpt lat="58.5005398" lon="13.4135234"></trkpt>
    <trkpt lat="58.5004305" lon="13.4134202"></trkpt>
    <trkpt lat="58.5003436" lon="13.4132861"></trkpt>
    <trkpt lat="58.5002525" lon="13.4130366"></trkpt>
    <trkpt lat="58.5001066" lon="13.4127625"></trkpt>
    <trkpt lat="58.5000367" lon="13.4125122"></trkpt>
    <trkpt lat="58.4999960" lon="13.4123003"></trkpt>
    <trkpt lat="58.4999231" lon="13.4115922"></trkpt>
    <trkpt lat="58.4998608" lon="13.4112999"></trkpt>
    <trkpt lat="58.4996702" lon="13.4109069"></trkpt>
    <trkpt lat="58.4994599" lon="13.4102562"></trkpt>
    <trkpt lat="58.4992891" lon="13.4102126"></trkpt>
    <trkpt lat="58.4991756" lon="13.4101831"></trkpt>
    <trkpt lat="58.4990032" lon="13.4102475"></trkpt>
    <trkpt lat="58.4989179" lon="13.4103507"></trkpt>
    <trkpt lat="58.4985771" lon="13.4110399"></trkpt>
    <trkpt lat="58.4984722" lon="13.4112097"></trkpt>
    <trkpt lat="58.4983830" lon="13.4113012"></trkpt>
    <trkpt lat="58.4983053" lon="13.4113526"></trkpt>
    <trkpt lat="58.4982203" lon="13.4113566"></trkpt>
    <trkpt lat="58.4980279" lon="13.4113566"></trkpt>
    <trkpt lat="58.4978830" lon="13.4114236"></trkpt>
    <trkpt lat="58.4977381" lon="13.4115383"></trkpt>
    <trkpt lat="58.4976131" lon="13.4116866"></trkpt>
    <trkpt lat="58.4974907" lon="13.4118874"></trkpt>
    <trkpt lat="58.4973558" lon="13.4121074"></trkpt>
    <trkpt lat="58.4971834" lon="13.4122939"></trkpt>
    <trkpt lat="58.4965287" lon="13.4127146"></trkpt>
    <trkpt lat="58.4962364" lon="13.4127529"></trkpt>
    <trkpt lat="58.4955917" lon="13.4130494"></trkpt>
    <trkpt lat="58.4955018" lon="13.4131450"></trkpt>
    <trkpt lat="58.4954293" lon="13.4132741"></trkpt>
    <trkpt lat="58.4953468" lon="13.4134558"></trkpt>
    <trkpt lat="58.4952544" lon="13.4135658"></trkpt>
    <trkpt lat="58.4951644" lon="13.4135610"></trkpt>
    <trkpt lat="58.4948671" lon="13.4133649"></trkpt>
    <trkpt lat="58.4947296" lon="13.4132263"></trkpt>
    <trkpt lat="58.4945222" lon="13.4128533"></trkpt>
    <trkpt lat="58.4944023" lon="13.4125425"></trkpt>
    <trkpt lat="58.4942848" lon="13.4121743"></trkpt>
    <trkpt lat="58.4940674" lon="13.4118252"></trkpt>
    <trkpt lat="58.4939875" lon="13.4116579"></trkpt>
    <trkpt lat="58.4937643" lon="13.4108385"></trkpt>
    <trkpt lat="58.4936996" lon="13.4104191"></trkpt>
    <trkpt lat="58.4936565" lon="13.4098294"></trkpt>
    <trkpt lat="58.4936413" lon="13.4095463"></trkpt>
    <trkpt lat="58.4937708" lon="13.4087297"></trkpt>
    <trkpt lat="58.4938573" lon="13.4083197"></trkpt>
    <trkpt lat="58.4938918" lon="13.4080265"></trkpt>
    <trkpt lat="58.4938524" lon="13.4075733"></trkpt>
    <trkpt lat="58.4938033" lon="13.4073346"></trkpt>
    <trkpt lat="58.4937879" lon="13.4070771"></trkpt>
    <trkpt lat="58.4937767" lon="13.4067767"></trkpt>
    <trkpt lat="58.4937276" lon="13.4064843"></trkpt>
    <trkpt lat="58.4936701" lon="13.4061207"></trkpt>
    <trkpt lat="58.4935752" lon="13.4058721"></trkpt>
    <trkpt lat="58.4933786" lon="13.4057360"></trkpt>
    <trkpt lat="58.4932721" lon="13.4056234"></trkpt>
    <trkpt lat="58.4929777" lon="13.4054571"></trkpt>
    <trkpt lat="58.4927590" lon="13.4053417"></trkpt>
    <trkpt lat="58.4926735" lon="13.4052344"></trkpt>
    <trkpt lat="58.4925978" lon="13.4051245"></trkpt>
    <trkpt lat="58.4925109" lon="13.4050306"></trkpt>
    <trkpt lat="58.4923932" lon="13.4049731"></trkpt>
    <trkpt lat="58.4921975" lon="13.4049903"></trkpt>
    <trkpt lat="58.4921114" lon="13.4050333"></trkpt>
    <trkpt lat="58.4920136" lon="13.4050429"></trkpt>
    <trkpt lat="58.4918871" lon="13.4049827"></trkpt>
    <trkpt lat="58.4916629" lon="13.4053685"></trkpt>
    <trkpt lat="58.4914083" lon="13.4060270"></trkpt>
    <trkpt lat="58.4912649" lon="13.4061486"></trkpt>
    <trkpt lat="58.4911962" lon="13.4061809"></trkpt>
    <trkpt lat="58.4910895" lon="13.4061625"></trkpt>
    <trkpt lat="58.4910192" lon="13.4062597"></trkpt>
    <trkpt lat="58.4909758" lon="13.4062250"></trkpt>
    <trkpt lat="58.4909560" lon="13.4062075"></trkpt>
    <trkpt lat="58.4909249" lon="13.4063275"></trkpt>
    <trkpt lat="58.4901273" lon="13.4069139"></trkpt>
    <trkpt lat="58.4893297" lon="13.4075003"></trkpt>
    <trkpt lat="58.4885320" lon="13.4080867"></trkpt>
    <trkpt lat="58.4877344" lon="13.4086731"></trkpt>
    <trkpt lat="58.4869368" lon="13.4092595"></trkpt>
    <trkpt lat="58.4861392" lon="13.4098458"></trkpt>
    <trkpt lat="58.4853416" lon="13.4104322"></trkpt>
    <trkpt lat="58.4845440" lon="13.4110186"></trkpt>
    <trkpt lat="58.4837463" lon="13.4116050"></trkpt>
    <trkpt lat="58.4829487" lon="13.4121914"></trkpt>
    <trkpt lat="58.4821511" lon="13.4127778"></trkpt>
    <trkpt lat="58.4819451" lon="13.4122535"></trkpt>
    <trkpt lat="58.4817958" lon="13.4119509"></trkpt>
    <trkpt lat="58.4811999" lon="13.4108703"></trkpt>
    <trkpt lat="58.4810921" lon="13.4106205"></trkpt>
    <trkpt lat="58.4810268" lon="13.4104206"></trkpt>
    <trkpt lat="58.4809811" lon="13.4102083"></trkpt>
    <trkpt lat="58.4808603" lon="13.4094588"></trkpt>
    <trkpt lat="58.4808129" lon="13.4091995"></trkpt>
    <trkpt lat="58.4807541" lon="13.4089372"></trkpt>
    <trkpt lat="58.4806905" lon="13.4086999"></trkpt>
    <trkpt lat="58.4806252" lon="13.4085094"></trkpt>
    <trkpt lat="58.4803574" lon="13.4078973"></trkpt>
    <trkpt lat="58.4801092" lon="13.4073445"></trkpt>
    <trkpt lat="58.4798823" lon="13.4068823"></trkpt>
    <trkpt lat="58.4795164" lon="13.4061686"></trkpt>
    <trkpt lat="58.4792759" lon="13.4057709"></trkpt>
    <trkpt lat="58.4792091" lon="13.4057328"></trkpt>
    <trkpt lat="58.4791787" lon="13.4055685"></trkpt>
    <trkpt lat="58.4791427" lon="13.4054957"></trkpt>
    <trkpt lat="58.4791239" lon="13.4054720"></trkpt>
    <trkpt lat="58.4791056" lon="13.4054281"></trkpt>
    <trkpt lat="58.4790384" lon="13.4051839"></trkpt>
    <trkpt lat="58.4790127" lon="13.4050563"></trkpt>
    <trkpt lat="58.4790029" lon="13.4049626"></trkpt>
    <trkpt lat="58.4789990" lon="13.4048274"></trkpt>
    <trkpt lat="58.4790153" lon="13.4043902"></trkpt>
    <trkpt lat="58.4790121" lon="13.4042465"></trkpt>
    <trkpt lat="58.4790006" lon="13.4040654"></trkpt>
    <trkpt lat="58.4789761" lon="13.4038967"></trkpt>
    <trkpt lat="58.4788717" lon="13.4032753"></trkpt>
    <trkpt lat="58.4788455" lon="13.4030348"></trkpt>
    <trkpt lat="58.4788341" lon="13.4027818"></trkpt>
    <trkpt lat="58.4788243" lon="13.4023259"></trkpt>
    <trkpt lat="58.4788129" lon="13.4021885"></trkpt>
    <trkpt lat="58.4787884" lon="13.4020635"></trkpt>
    <trkpt lat="58.4787447" lon="13.4019017"></trkpt>
    <trkpt lat="58.4786789" lon="13.4016912"></trkpt>
    <trkpt lat="58.4785125" lon="13.4011391"></trkpt>
    <trkpt lat="58.4784749" lon="13.4009299"></trkpt>
    <trkpt lat="58.4783890" lon="13.4002950"></trkpt>
    <trkpt lat="58.4781461" lon="13.4003530"></trkpt>
    <trkpt lat="58.4780495" lon="13.4003955"></trkpt>
    <trkpt lat="58.4777713" lon="13.4006165"></trkpt>
    <trkpt lat="58.4773718" lon="13.4009096"></trkpt>
    <trkpt lat="58.4772662" lon="13.4009895"></trkpt>
    <trkpt lat="58.4771484" lon="13.4010512"></trkpt>
    <trkpt lat="58.4770017" lon="13.4011043"></trkpt>
    <trkpt lat="58.4769367" lon="13.4011182"></trkpt>
    <trkpt lat="58.4767852" lon="13.4011209"></trkpt>
    <trkpt lat="58.4766624" lon="13.4011280"></trkpt>
    <trkpt lat="58.4765710" lon="13.4011391"></trkpt>
    <trkpt lat="58.4764456" lon="13.4011736"></trkpt>
    <trkpt lat="58.4758057" lon="13.4014495"></trkpt>
    <trkpt lat="58.4754354" lon="13.4016077"></trkpt>
    <trkpt lat="58.4752734" lon="13.4016976"></trkpt>
    <trkpt lat="58.4750420" lon="13.4018183"></trkpt>
    <trkpt lat="58.4744937" lon="13.4021227"></trkpt>
    <trkpt lat="58.4739474" lon="13.4024365"></trkpt>
    <trkpt lat="58.4735582" lon="13.4026605"></trkpt>
    <trkpt lat="58.4734516" lon="13.4027423"></trkpt>
    <trkpt lat="58.4734418" lon="13.4028777"></trkpt>
    <trkpt lat="58.4734650" lon="13.4031865"></trkpt>
    <trkpt lat="58.4734601" lon="13.4033072"></trkpt>
    <trkpt lat="58.4734502" lon="13.4033887"></trkpt>
    <trkpt lat="58.4734320" lon="13.4034517"></trkpt>
    <trkpt lat="58.4733972" lon="13.4035096"></trkpt>
    <trkpt lat="58.4726515" lon="13.4038889"></trkpt>
    <trkpt lat="58.4725926" lon="13.4039842"></trkpt>
    <trkpt lat="58.4725648" lon="13.4040789"></trkpt>
    <trkpt lat="58.4725540" lon="13.4042001"></trkpt>
    <trkpt lat="58.4725757" lon="13.4045917"></trkpt>
    <trkpt lat="58.4725926" lon="13.4048317"></trkpt>
    <trkpt lat="58.4726196" lon="13.4050953"></trkpt>
    <trkpt lat="58.4726616" lon="13.4053588"></trkpt>
    <trkpt lat="58.4726907" lon="13.4055653"></trkpt>
    <trkpt lat="58.4724544" lon="13.4057517"></trkpt>
    <trkpt lat="58.4722749" lon="13.4059021"></trkpt>
    <trkpt lat="58.4722259" lon="13.4059204"></trkpt>
    <trkpt lat="58.4721824" lon="13.4059154"></trkpt>
    <trkpt lat="58.4721433" lon="13.4060293"></trkpt>
    <trkpt lat="58.4721019" lon="13.4060816"></trkpt>
    <trkpt lat="58.4719821" lon="13.4058793"></trkpt>
    <trkpt lat="58.4719383" lon="13.4058657"></trkpt>
    <trkpt lat="58.4718819" lon="13.4058828"></trkpt>
    <trkpt lat="58.4718331" lon="13.4059127"></trkpt>
    <trkpt lat="58.4717749" lon="13.4059502"></trkpt>
    <trkpt lat="58.4717100" lon="13.4059889"></trkpt>
    <trkpt lat="58.4716362" lon="13.4060130"></trkpt>
    <trkpt lat="58.4714503" lon="13.4060306"></trkpt>
    <trkpt lat="58.4713031" lon="13.4060130"></trkpt>
    <trkpt lat="58.4711460" lon="13.4059667"></trkpt>
    <trkpt lat="58.4709535" lon="13.4059144"></trkpt>
    <trkpt lat="58.4709424" lon="13.4056087"></trkpt>
    <trkpt lat="58.4709386" lon="13.4054762"></trkpt>
    <trkpt lat="58.4709405" lon="13.4052221"></trkpt>
    <trkpt lat="58.4709387" lon="13.4045034"></trkpt>
    <trkpt lat="58.4707915" lon="13.4043274"></trkpt>
    <trkpt lat="58.4706480" lon="13.4040037"></trkpt>
    <trkpt lat="58.4705633" lon="13.4038629"></trkpt>
    <trkpt lat="58.4704566" lon="13.4037855"></trkpt>
    <trkpt lat="58.4703351" lon="13.4037503"></trkpt>
    <trkpt lat="58.4701732" lon="13.4037011"></trkpt>
    <trkpt lat="58.4700738" lon="13.4036236"></trkpt>
    <trkpt lat="58.4699781" lon="13.4034688"></trkpt>
    <trkpt lat="58.4698309" lon="13.4031099"></trkpt>
    <trkpt lat="58.4696101" lon="13.4025820"></trkpt>
    <trkpt lat="58.4694629" lon="13.4022864"></trkpt>
    <trkpt lat="58.4693083" lon="13.4021105"></trkpt>
    <trkpt lat="58.4691326" lon="13.4018644"></trkpt>
    <trkpt lat="58.4683860" lon="13.4027260"></trkpt>
    <trkpt lat="58.4680390" lon="13.4030820"></trkpt>
    <trkpt lat="58.4675295" lon="13.4035850"></trkpt>
    <trkpt lat="58.4670200" lon="13.4040880"></trkpt>
    <trkpt lat="58.4668140" lon="13.4042570"></trkpt>
    <trkpt lat="58.4662390" lon="13.4046340"></trkpt>
    <trkpt lat="58.4657680" lon="13.4050010"></trkpt>
    <trkpt lat="58.4656370" lon="13.4051440"></trkpt>
    <trkpt lat="58.4650420" lon="13.4060390"></trkpt>
    <trkpt lat="58.4645636" lon="13.4072715"></trkpt>
    <trkpt lat="58.4645051" lon="13.4074910"></trkpt>
    <trkpt lat="58.4644269" lon="13.4078181"></trkpt>
    <trkpt lat="58.4642654" lon="13.4084190"></trkpt>
    <trkpt lat="58.4641809" lon="13.4088528"></trkpt>
    <trkpt lat="58.4641062" lon="13.4092947"></trkpt>
    <trkpt lat="58.4641331" lon="13.4097326"></trkpt>
    <trkpt lat="58.4642619" lon="13.4102393"></trkpt>
    <trkpt lat="58.4643503" lon="13.4107883"></trkpt>
    <trkpt lat="58.4644652" lon="13.4115323"></trkpt>
    <trkpt lat="58.4645012" lon="13.4122591"></trkpt>
    <trkpt lat="58.4644940" lon="13.4130100"></trkpt>
    <trkpt lat="58.4644975" lon="13.4136105"></trkpt>
    <trkpt lat="58.4645512" lon="13.4142299"></trkpt>
    <trkpt lat="58.4645708" lon="13.4147929"></trkpt>
    <trkpt lat="58.4645711" lon="13.4157782"></trkpt>
    <trkpt lat="58.4644858" lon="13.4162717"></trkpt>
    <trkpt lat="58.4643979" lon="13.4169606"></trkpt>
    <trkpt lat="58.4642875" lon="13.4177629"></trkpt>
    <trkpt lat="58.4642872" lon="13.4182958"></trkpt>
    <trkpt lat="58.4642914" lon="13.4187342"></trkpt>
    <trkpt lat="58.4642959" lon="13.4189814"></trkpt>
    <trkpt lat="58.4642347" lon="13.4192409"></trkpt>
    <trkpt lat="58.4641515" lon="13.4194661"></trkpt>
    <trkpt lat="58.4640397" lon="13.4197881"></trkpt>
    <trkpt lat="58.4639025" lon="13.4201042"></trkpt>
    <trkpt lat="58.4636799" lon="13.4206458"></trkpt>
    <trkpt lat="58.4634668" lon="13.4209722"></trkpt>
    <trkpt lat="58.4632386" lon="13.4213382"></trkpt>
    <trkpt lat="58.4629841" lon="13.4218282"></trkpt>
    <trkpt lat="58.4634187" lon="13.4222624"></trkpt>
    <trkpt lat="58.4638533" lon="13.4226965"></trkpt>
    <trkpt lat="58.4637760" lon="13.4231892"></trkpt>
    <trkpt lat="58.4637208" lon="13.4233088"></trkpt>
    <trkpt lat="58.4636472" lon="13.4233581"></trkpt>
    <trkpt lat="58.4636656" lon="13.4234777"></trkpt>
    <trkpt lat="58.4636987" lon="13.4236819"></trkpt>
    <trkpt lat="58.4637631" lon="13.4238085"></trkpt>
    <trkpt lat="58.4638055" lon="13.4238719"></trkpt>
    <trkpt lat="58.4639122" lon="13.4237733"></trkpt>
    <trkpt lat="58.4638680" lon="13.4234496"></trkpt>
    <trkpt lat="58.4639748" lon="13.4231822"></trkpt>
    <trkpt lat="58.4642361" lon="13.4235411"></trkpt>
    <trkpt lat="58.4644128" lon="13.4236607"></trkpt>
    <trkpt lat="58.4643007" lon="13.4240847"></trkpt>
    <trkpt lat="58.4643089" lon="13.4242262"></trkpt>
    <trkpt lat="58.4642509" lon="13.4243364"></trkpt>
    <trkpt lat="58.4642177" lon="13.4244560"></trkpt>
    <trkpt lat="58.4643245" lon="13.4256595"></trkpt>
    <trkpt lat="58.4642659" lon="13.4257646"></trkpt>
    <trkpt lat="58.4641983" lon="13.4258010"></trkpt>
    <trkpt lat="58.4641570" lon="13.4261416"></trkpt>
    <trkpt lat="58.4641165" lon="13.4262155"></trkpt>
    <trkpt lat="58.4641091" lon="13.4264548"></trkpt>
    <trkpt lat="58.4641807" lon="13.4267657"></trkpt>
    <trkpt lat="58.4642457" lon="13.4268468"></trkpt>
    <trkpt lat="58.4642914" lon="13.4270390"></trkpt>
    <trkpt lat="58.4641616" lon="13.4277635"></trkpt>
    <trkpt lat="58.4641128" lon="13.4279187"></trkpt>
    <trkpt lat="58.4641110" lon="13.4281967"></trkpt>
    <trkpt lat="58.4641312" lon="13.4284008"></trkpt>
    <trkpt lat="58.4641607" lon="13.4286683"></trkpt>
    <trkpt lat="58.4641920" lon="13.4287762"></trkpt>
    <trkpt lat="58.4642495" lon="13.4288356"></trkpt>
    <trkpt lat="58.4644404" lon="13.4291328"></trkpt>
    <trkpt lat="58.4645987" lon="13.4294811"></trkpt>
    <trkpt lat="58.4646226" lon="13.4296500"></trkpt>
    <trkpt lat="58.4646282" lon="13.4298119"></trkpt>
    <trkpt lat="58.4646024" lon="13.4300864"></trkpt>
    <trkpt lat="58.4645638" lon="13.4304066"></trkpt>
    <trkpt lat="58.4645674" lon="13.4305685"></trkpt>
    <trkpt lat="58.4645785" lon="13.4307128"></trkpt>
    <trkpt lat="58.4646079" lon="13.4308219"></trkpt>
    <trkpt lat="58.4646723" lon="13.4308887"></trkpt>
    <trkpt lat="58.4648057" lon="13.4310514"></trkpt>
    <trkpt lat="58.4648485" lon="13.4311660"></trkpt>
    <trkpt lat="58.4649355" lon="13.4312266"></trkpt>
    <trkpt lat="58.4649650" lon="13.4313145"></trkpt>
    <trkpt lat="58.4649687" lon="13.4314131"></trkpt>
    <trkpt lat="58.4649558" lon="13.4318389"></trkpt>
    <trkpt lat="58.4649926" lon="13.4319198"></trkpt>
    <trkpt lat="58.4650607" lon="13.4320746"></trkpt>
    <trkpt lat="58.4650901" lon="13.4322224"></trkpt>
    <trkpt lat="58.4651067" lon="13.4324828"></trkpt>
    <trkpt lat="58.4651472" lon="13.4328066"></trkpt>
    <trkpt lat="58.4651306" lon="13.4331550"></trkpt>
    <trkpt lat="58.4651987" lon="13.4333802"></trkpt>
    <trkpt lat="58.4652144" lon="13.4336614"></trkpt>
    <trkpt lat="58.4652773" lon="13.4337606"></trkpt>
    <trkpt lat="58.4652705" lon="13.4339010"></trkpt>
    <trkpt lat="58.4652153" lon="13.4340910"></trkpt>
    <trkpt lat="58.4652330" lon="13.4342856"></trkpt>
    <trkpt lat="58.4652466" lon="13.4344359"></trkpt>
    <trkpt lat="58.4652300" lon="13.4347350"></trkpt>
    <trkpt lat="58.4652503" lon="13.4349285"></trkpt>
    <trkpt lat="58.4652926" lon="13.4351713"></trkpt>
    <trkpt lat="58.4653736" lon="13.4354634"></trkpt>
    <trkpt lat="58.4653717" lon="13.4356112"></trkpt>
    <trkpt lat="58.4652815" lon="13.4359913"></trkpt>
    <trkpt lat="58.4652908" lon="13.4362235"></trkpt>
    <trkpt lat="58.4653441" lon="13.4365684"></trkpt>
    <trkpt lat="58.4654619" lon="13.4371138"></trkpt>
    <trkpt lat="58.4654822" lon="13.4378071"></trkpt>
    <trkpt lat="58.4653175" lon="13.4387489"></trkpt>
    <trkpt lat="58.4653427" lon="13.4396769"></trkpt>
    <trkpt lat="58.4652000" lon="13.4405297"></trkpt>
    <trkpt lat="58.4651711" lon="13.4406997"></trkpt>
    <trkpt lat="58.4650312" lon="13.4412099"></trkpt>
    <trkpt lat="58.4649560" lon="13.4418480"></trkpt>
    <trkpt lat="58.4647771" lon="13.4425653"></trkpt>
    <trkpt lat="58.4646237" lon="13.4423852"></trkpt>
    <trkpt lat="58.4644330" lon="13.4422063"></trkpt>
    <trkpt lat="58.4643629" lon="13.4421567"></trkpt>
    <trkpt lat="58.4642559" lon="13.4421171"></trkpt>
    <trkpt lat="58.4641910" lon="13.4421024"></trkpt>
    <trkpt lat="58.4641800" lon="13.4420022"></trkpt>
    <trkpt lat="58.4641430" lon="13.4418732"></trkpt>
    <trkpt lat="58.4640935" lon="13.4417790"></trkpt>
    <trkpt lat="58.4634559" lon="13.4408511"></trkpt>
    <trkpt lat="58.4633585" lon="13.4406910"></trkpt>
    <trkpt lat="58.4633107" lon="13.4406231"></trkpt>
    <trkpt lat="58.4631310" lon="13.4402835"></trkpt>
    <trkpt lat="58.4629036" lon="13.4397742"></trkpt>
    <trkpt lat="58.4624729" lon="13.4388592"></trkpt>
    <trkpt lat="58.4623604" lon="13.4385984"></trkpt>
    <trkpt lat="58.4622672" lon="13.4383190"></trkpt>
    <trkpt lat="58.4621766" lon="13.4379279"></trkpt>
    <trkpt lat="58.4621184" lon="13.4375079"></trkpt>
    <trkpt lat="58.4620377" lon="13.4369194"></trkpt>
    <trkpt lat="58.4619268" lon="13.4363959"></trkpt>
    <trkpt lat="58.4617881" lon="13.4359737"></trkpt>
    <trkpt lat="58.4614863" lon="13.4353476"></trkpt>
    <trkpt lat="58.4611401" lon="13.4347620"></trkpt>
    <trkpt lat="58.4609981" lon="13.4346368"></trkpt>
    <trkpt lat="58.4608743" lon="13.4345456"></trkpt>
    <trkpt lat="58.4607680" lon="13.4345081"></trkpt>
    <trkpt lat="58.4606810" lon="13.4344410"></trkpt>
    <trkpt lat="58.4606147" lon="13.4343415"></trkpt>
    <trkpt lat="58.4604407" lon="13.4339819"></trkpt>
    <trkpt lat="58.4602824" lon="13.4337849"></trkpt>
    <trkpt lat="58.4601131" lon="13.4336863"></trkpt>
    <trkpt lat="58.4598885" lon="13.4336863"></trkpt>
    <trkpt lat="58.4597008" lon="13.4337145"></trkpt>
    <trkpt lat="58.4595167" lon="13.4336652"></trkpt>
    <trkpt lat="58.4593216" lon="13.4335667"></trkpt>
    <trkpt lat="58.4591264" lon="13.4333485"></trkpt>
    <trkpt lat="58.4585060" lon="13.4323456"></trkpt>
    <trkpt lat="58.4578857" lon="13.4313427"></trkpt>
    <trkpt lat="58.4575654" lon="13.4307796"></trkpt>
    <trkpt lat="58.4570480" lon="13.4302510"></trkpt>
    <trkpt lat="58.4568732" lon="13.4300688"></trkpt>
    <trkpt lat="58.4566449" lon="13.4300055"></trkpt>
    <trkpt lat="58.4563688" lon="13.4300266"></trkpt>
    <trkpt lat="58.4561258" lon="13.4300899"></trkpt>
    <trkpt lat="58.4559491" lon="13.4301744"></trkpt>
    <trkpt lat="58.4557981" lon="13.4304066"></trkpt>
    <trkpt lat="58.4556950" lon="13.4303503"></trkpt>
    <trkpt lat="58.4555367" lon="13.4303292"></trkpt>
    <trkpt lat="58.4553194" lon="13.4304700"></trkpt>
    <trkpt lat="58.4551027" lon="13.4307117"></trkpt>
    <trkpt lat="58.4548725" lon="13.4309402"></trkpt>
    <trkpt lat="58.4545613" lon="13.4312573"></trkpt>
    <trkpt lat="58.4542646" lon="13.4317100"></trkpt>
    <trkpt lat="58.4540088" lon="13.4321920"></trkpt>
    <trkpt lat="58.4534968" lon="13.4329896"></trkpt>
    <trkpt lat="58.4529076" lon="13.4337215"></trkpt>
    <trkpt lat="58.4526260" lon="13.4342461"></trkpt>
    <trkpt lat="58.4525284" lon="13.4344675"></trkpt>
    <trkpt lat="58.4524805" lon="13.4346294"></trkpt>
    <trkpt lat="58.4523239" lon="13.4343774"></trkpt>
    <trkpt lat="58.4521364" lon="13.4342544"></trkpt>
    <trkpt lat="58.4519604" lon="13.4340885"></trkpt>
    <trkpt lat="58.4516780" lon="13.4338194"></trkpt>
    <trkpt lat="58.4514592" lon="13.4337711"></trkpt>
    <trkpt lat="58.4511638" lon="13.4335992"></trkpt>
    <trkpt lat="58.4508787" lon="13.4333274"></trkpt>
    <trkpt lat="58.4505386" lon="13.4328869"></trkpt>
    <trkpt lat="58.4501124" lon="13.4324828"></trkpt>
    <trkpt lat="58.4495689" lon="13.4319251"></trkpt>
    <trkpt lat="58.4490254" lon="13.4313673"></trkpt>
    <trkpt lat="58.4489149" lon="13.4313180"></trkpt>
    <trkpt lat="58.4487971" lon="13.4313532"></trkpt>
    <trkpt lat="58.4487234" lon="13.4314166"></trkpt>
    <trkpt lat="58.4486461" lon="13.4314307"></trkpt>
    <trkpt lat="58.4480195" lon="13.4310528"></trkpt>
    <trkpt lat="58.4473930" lon="13.4306749"></trkpt>
    <trkpt lat="58.4471675" lon="13.4309556"></trkpt>
    <trkpt lat="58.4470220" lon="13.4312230"></trkpt>
    <trkpt lat="58.4468360" lon="13.4315116"></trkpt>
    <trkpt lat="58.4466298" lon="13.4318881"></trkpt>
    <trkpt lat="58.4463167" lon="13.4322048"></trkpt>
    <trkpt lat="58.4461878" lon="13.4323315"></trkpt>
    <trkpt lat="58.4461105" lon="13.4325919"></trkpt>
    <trkpt lat="58.4460884" lon="13.4331338"></trkpt>
    <trkpt lat="58.4460663" lon="13.4334224"></trkpt>
    <trkpt lat="58.4459889" lon="13.4337884"></trkpt>
    <trkpt lat="58.4457974" lon="13.4342921"></trkpt>
    <trkpt lat="58.4455233" lon="13.4350214"></trkpt>
    <trkpt lat="58.4453421" lon="13.4353602"></trkpt>
    <trkpt lat="58.4451365" lon="13.4358529"></trkpt>
    <trkpt lat="58.4449791" lon="13.4357151"></trkpt>
    <trkpt lat="58.4448724" lon="13.4356534"></trkpt>
    <trkpt lat="58.4446282" lon="13.4355890"></trkpt>
    <trkpt lat="58.4444864" lon="13.4355139"></trkpt>
    <trkpt lat="58.4439994" lon="13.4352108"></trkpt>
    <trkpt lat="58.4439053" lon="13.4351544"></trkpt>
    <trkpt lat="58.4438539" lon="13.4351353"></trkpt>
    <trkpt lat="58.4437958" lon="13.4351491"></trkpt>
    <trkpt lat="58.4437284" lon="13.4351867"></trkpt>
    <trkpt lat="58.4436583" lon="13.4352323"></trkpt>
    <trkpt lat="58.4435937" lon="13.4352564"></trkpt>
    <trkpt lat="58.4435193" lon="13.4352644"></trkpt>
    <trkpt lat="58.4434337" lon="13.4352457"></trkpt>
    <trkpt lat="58.4431656" lon="13.4351357"></trkpt>
    <trkpt lat="58.4429424" lon="13.4367236"></trkpt>
    <trkpt lat="58.4429073" lon="13.4369462"></trkpt>
    <trkpt lat="58.4428750" lon="13.4370723"></trkpt>
    <trkpt lat="58.4428301" lon="13.4370937"></trkpt>
    <trkpt lat="58.4427641" lon="13.4371742"></trkpt>
    <trkpt lat="58.4427136" lon="13.4372922"></trkpt>
    <trkpt lat="58.4426897" lon="13.4374129"></trkpt>
    <trkpt lat="58.4426925" lon="13.4375765"></trkpt>
    <trkpt lat="58.4427612" lon="13.4377549"></trkpt>
    <trkpt lat="58.4428617" lon="13.4380437"></trkpt>
    <trkpt lat="58.4429268" lon="13.4382614"></trkpt>
    <trkpt lat="58.4429922" lon="13.4385053"></trkpt>
    <trkpt lat="58.4430448" lon="13.4387301"></trkpt>
    <trkpt lat="58.4430717" lon="13.4388172"></trkpt>
    <trkpt lat="58.4430848" lon="13.4388493"></trkpt>
    <trkpt lat="58.4430517" lon="13.4388685"></trkpt>
    <trkpt lat="58.4430224" lon="13.4388754"></trkpt>
    <trkpt lat="58.4428603" lon="13.4388704"></trkpt>
    <trkpt lat="58.4426487" lon="13.4388577"></trkpt>
    <trkpt lat="58.4423598" lon="13.4389337"></trkpt>
    <trkpt lat="58.4420830" lon="13.4391018"></trkpt>
    <trkpt lat="58.4413033" lon="13.4397268"></trkpt>
    <trkpt lat="58.4405236" lon="13.4403517"></trkpt>
    <trkpt lat="58.4397439" lon="13.4409767"></trkpt>
    <trkpt lat="58.4389642" lon="13.4416016"></trkpt>
    <trkpt lat="58.4381845" lon="13.4422266"></trkpt>
    <trkpt lat="58.4379770" lon="13.4413101"></trkpt>
    <trkpt lat="58.4377889" lon="13.4410580"></trkpt>
    <trkpt lat="58.4377299" lon="13.4408756"></trkpt>
    <trkpt lat="58.4375109" lon="13.4405859"></trkpt>
    <trkpt lat="58.4371936" lon="13.4404357"></trkpt>
    <trkpt lat="58.4368089" lon="13.4403392"></trkpt>
    <trkpt lat="58.4361294" lon="13.4397518"></trkpt>
    <trkpt lat="58.4354499" lon="13.4391644"></trkpt>
    <trkpt lat="58.4351972" lon="13.4391590"></trkpt>
    <trkpt lat="58.4343940" lon="13.4394058"></trkpt>
    <trkpt lat="58.4341188" lon="13.4391805"></trkpt>
    <trkpt lat="58.4338127" lon="13.4389230"></trkpt>
    <trkpt lat="58.4336976" lon="13.4387620"></trkpt>
    <trkpt lat="58.4334561" lon="13.4381988"></trkpt>
    <trkpt lat="58.4334645" lon="13.4375014"></trkpt>
    <trkpt lat="58.4328018" lon="13.4373566"></trkpt>
    <trkpt lat="58.4325968" lon="13.4373566"></trkpt>
    <trkpt lat="58.4325181" lon="13.4374156"></trkpt>
    <trkpt lat="58.4323553" lon="13.4377374"></trkpt>
    <trkpt lat="58.4321194" lon="13.4375229"></trkpt>
    <trkpt lat="58.4317262" lon="13.4375711"></trkpt>
    <trkpt lat="58.4311196" lon="13.4376409"></trkpt>
    <trkpt lat="58.4309876" lon="13.4375765"></trkpt>
    <trkpt lat="58.4308612" lon="13.4375175"></trkpt>
    <trkpt lat="58.4307742" lon="13.4373619"></trkpt>
    <trkpt lat="58.4305691" lon="13.4374746"></trkpt>
    <trkpt lat="58.4303417" lon="13.4373137"></trkpt>
    <trkpt lat="58.4298979" lon="13.4374263"></trkpt>
    <trkpt lat="58.4294107" lon="13.4373056"></trkpt>
    <trkpt lat="58.4289234" lon="13.4371849"></trkpt>
    <trkpt lat="58.4283209" lon="13.4368845"></trkpt>
    <trkpt lat="58.4277185" lon="13.4365841"></trkpt>
    <trkpt lat="58.4274881" lon="13.4364929"></trkpt>
    <trkpt lat="58.4273224" lon="13.4364822"></trkpt>
    <trkpt lat="58.4271960" lon="13.4365197"></trkpt>
    <trkpt lat="58.4270359" lon="13.4366002"></trkpt>
    <trkpt lat="58.4266736" lon="13.4368040"></trkpt>
    <trkpt lat="58.4263478" lon="13.4370723"></trkpt>
    <trkpt lat="58.4260810" lon="13.4373780"></trkpt>
    <trkpt lat="58.4259433" lon="13.4375282"></trkpt>
    <trkpt lat="58.4257748" lon="13.4376570"></trkpt>
    <trkpt lat="58.4255726" lon="13.4377857"></trkpt>
    <trkpt lat="58.4253619" lon="13.4378555"></trkpt>
    <trkpt lat="58.4250951" lon="13.4378716"></trkpt>
    <trkpt lat="58.4249097" lon="13.4378769"></trkpt>
    <trkpt lat="58.4246962" lon="13.4379735"></trkpt>
    <trkpt lat="58.4243484" lon="13.4381703"></trkpt>
    <trkpt lat="58.4242637" lon="13.4398534"></trkpt>
    <trkpt lat="58.4242291" lon="13.4401178"></trkpt>
    <trkpt lat="58.4241633" lon="13.4402566"></trkpt>
    <trkpt lat="58.4240768" lon="13.4403095"></trkpt>
    <trkpt lat="58.4239730" lon="13.4402764"></trkpt>
    <trkpt lat="58.4232254" lon="13.4397609"></trkpt>
    <trkpt lat="58.4230973" lon="13.4397080"></trkpt>
    <trkpt lat="58.4230004" lon="13.4397212"></trkpt>
    <trkpt lat="58.4228793" lon="13.4398005"></trkpt>
    <trkpt lat="58.4223878" lon="13.4404417"></trkpt>
    <trkpt lat="58.4222840" lon="13.4406598"></trkpt>
    <trkpt lat="58.4222286" lon="13.4409110"></trkpt>
    <trkpt lat="58.4222009" lon="13.4412877"></trkpt>
    <trkpt lat="58.4221628" lon="13.4420148"></trkpt>
    <trkpt lat="58.4220971" lon="13.4430988"></trkpt>
    <trkpt lat="58.4219979" lon="13.4445728"></trkpt>
    <trkpt lat="58.4218986" lon="13.4460467"></trkpt>
    <trkpt lat="58.4217994" lon="13.4475207"></trkpt>
    <trkpt lat="58.4217051" lon="13.4489940"></trkpt>
    <trkpt lat="58.4215950" lon="13.4489652"></trkpt>
    <trkpt lat="58.4208000" lon="13.4488847"></trkpt>
    <trkpt lat="58.4200050" lon="13.4488042"></trkpt>
    <trkpt lat="58.4193041" lon="13.4487291"></trkpt>
    <trkpt lat="58.4186032" lon="13.4486540"></trkpt>
    <trkpt lat="58.4185357" lon="13.4486111"></trkpt>
    <trkpt lat="58.4184852" lon="13.4485575"></trkpt>
    <trkpt lat="58.4184543" lon="13.4484877"></trkpt>
    <trkpt lat="58.4184402" lon="13.4483912"></trkpt>
    <trkpt lat="58.4184318" lon="13.4482893"></trkpt>
    <trkpt lat="58.4184805" lon="13.4466871"></trkpt>
    <trkpt lat="58.4185292" lon="13.4450849"></trkpt>
    <trkpt lat="58.4185779" lon="13.4434827"></trkpt>
    <trkpt lat="58.4185714" lon="13.4433442"></trkpt>
    <trkpt lat="58.4185482" lon="13.4432597"></trkpt>
    <trkpt lat="58.4184964" lon="13.4431770"></trkpt>
    <trkpt lat="58.4183924" lon="13.4431287"></trkpt>
    <trkpt lat="58.4181991" lon="13.4431243"></trkpt>
    <trkpt lat="58.4174513" lon="13.4430858"></trkpt>
    <trkpt lat="58.4173479" lon="13.4430894"></trkpt>
    <trkpt lat="58.4172574" lon="13.4431180"></trkpt>
    <trkpt lat="58.4171565" lon="13.4431699"></trkpt>
    <trkpt lat="58.4171056" lon="13.4432074"></trkpt>
    <trkpt lat="58.4169774" lon="13.4433167"></trkpt>
    <trkpt lat="58.4167667" lon="13.4435005"></trkpt>
    <trkpt lat="58.4166501" lon="13.4435890"></trkpt>
    <trkpt lat="58.4165580" lon="13.4436567"></trkpt>
    <trkpt lat="58.4164987" lon="13.4436876"></trkpt>
    <trkpt lat="58.4164467" lon="13.4437003"></trkpt>
    <trkpt lat="58.4164595" lon="13.4442498"></trkpt>
    <trkpt lat="58.4164342" lon="13.4453254"></trkpt>
    <trkpt lat="58.4164104" lon="13.4454998"></trkpt>
    <trkpt lat="58.4161273" lon="13.4464533"></trkpt>
    <trkpt lat="58.4158442" lon="13.4474068"></trkpt>
    <trkpt lat="58.4158709" lon="13.4481766"></trkpt>
    <trkpt lat="58.4158990" lon="13.4492066"></trkpt>
    <trkpt lat="58.4158765" lon="13.4496679"></trkpt>
    <trkpt lat="58.4157080" lon="13.4500541"></trkpt>
    <trkpt lat="58.4155169" lon="13.4511163"></trkpt>
    <trkpt lat="58.4153708" lon="13.4515562"></trkpt>
    <trkpt lat="58.4149044" lon="13.4518137"></trkpt>
    <trkpt lat="58.4142244" lon="13.4516742"></trkpt>
    <trkpt lat="58.4138873" lon="13.4515347"></trkpt>
    <trkpt lat="58.4133984" lon="13.4513094"></trkpt>
    <trkpt lat="58.4130443" lon="13.4512343"></trkpt>
    <trkpt lat="58.4127015" lon="13.4512772"></trkpt>
    <trkpt lat="58.4124205" lon="13.4519210"></trkpt>
    <trkpt lat="58.4121508" lon="13.4525432"></trkpt>
    <trkpt lat="58.4118863" lon="13.4533492"></trkpt>
    <trkpt lat="58.4118158" lon="13.4532859"></trkpt>
    <trkpt lat="58.4117560" lon="13.4532594"></trkpt>
    <trkpt lat="58.4116548" lon="13.4532460"></trkpt>
    <trkpt lat="58.4115860" lon="13.4532192"></trkpt>
    <trkpt lat="58.4115284" lon="13.4531736"></trkpt>
    <trkpt lat="58.4114694" lon="13.4531065"></trkpt>
    <trkpt lat="58.4113247" lon="13.4528866"></trkpt>
    <trkpt lat="58.4112165" lon="13.4526613"></trkpt>
    <trkpt lat="58.4110900" lon="13.4524038"></trkpt>
    <trkpt lat="58.4110507" lon="13.4522589"></trkpt>
    <trkpt lat="58.4110451" lon="13.4521114"></trkpt>
    <trkpt lat="58.4110732" lon="13.4519022"></trkpt>
    <trkpt lat="58.4112291" lon="13.4514543"></trkpt>
    <trkpt lat="58.4113359" lon="13.4511485"></trkpt>
    <trkpt lat="58.4114216" lon="13.4508052"></trkpt>
    <trkpt lat="58.4114623" lon="13.4505477"></trkpt>
    <trkpt lat="58.4114778" lon="13.4503680"></trkpt>
    <trkpt lat="58.4114666" lon="13.4502419"></trkpt>
    <trkpt lat="58.4114244" lon="13.4501480"></trkpt>
    <trkpt lat="58.4113710" lon="13.4500863"></trkpt>
    <trkpt lat="58.4105688" lon="13.4496491"></trkpt>
    <trkpt lat="58.4104198" lon="13.4495928"></trkpt>
    <trkpt lat="58.4103271" lon="13.4495472"></trkpt>
    <trkpt lat="58.4101740" lon="13.4493809"></trkpt>
    <trkpt lat="58.4099702" lon="13.4491637"></trkpt>
    <trkpt lat="58.4098396" lon="13.4490805"></trkpt>
    <trkpt lat="58.4096414" lon="13.4489893"></trkpt>
    <trkpt lat="58.4095262" lon="13.4488874"></trkpt>
    <trkpt lat="58.4093632" lon="13.4486969"></trkpt>
    <trkpt lat="58.4092466" lon="13.4485494"></trkpt>
    <trkpt lat="58.4091061" lon="13.4484743"></trkpt>
    <trkpt lat="58.4088813" lon="13.4483912"></trkpt>
    <trkpt lat="58.4087914" lon="13.4483509"></trkpt>
    <trkpt lat="58.4087197" lon="13.4482437"></trkpt>
    <trkpt lat="58.4086382" lon="13.4480264"></trkpt>
    <trkpt lat="58.4085736" lon="13.4477206"></trkpt>
    <trkpt lat="58.4085385" lon="13.4474336"></trkpt>
    <trkpt lat="58.4085188" lon="13.4470903"></trkpt>
    <trkpt lat="58.4084991" lon="13.4468248"></trkpt>
    <trkpt lat="58.4084668" lon="13.4466182"></trkpt>
    <trkpt lat="58.4084008" lon="13.4464654"></trkpt>
    <trkpt lat="58.4083038" lon="13.4463286"></trkpt>
    <trkpt lat="58.4076364" lon="13.4456929"></trkpt>
    <trkpt lat="58.4075493" lon="13.4456070"></trkpt>
    <trkpt lat="58.4074326" lon="13.4455212"></trkpt>
    <trkpt lat="58.4072921" lon="13.4454890"></trkpt>
    <trkpt lat="58.4071165" lon="13.4454837"></trkpt>
    <trkpt lat="58.4068748" lon="13.4455024"></trkpt>
    <trkpt lat="58.4063310" lon="13.4455561"></trkpt>
    <trkpt lat="58.4056663" lon="13.4456821"></trkpt>
    <trkpt lat="58.4051998" lon="13.4457304"></trkpt>
    <trkpt lat="58.4049721" lon="13.4458136"></trkpt>
    <trkpt lat="58.4045730" lon="13.4460362"></trkpt>
    <trkpt lat="58.4043089" lon="13.4461918"></trkpt>
    <trkpt lat="58.4042063" lon="13.4462374"></trkpt>
    <trkpt lat="58.4040039" lon="13.4462213"></trkpt>
    <trkpt lat="58.4032071" lon="13.4460094"></trkpt>
    <trkpt lat="58.4028726" lon="13.4459611"></trkpt>
    <trkpt lat="58.4024426" lon="13.4460282"></trkpt>
    <trkpt lat="58.4023929" lon="13.4460316"></trkpt>
    <trkpt lat="58.4022852" lon="13.4460389"></trkpt>
    <trkpt lat="58.4021461" lon="13.4460308"></trkpt>
    <trkpt lat="58.4019929" lon="13.4459826"></trkpt>
    <trkpt lat="58.4015896" lon="13.4457546"></trkpt>
    <trkpt lat="58.4013802" lon="13.4457465"></trkpt>
    <trkpt lat="58.4011637" lon="13.4457653"></trkpt>
    <trkpt lat="58.4010682" lon="13.4457465"></trkpt>
    <trkpt lat="58.4007754" lon="13.4455907"></trkpt>
    <trkpt lat="58.4006111" lon="13.4453648"></trkpt>
    <trkpt lat="58.4004877" lon="13.4452771"></trkpt>
    <trkpt lat="58.4003022" lon="13.4451725"></trkpt>
    <trkpt lat="58.4002121" lon="13.4451011"></trkpt>
    <trkpt lat="58.4000993" lon="13.4450307"></trkpt>
    <trkpt lat="58.3999900" lon="13.4450012"></trkpt>
    <trkpt lat="58.3998508" lon="13.4450000"></trkpt>
    <trkpt lat="58.3997206" lon="13.4450186"></trkpt>
    <trkpt lat="58.3995846" lon="13.4450079"></trkpt>
    <trkpt lat="58.3995417" lon="13.4449817"></trkpt>
    <trkpt lat="58.3993973" lon="13.4446433"></trkpt>
    <trkpt lat="58.3992757" lon="13.4442906"></trkpt>
    <trkpt lat="58.3990924" lon="13.4436257"></trkpt>
    <trkpt lat="58.3990009" lon="13.4432346"></trkpt>
    <trkpt lat="58.3989849" lon="13.4426480"></trkpt>
    <trkpt lat="58.3989684" lon="13.4422650"></trkpt>
    <trkpt lat="58.3989122" lon="13.4421336"></trkpt>
    <trkpt lat="58.3987436" lon="13.4419807"></trkpt>
    <trkpt lat="58.3987295" lon="13.4410888"></trkpt>
    <trkpt lat="58.3987154" lon="13.4401970"></trkpt>
    <trkpt lat="58.3986896" lon="13.4387721"></trkpt>
    <trkpt lat="58.3986638" lon="13.4373472"></trkpt>
    <trkpt lat="58.3986526" lon="13.4371862"></trkpt>
    <trkpt lat="58.3986329" lon="13.4370924"></trkpt>
    <trkpt lat="58.3985977" lon="13.4370253"></trkpt>
    <trkpt lat="58.3985471" lon="13.4369824"></trkpt>
    <trkpt lat="58.3984614" lon="13.4369609"></trkpt>
    <trkpt lat="58.3983911" lon="13.4369529"></trkpt>
    <trkpt lat="58.3983054" lon="13.4369529"></trkpt>
    <trkpt lat="58.3982365" lon="13.4369234"></trkpt>
    <trkpt lat="58.3981840" lon="13.4368412"></trkpt>
    <trkpt lat="58.3981517" lon="13.4367487"></trkpt>
    <trkpt lat="58.3981341" lon="13.4366012"></trkpt>
    <trkpt lat="58.3981327" lon="13.4364885"></trkpt>
    <trkpt lat="58.3979858" lon="13.4364657"></trkpt>
    <trkpt lat="58.3978948" lon="13.4364315"></trkpt>
    <trkpt lat="58.3977827" lon="13.4363611"></trkpt>
    <trkpt lat="58.3976531" lon="13.4362310"></trkpt>
    <trkpt lat="58.3975055" lon="13.4360594"></trkpt>
    <trkpt lat="58.3973437" lon="13.4358677"></trkpt>
    <trkpt lat="58.3972167" lon="13.4357502"></trkpt>
    <trkpt lat="58.3971105" lon="13.4356751"></trkpt>
    <trkpt lat="58.3970171" lon="13.4356362"></trkpt>
    <trkpt lat="58.3969120" lon="13.4356215"></trkpt>
    <trkpt lat="58.3967272" lon="13.4356302"></trkpt>
    <trkpt lat="58.3965128" lon="13.4356865"></trkpt>
    <trkpt lat="58.3962190" lon="13.4357831"></trkpt>
    <trkpt lat="58.3960138" lon="13.4358890"></trkpt>
    <trkpt lat="58.3956623" lon="13.4360996"></trkpt>
    <trkpt lat="58.3955226" lon="13.4361841"></trkpt>
    <trkpt lat="58.3952864" lon="13.4362766"></trkpt>
    <trkpt lat="58.3949712" lon="13.4363584"></trkpt>
    <trkpt lat="58.3947108" lon="13.4364040"></trkpt>
    <trkpt lat="58.3943088" lon="13.4364443"></trkpt>
    <trkpt lat="58.3934837" lon="13.4364429"></trkpt>
    <trkpt lat="58.3932475" lon="13.4364523"></trkpt>
    <trkpt lat="58.3930816" lon="13.4364898"></trkpt>
    <trkpt lat="58.3929136" lon="13.4365609"></trkpt>
    <trkpt lat="58.3927133" lon="13.4366521"></trkpt>
    <trkpt lat="58.3926529" lon="13.4366736"></trkpt>
    <trkpt lat="58.3925998" lon="13.4367017"></trkpt>
    <trkpt lat="58.3925366" lon="13.4367299"></trkpt>
    <trkpt lat="58.3924160" lon="13.4367514"></trkpt>
    <trkpt lat="58.3922410" lon="13.4367393"></trkpt>
    <trkpt lat="58.3916710" lon="13.4365994"></trkpt>
    <trkpt lat="58.3911010" lon="13.4364595"></trkpt>
    <trkpt lat="58.3910220" lon="13.4364372"></trkpt>
    <trkpt lat="58.3905815" lon="13.4363396"></trkpt>
    <trkpt lat="58.3904304" lon="13.4363182"></trkpt>
    <trkpt lat="58.3902926" lon="13.4363128"></trkpt>
    <trkpt lat="58.3901337" lon="13.4363370"></trkpt>
    <trkpt lat="58.3900241" lon="13.4363665"></trkpt>
    <trkpt lat="58.3898712" lon="13.4364811"></trkpt>
    <trkpt lat="58.3898135" lon="13.4365093"></trkpt>
    <trkpt lat="58.3897629" lon="13.4365623"></trkpt>
    <trkpt lat="58.3895436" lon="13.4368419"></trkpt>
    <trkpt lat="58.3894881" lon="13.4369110"></trkpt>
    <trkpt lat="58.3892772" lon="13.4371919"></trkpt>
    <trkpt lat="58.3891749" lon="13.4373126"></trkpt>
    <trkpt lat="58.3891046" lon="13.4373763"></trkpt>
    <trkpt lat="58.3890090" lon="13.4374340"></trkpt>
    <trkpt lat="58.3888853" lon="13.4374756"></trkpt>
    <trkpt lat="58.3888017" lon="13.4374910"></trkpt>
    <trkpt lat="58.3886470" lon="13.4375098"></trkpt>
    <trkpt lat="58.3883419" lon="13.4375560"></trkpt>
    <trkpt lat="58.3880639" lon="13.4376269"></trkpt>
    <trkpt lat="58.3878650" lon="13.4377263"></trkpt>
    <trkpt lat="58.3877677" lon="13.4377475"></trkpt>
    <trkpt lat="58.3871497" lon="13.4375802"></trkpt>
    <trkpt lat="58.3871061" lon="13.4376834"></trkpt>
    <trkpt lat="58.3869775" lon="13.4380214"></trkpt>
    <trkpt lat="58.3869374" lon="13.4381279"></trkpt>
    <trkpt lat="58.3868952" lon="13.4382400"></trkpt>
    <trkpt lat="58.3868686" lon="13.4383118"></trkpt>
    <trkpt lat="58.3868113" lon="13.4384158"></trkpt>
  </trkseg></trk>
</gpx>
