<?xml version='1.0' encoding='UTF-8'?>
<osm version='0.6' generator='pilegrimsleden-osm-extractor 1.0'>
  <node id='-1' version='0' action='modify' visible='true' lat='63.7781270' lon='11.7129774'>
    <tag k='name' v='Auskin Kreative Senter'/>
    <tag k='source' v='pilegrimsleden.no'/>
    <tag k='network' v='St. Olavsleden'/>
    <tag k='note:trail' v='St. Olavsleden'/>
    <tag k='note:country' v='Norway'/>
    <tag k='pilegrimsleden:poi_type' v='Pilegrimsherberge | Rom og hytter'/>
  </node>
  <node id='-2' version='0' action='modify' visible='true' lat='62.4593560' lon='16.3739880'>
    <tag k='name' v='Boda borg'/>
    <tag k='source' v='pilegrimsleden.no'/>
    <tag k='network' v='St. Olavsleden'/>
    <tag k='note:trail' v='St. Olavsleden'/>
    <tag k='note:country' v='Norway'/>
    <tag k='pilegrimsleden:poi_type' v='Pilegrimsherberge'/>
  </node>
  <node id='-3' version='0' action='modify' visible='true' lat='62.5416192' lon='15.9018517'>
    <tag k='name' v='Borgsjö Hembygdsgård'/>
    <tag k='source' v='pilegrimsleden.no'/>
    <tag k='network' v='St. Olavsleden'/>
    <tag k='note:trail' v='St. Olavsleden'/>
    <tag k='note:country' v='Norway'/>
    <tag k='pilegrimsleden:poi_type' v='Pilegrimsherberge'/>
  </node>
  <node id='-4' version='0' action='modify' visible='true' lat='63.5367624' lon='11.0567195'>
    <tag k='name' v='Borås gård'/>
    <tag k='source' v='pilegrimsleden.no'/>
    <tag k='network' v='St. Olavsleden'/>
    <tag k='note:trail' v='St. Olavsleden'/>
    <tag k='note:country' v='Norway'/>
    <tag k='pilegrimsleden:poi_type' v='Pilegrimsherberge'/>
  </node>
  <node id='-5' version='0' action='modify' visible='true' lat='63.4498686' lon='11.0075248'>
    <tag k='name' v='Ersgard Gårdshotell med pilegrimsovernatting'/>
    <tag k='source' v='pilegrimsleden.no'/>
    <tag k='network' v='St. Olavsleden'/>
    <tag k='note:trail' v='St. Olavsleden'/>
    <tag k='note:country' v='Norway'/>
    <tag k='pilegrimsleden:poi_type' v='Pilegrimsherberge'/>
  </node>
  <node id='-6' version='0' action='modify' visible='true' lat='63.5992556' lon='10.7061553'>
    <tag k='name' v='Frosta Strandhus'/>
    <tag k='source' v='pilegrimsleden.no'/>
    <tag k='network' v='St. Olavsleden'/>
    <tag k='note:trail' v='St. Olavsleden'/>
    <tag k='note:country' v='Norway'/>
    <tag k='pilegrimsleden:poi_type' v='Pilegrimsherberge'/>
  </node>
  <node id='-7' version='0' action='modify' visible='true' lat='62.3754857' lon='16.7712627'>
    <tag k='name' v='Gullesviken'/>
    <tag k='source' v='pilegrimsleden.no'/>
    <tag k='network' v='St. Olavsleden'/>
    <tag k='note:trail' v='St. Olavsleden'/>
    <tag k='note:country' v='Norway'/>
    <tag k='pilegrimsleden:poi_type' v='Pilegrimsherberge'/>
  </node>
  <node id='-8' version='0' action='modify' visible='true' lat='63.3141509' lon='13.2528979'>
    <tag k='name' v='Hedmans fjellby'/>
    <tag k='source' v='pilegrimsleden.no'/>
    <tag k='network' v='St. Olavsleden'/>
    <tag k='note:trail' v='St. Olavsleden'/>
    <tag k='note:country' v='Norway'/>
    <tag k='pilegrimsleden:poi_type' v='Rom og hytter'/>
  </node>
  <node id='-9' version='0' action='modify' visible='true' lat='62.7541287' lon='15.4171572'>
    <tag k='name' v='Hotell Jämtkrogen'/>
    <tag k='source' v='pilegrimsleden.no'/>
    <tag k='network' v='St. Olavsleden'/>
    <tag k='note:trail' v='St. Olavsleden'/>
    <tag k='note:country' v='Norway'/>
    <tag k='pilegrimsleden:poi_type' v='Rom og hytter'/>
  </node>
  <node id='-10' version='0' action='modify' visible='true' lat='62.4972886' lon='16.0175548'>
    <tag k='name' v='Hussborgs herrgård'/>
    <tag k='source' v='pilegrimsleden.no'/>
    <tag k='network' v='St. Olavsleden'/>
    <tag k='note:trail' v='St. Olavsleden'/>
    <tag k='note:country' v='Norway'/>
    <tag k='pilegrimsleden:poi_type' v='Pilegrimsherberge'/>
  </node>
  <node id='-11' version='0' action='modify' visible='true' lat='62.4106240' lon='17.2096310'>
    <tag k='name' v='Lilla Äppelgården'/>
    <tag k='source' v='pilegrimsleden.no'/>
    <tag k='network' v='St. Olavsleden'/>
    <tag k='note:trail' v='St. Olavsleden'/>
    <tag k='note:country' v='Norway'/>
    <tag k='pilegrimsleden:poi_type' v='Pilegrimsherberge'/>
  </node>
  <node id='-12' version='0' action='modify' visible='true' lat='63.5067298' lon='11.0759783'>
    <tag k='name' v='Lillelunden Gård'/>
    <tag k='source' v='pilegrimsleden.no'/>
    <tag k='network' v='St. Olavsleden'/>
    <tag k='note:trail' v='St. Olavsleden'/>
    <tag k='note:country' v='Norway'/>
    <tag k='pilegrimsleden:poi_type' v='Pilegrimsherberge'/>
  </node>
  <node id='-13' version='0' action='modify' visible='true' lat='63.0833330' lon='14.8833330'>
    <tag k='name' v='Liten hytte i Lunne'/>
    <tag k='source' v='pilegrimsleden.no'/>
    <tag k='network' v='St. Olavsleden'/>
    <tag k='note:trail' v='St. Olavsleden'/>
    <tag k='note:country' v='Norway'/>
    <tag k='pilegrimsleden:poi_type' v='Teltplass'/>
    <tag k='tourism' v='camp_site'/>
    <tag k='tents' v='yes'/>
  </node>
  <node id='-14' version='0' action='modify' visible='true' lat='63.6367700' lon='11.2735020'>
    <tag k='name' v='Markabygda kirkestue'/>
    <tag k='source' v='pilegrimsleden.no'/>
    <tag k='network' v='St. Olavsleden'/>
    <tag k='note:trail' v='St. Olavsleden'/>
    <tag k='note:country' v='Norway'/>
    <tag k='pilegrimsleden:poi_type' v='Pilegrimsherberge'/>
  </node>
  <node id='-15' version='0' action='modify' visible='true' lat='63.5196981' lon='12.4079187'>
    <tag k='name' v='Medstugan, Vandrarhemmet Mejeriet'/>
    <tag k='source' v='pilegrimsleden.no'/>
    <tag k='network' v='St. Olavsleden'/>
    <tag k='note:trail' v='St. Olavsleden'/>
    <tag k='note:country' v='Norway'/>
    <tag k='pilegrimsleden:poi_type' v='Vandrerhjem'/>
  </node>
  <node id='-16' version='0' action='modify' visible='true' lat='63.6016862' lon='10.7072496'>
    <tag k='name' v='Oldervik herberge, Frosta'/>
    <tag k='source' v='pilegrimsleden.no'/>
    <tag k='network' v='St. Olavsleden'/>
    <tag k='note:trail' v='St. Olavsleden'/>
    <tag k='note:country' v='Norway'/>
    <tag k='pilegrimsleden:poi_type' v='Pilegrimsherberge'/>
  </node>
  <node id='-17' version='0' action='modify' visible='true' lat='62.4898711' lon='16.2848596'>
    <tag k='name' v='Rombäck 611'/>
    <tag k='source' v='pilegrimsleden.no'/>
    <tag k='network' v='St. Olavsleden'/>
    <tag k='note:trail' v='St. Olavsleden'/>
    <tag k='note:country' v='Norway'/>
    <tag k='pilegrimsleden:poi_type' v='Rom og hytter'/>
  </node>
  <node id='-18' version='0' action='modify' visible='true' lat='62.3778557' lon='17.2865598'>
    <tag k='name' v='Sidsjö Hotell &amp; Konferens'/>
    <tag k='source' v='pilegrimsleden.no'/>
    <tag k='network' v='St. Olavsleden'/>
    <tag k='note:trail' v='St. Olavsleden'/>
    <tag k='note:country' v='Norway'/>
    <tag k='pilegrimsleden:poi_type' v='Pilegrimsherberge'/>
  </node>
  <node id='-19' version='0' action='modify' visible='true' lat='63.6636621' lon='12.0309457'>
    <tag k='name' v='Skogset'/>
    <tag k='source' v='pilegrimsleden.no'/>
    <tag k='network' v='St. Olavsleden'/>
    <tag k='note:trail' v='St. Olavsleden'/>
    <tag k='note:country' v='Norway'/>
    <tag k='pilegrimsleden:poi_type' v='Pilegrimsherberge'/>
  </node>
  <node id='-20' version='0' action='modify' visible='true' lat='63.0031533' lon='14.9520995'>
    <tag k='name' v='St. Olavs cabin, Hållsta'/>
    <tag k='source' v='pilegrimsleden.no'/>
    <tag k='network' v='St. Olavsleden'/>
    <tag k='note:trail' v='St. Olavsleden'/>
    <tag k='note:country' v='Norway'/>
    <tag k='pilegrimsleden:poi_type' v='Rom og hytter'/>
  </node>
  <node id='-21' version='0' action='modify' visible='true' lat='63.4706037' lon='10.9399321'>
    <tag k='name' v='Stabbur i Stjørdal'/>
    <tag k='source' v='pilegrimsleden.no'/>
    <tag k='network' v='St. Olavsleden'/>
    <tag k='note:trail' v='St. Olavsleden'/>
    <tag k='note:country' v='Norway'/>
    <tag k='pilegrimsleden:poi_type' v='Pilegrimsherberge'/>
  </node>
  <node id='-22' version='0' action='modify' visible='true' lat='63.4746590' lon='12.5594250'>
    <tag k='name' v='Stalltjärnstugan'/>
    <tag k='source' v='pilegrimsleden.no'/>
    <tag k='network' v='St. Olavsleden'/>
    <tag k='note:trail' v='St. Olavsleden'/>
    <tag k='note:country' v='Norway'/>
    <tag k='pilegrimsleden:poi_type' v='Rom og hytter'/>
  </node>
  <node id='-23' version='0' action='modify' visible='true' lat='62.6800763' lon='15.6079805'>
    <tag k='name' v='Stuga Storharrsjön'/>
    <tag k='source' v='pilegrimsleden.no'/>
    <tag k='network' v='St. Olavsleden'/>
    <tag k='note:trail' v='St. Olavsleden'/>
    <tag k='note:country' v='Norway'/>
    <tag k='pilegrimsleden:poi_type' v='Rom og hytter'/>
  </node>
  <node id='-24' version='0' action='modify' visible='true' lat='62.4128481' lon='17.1980667'>
    <tag k='name' v='Sundsvalls ridklubb'/>
    <tag k='source' v='pilegrimsleden.no'/>
    <tag k='network' v='St. Olavsleden'/>
    <tag k='note:trail' v='St. Olavsleden'/>
    <tag k='note:country' v='Norway'/>
    <tag k='pilegrimsleden:poi_type' v='Pilegrimsherberge'/>
  </node>
  <node id='-25' version='0' action='modify' visible='true' lat='63.5538542' lon='10.6690121'>
    <tag k='name' v='Valberg Slektsgård'/>
    <tag k='source' v='pilegrimsleden.no'/>
    <tag k='network' v='St. Olavsleden'/>
    <tag k='note:trail' v='St. Olavsleden'/>
    <tag k='note:country' v='Norway'/>
    <tag k='pilegrimsleden:poi_type' v='Pilegrimsherberge'/>
  </node>
  <node id='-26' version='0' action='modify' visible='true' lat='63.7026314' lon='11.1328350'>
    <tag k='name' v='Valum Gård Pilegrimsovernatting'/>
    <tag k='source' v='pilegrimsleden.no'/>
    <tag k='network' v='St. Olavsleden'/>
    <tag k='note:trail' v='St. Olavsleden'/>
    <tag k='note:country' v='Norway'/>
    <tag k='pilegrimsleden:poi_type' v='Rom og hytter'/>
  </node>
  <node id='-27' version='0' action='modify' visible='true' lat='63.4511383' lon='11.0536194'>
    <tag k='name' v='Øfsti Mellom'/>
    <tag k='source' v='pilegrimsleden.no'/>
    <tag k='network' v='St. Olavsleden'/>
    <tag k='note:trail' v='St. Olavsleden'/>
    <tag k='note:country' v='Norway'/>
    <tag k='pilegrimsleden:poi_type' v='Pilegrimsherberge'/>
  </node>
  <node id='-28' version='0' action='modify' visible='true' lat='63.3956880' lon='12.8642350'>
    <tag k='name' v='Backs semesterby'/>
    <tag k='source' v='pilegrimsleden.no'/>
    <tag k='network' v='St. Olavsleden'/>
    <tag k='note:trail' v='St. Olavsleden'/>
    <tag k='note:country' v='Norway'/>
    <tag k='pilegrimsleden:poi_type' v='Rom og hytter'/>
  </node>
  <node id='-29' version='0' action='modify' visible='true' lat='63.3817267' lon='10.7357765'>
    <tag k='name' v='Erikbu'/>
    <tag k='source' v='pilegrimsleden.no'/>
    <tag k='network' v='St. Olavsleden'/>
    <tag k='note:trail' v='St. Olavsleden'/>
    <tag k='note:country' v='Norway'/>
    <tag k='pilegrimsleden:poi_type' v='Gapahuk'/>
  </node>
  <node id='-30' version='0' action='modify' visible='true' lat='63.1782637' lon='14.5206025'>
    <tag k='name' v='Frösö pilgrimscenter'/>
    <tag k='source' v='pilegrimsleden.no'/>
    <tag k='network' v='St. Olavsleden'/>
    <tag k='note:trail' v='St. Olavsleden'/>
    <tag k='note:country' v='Norway'/>
    <tag k='pilegrimsleden:poi_type' v='Pilegrimsherberge'/>
  </node>
  <node id='-31' version='0' action='modify' visible='true' lat='63.7013306' lon='11.8957901'>
    <tag k='name' v='Gapahuk Kleivdalen'/>
    <tag k='source' v='pilegrimsleden.no'/>
    <tag k='network' v='St. Olavsleden'/>
    <tag k='note:trail' v='St. Olavsleden'/>
    <tag k='note:country' v='Norway'/>
    <tag k='pilegrimsleden:poi_type' v='Gapahuk'/>
  </node>
  <node id='-32' version='0' action='modify' visible='true' lat='63.6422773' lon='12.1547489'>
    <tag k='name' v='Gapahuk på Kvilbekken'/>
    <tag k='source' v='pilegrimsleden.no'/>
    <tag k='network' v='St. Olavsleden'/>
    <tag k='note:trail' v='St. Olavsleden'/>
    <tag k='note:country' v='Norway'/>
    <tag k='pilegrimsleden:poi_type' v='Gapahuk'/>
  </node>
  <node id='-33' version='0' action='modify' visible='true' lat='63.6322739' lon='10.8115467'>
    <tag k='name' v='Hellberg herberge'/>
    <tag k='source' v='pilegrimsleden.no'/>
    <tag k='network' v='St. Olavsleden'/>
    <tag k='note:trail' v='St. Olavsleden'/>
    <tag k='note:country' v='Norway'/>
    <tag k='pilegrimsleden:poi_type' v='Pilegrimsherberge'/>
  </node>
  <node id='-34' version='0' action='modify' visible='true' lat='63.7066220' lon='11.1367035'>
    <tag k='name' v='Laberget leirsted og Pilegrimshus'/>
    <tag k='source' v='pilegrimsleden.no'/>
    <tag k='network' v='St. Olavsleden'/>
    <tag k='note:trail' v='St. Olavsleden'/>
    <tag k='note:country' v='Norway'/>
    <tag k='pilegrimsleden:poi_type' v='Pilegrimsherberge'/>
  </node>
  <node id='-35' version='0' action='modify' visible='true' lat='63.7396345' lon='11.2799534'>
    <tag k='name' v='Levanger Camping'/>
    <tag k='source' v='pilegrimsleden.no'/>
    <tag k='network' v='St. Olavsleden'/>
    <tag k='note:trail' v='St. Olavsleden'/>
    <tag k='note:country' v='Norway'/>
    <tag k='pilegrimsleden:poi_type' v='Campingplass'/>
    <tag k='tourism' v='camp_site'/>
  </node>
  <node id='-36' version='0' action='modify' visible='true' lat='63.4768737' lon='11.0316430'>
    <tag k='name' v='Monaplassen gapahuk'/>
    <tag k='source' v='pilegrimsleden.no'/>
    <tag k='network' v='St. Olavsleden'/>
    <tag k='note:trail' v='St. Olavsleden'/>
    <tag k='note:country' v='Norway'/>
    <tag k='pilegrimsleden:poi_type' v='Gapahuk'/>
  </node>
  <node id='-37' version='0' action='modify' visible='true' lat='63.7239596' lon='11.3838302'>
    <tag k='name' v='Munkeby herberge'/>
    <tag k='source' v='pilegrimsleden.no'/>
    <tag k='network' v='St. Olavsleden'/>
    <tag k='note:trail' v='St. Olavsleden'/>
    <tag k='note:country' v='Norway'/>
    <tag k='pilegrimsleden:poi_type' v='Pilegrimsherberge'/>
  </node>
  <node id='-38' version='0' action='modify' visible='true' lat='63.3125440' lon='13.3475827'>
    <tag k='name' v='Ristafallet'/>
    <tag k='source' v='pilegrimsleden.no'/>
    <tag k='network' v='St. Olavsleden'/>
    <tag k='note:trail' v='St. Olavsleden'/>
    <tag k='note:country' v='Norway'/>
    <tag k='pilegrimsleden:poi_type' v='Campingplass'/>
    <tag k='tourism' v='camp_site'/>
  </node>
  <node id='-39' version='0' action='modify' visible='true' lat='63.4337714' lon='10.4245614'>
    <tag k='name' v='Rumi Hostel - Trondheim Vandrerhjem'/>
    <tag k='source' v='pilegrimsleden.no'/>
    <tag k='network' v='St. Olavsleden'/>
    <tag k='note:trail' v='St. Olavsleden'/>
    <tag k='note:country' v='Norway'/>
    <tag k='pilegrimsleden:poi_type' v='Pilegrimsherberge'/>
  </node>
  <node id='-40' version='0' action='modify' visible='true' lat='63.7739444' lon='11.5785734'>
    <tag k='name' v='Stiklestad Camping'/>
    <tag k='source' v='pilegrimsleden.no'/>
    <tag k='network' v='St. Olavsleden'/>
    <tag k='note:trail' v='St. Olavsleden'/>
    <tag k='note:country' v='Norway'/>
    <tag k='pilegrimsleden:poi_type' v='Rom og hytter | Teltplass'/>
  </node>
  <node id='-41' version='0' action='modify' visible='true' lat='63.6305095' lon='11.3234496'>
    <tag k='name' v='Troset Gård – overnatting for pilegrimer'/>
    <tag k='source' v='pilegrimsleden.no'/>
    <tag k='network' v='St. Olavsleden'/>
    <tag k='note:trail' v='St. Olavsleden'/>
    <tag k='note:country' v='Norway'/>
    <tag k='pilegrimsleden:poi_type' v='Pilegrimsherberge'/>
  </node>
  <node id='-42' version='0' action='modify' visible='true' lat='62.5366430' lon='15.9193640'>
    <tag k='name' v='Träporten'/>
    <tag k='source' v='pilegrimsleden.no'/>
    <tag k='network' v='St. Olavsleden'/>
    <tag k='note:trail' v='St. Olavsleden'/>
    <tag k='note:country' v='Norway'/>
    <tag k='pilegrimsleden:poi_type' v='Pilegrimsherberge | Rom og hytter'/>
  </node>
  <node id='-43' version='0' action='modify' visible='true' lat='63.6642499' lon='12.0552770'>
    <tag k='name' v='Ådalsvollen Pilegrimslodge'/>
    <tag k='source' v='pilegrimsleden.no'/>
    <tag k='network' v='St. Olavsleden'/>
    <tag k='note:trail' v='St. Olavsleden'/>
    <tag k='note:country' v='Norway'/>
    <tag k='pilegrimsleden:poi_type' v='Rom og hytter'/>
  </node>
  <node id='-44' version='0' action='modify' visible='true' lat='63.4018480' lon='13.0731494'>
    <tag k='name' v='Andrum för pilgrim'/>
    <tag k='source' v='pilegrimsleden.no'/>
    <tag k='network' v='St. Olavsleden'/>
    <tag k='note:trail' v='St. Olavsleden'/>
    <tag k='note:country' v='Norway'/>
    <tag k='pilegrimsleden:poi_type' v='Rom og hytter'/>
  </node>
  <node id='-45' version='0' action='modify' visible='true' lat='63.7735181' lon='11.7302590'>
    <tag k='name' v='Austnes Gård og Camping'/>
    <tag k='source' v='pilegrimsleden.no'/>
    <tag k='network' v='St. Olavsleden'/>
    <tag k='note:trail' v='St. Olavsleden'/>
    <tag k='note:country' v='Norway'/>
    <tag k='pilegrimsleden:poi_type' v='Campingplass | Rom og hytter'/>
  </node>
  <node id='-46' version='0' action='modify' visible='true' lat='62.7547495' lon='15.4345578'>
    <tag k='name' v='Bromyra Camping'/>
    <tag k='source' v='pilegrimsleden.no'/>
    <tag k='network' v='St. Olavsleden'/>
    <tag k='note:trail' v='St. Olavsleden'/>
    <tag k='note:country' v='Norway'/>
    <tag k='pilegrimsleden:poi_type' v='Rom og hytter'/>
  </node>
  <node id='-47' version='0' action='modify' visible='true' lat='62.9175777' lon='15.2529716'>
    <tag k='name' v='Camp Viking'/>
    <tag k='source' v='pilegrimsleden.no'/>
    <tag k='network' v='St. Olavsleden'/>
    <tag k='note:trail' v='St. Olavsleden'/>
    <tag k='note:country' v='Norway'/>
    <tag k='pilegrimsleden:poi_type' v='Campingplass'/>
    <tag k='tourism' v='camp_site'/>
  </node>
  <node id='-48' version='0' action='modify' visible='true' lat='63.4423883' lon='12.7398206'>
    <tag k='name' v='Hytte ved Tännforsen'/>
    <tag k='source' v='pilegrimsleden.no'/>
    <tag k='network' v='St. Olavsleden'/>
    <tag k='note:trail' v='St. Olavsleden'/>
    <tag k='note:country' v='Norway'/>
    <tag k='pilegrimsleden:poi_type' v='Rom og hytter'/>
  </node>
  <node id='-49' version='0' action='modify' visible='true' lat='63.7959568' lon='11.5625599'>
    <tag k='name' v='Scandic Stiklestad Hotell'/>
    <tag k='source' v='pilegrimsleden.no'/>
    <tag k='network' v='St. Olavsleden'/>
    <tag k='note:trail' v='St. Olavsleden'/>
    <tag k='note:country' v='Norway'/>
    <tag k='pilegrimsleden:poi_type' v='Pilegrimsherberge'/>
  </node>
  <node id='-50' version='0' action='modify' visible='true' lat='63.4322046' lon='10.7085925'>
    <tag k='name' v='Storsand Gård Camping'/>
    <tag k='source' v='pilegrimsleden.no'/>
    <tag k='network' v='St. Olavsleden'/>
    <tag k='note:trail' v='St. Olavsleden'/>
    <tag k='note:country' v='Norway'/>
    <tag k='pilegrimsleden:poi_type' v='Teltplass'/>
    <tag k='tourism' v='camp_site'/>
    <tag k='tents' v='yes'/>
  </node>
  <node id='-51' version='0' action='modify' visible='true' lat='63.3171850' lon='13.2371446'>
    <tag k='name' v='Åre Fjällsätra'/>
    <tag k='source' v='pilegrimsleden.no'/>
    <tag k='network' v='St. Olavsleden'/>
    <tag k='note:trail' v='St. Olavsleden'/>
    <tag k='note:country' v='Norway'/>
    <tag k='pilegrimsleden:poi_type' v='Pilegrimsherberge'/>
  </node>
  <node id='-52' version='0' action='modify' visible='true' lat='63.3860220' lon='13.9266420'>
    <tag k='name' v='Alsen, Stuga'/>
    <tag k='source' v='stolavsleden.com'/>
    <tag k='network' v='St. Olavsleden'/>
    <tag k='note:trail' v='St. Olavsleden'/>
    <tag k='note:country' v='Sweden'/>
    <tag k='pilegrimsleden:poi_type' v='Boende'/>
    <tag k='stolavsleden:id' v='21487'/>
    <tag k='tourism' v='hostel'/>
  </node>
  <node id='-53' version='0' action='modify' visible='true' lat='63.3496401' lon='13.7180541'>
    <tag k='name' v='Andersböle, Fäbodvall'/>
    <tag k='source' v='stolavsleden.com'/>
    <tag k='network' v='St. Olavsleden'/>
    <tag k='note:trail' v='St. Olavsleden'/>
    <tag k='note:country' v='Sweden'/>
    <tag k='pilegrimsleden:poi_type' v='Boende'/>
    <tag k='stolavsleden:id' v='21418'/>
    <tag k='tourism' v='hostel'/>
  </node>
  <node id='-54' version='0' action='modify' visible='true' lat='63.3139573' lon='13.2293515'>
    <tag k='name' v='Attefallshus, Undersåker'/>
    <tag k='source' v='stolavsleden.com'/>
    <tag k='network' v='St. Olavsleden'/>
    <tag k='note:trail' v='St. Olavsleden'/>
    <tag k='note:country' v='Sweden'/>
    <tag k='pilegrimsleden:poi_type' v='Boende'/>
    <tag k='stolavsleden:id' v='138521'/>
    <tag k='tourism' v='hostel'/>
  </node>
  <node id='-55' version='0' action='modify' visible='true' lat='62.8945700' lon='15.1066710'>
    <tag k='name' v='Bakgården, Revsund'/>
    <tag k='source' v='stolavsleden.com'/>
    <tag k='network' v='St. Olavsleden'/>
    <tag k='note:trail' v='St. Olavsleden'/>
    <tag k='note:country' v='Sweden'/>
    <tag k='pilegrimsleden:poi_type' v='Boende'/>
    <tag k='stolavsleden:id' v='21392'/>
    <tag k='tourism' v='hostel'/>
  </node>
  <node id='-56' version='0' action='modify' visible='true' lat='62.3495207' lon='17.0062789'>
    <tag k='name' v='Bellmangårdens Pilgrimsboende, Matfors'/>
    <tag k='source' v='stolavsleden.com'/>
    <tag k='network' v='St. Olavsleden'/>
    <tag k='note:trail' v='St. Olavsleden'/>
    <tag k='note:country' v='Sweden'/>
    <tag k='pilegrimsleden:poi_type' v='Boende'/>
    <tag k='stolavsleden:id' v='100142'/>
    <tag k='tourism' v='hostel'/>
  </node>
  <node id='-57' version='0' action='modify' visible='true' lat='63.3117465' lon='13.6506869'>
    <tag k='name' v='Björnidet Mörsil'/>
    <tag k='source' v='stolavsleden.com'/>
    <tag k='network' v='St. Olavsleden'/>
    <tag k='note:trail' v='St. Olavsleden'/>
    <tag k='note:country' v='Sweden'/>
    <tag k='pilegrimsleden:poi_type' v='Boende'/>
    <tag k='stolavsleden:id' v='148431'/>
    <tag k='tourism' v='hostel'/>
  </node>
  <node id='-58' version='0' action='modify' visible='true' lat='62.9372706' lon='15.2547821'>
    <tag k='name' v='Bo i ro, Gällö'/>
    <tag k='source' v='stolavsleden.com'/>
    <tag k='network' v='St. Olavsleden'/>
    <tag k='note:trail' v='St. Olavsleden'/>
    <tag k='note:country' v='Sweden'/>
    <tag k='pilegrimsleden:poi_type' v='Boende'/>
    <tag k='stolavsleden:id' v='22161'/>
    <tag k='tourism' v='hostel'/>
  </node>
  <node id='-59' version='0' action='modify' visible='true' lat='63.3963407' lon='13.8130618'>
    <tag k='name' v='Boende på gård, Kluk'/>
    <tag k='source' v='stolavsleden.com'/>
    <tag k='network' v='St. Olavsleden'/>
    <tag k='note:trail' v='St. Olavsleden'/>
    <tag k='note:country' v='Sweden'/>
    <tag k='pilegrimsleden:poi_type' v='Boende'/>
    <tag k='stolavsleden:id' v='121602'/>
    <tag k='tourism' v='hostel'/>
  </node>
  <node id='-60' version='0' action='modify' visible='true' lat='62.3532515' lon='16.9760046'>
    <tag k='name' v='Boende på gård, Kvällsjön, Matfors'/>
    <tag k='source' v='stolavsleden.com'/>
    <tag k='network' v='St. Olavsleden'/>
    <tag k='note:trail' v='St. Olavsleden'/>
    <tag k='note:country' v='Sweden'/>
    <tag k='pilegrimsleden:poi_type' v='Boende'/>
    <tag k='stolavsleden:id' v='136167'/>
    <tag k='tourism' v='hostel'/>
  </node>
  <node id='-61' version='0' action='modify' visible='true' lat='62.5413000' lon='15.9069000'>
    <tag k='name' v='Borgsjö Hembygdsgård Vandrarhem'/>
    <tag k='source' v='stolavsleden.com'/>
    <tag k='network' v='St. Olavsleden'/>
    <tag k='note:trail' v='St. Olavsleden'/>
    <tag k='note:country' v='Sweden'/>
    <tag k='pilegrimsleden:poi_type' v='Boende'/>
    <tag k='stolavsleden:id' v='21483'/>
    <tag k='tourism' v='hostel'/>
  </node>
  <node id='-62' version='0' action='modify' visible='true' lat='63.3815741' lon='14.0280713'>
    <tag k='name' v='Dass och rastplats Glösa'/>
    <tag k='source' v='stolavsleden.com'/>
    <tag k='network' v='St. Olavsleden'/>
    <tag k='note:trail' v='St. Olavsleden'/>
    <tag k='note:country' v='Sweden'/>
    <tag k='pilegrimsleden:poi_type' v='Vindskydd'/>
    <tag k='stolavsleden:id' v='25902'/>
    <tag k='amenity' v='shelter'/>
    <tag k='shelter_type' v='lean_to'/>
  </node>
  <node id='-63' version='0' action='modify' visible='true' lat='62.8579021' lon='15.2806441'>
    <tag k='name' v='Dass och rastplats vid Revsundssjön'/>
    <tag k='source' v='stolavsleden.com'/>
    <tag k='network' v='St. Olavsleden'/>
    <tag k='note:trail' v='St. Olavsleden'/>
    <tag k='note:country' v='Sweden'/>
    <tag k='pilegrimsleden:poi_type' v='Vindskydd'/>
    <tag k='stolavsleden:id' v='26771'/>
    <tag k='amenity' v='shelter'/>
    <tag k='shelter_type' v='lean_to'/>
  </node>
  <node id='-64' version='0' action='modify' visible='true' lat='63.3862892' lon='13.9629063'>
    <tag k='name' v='Duvhökens Bed &amp; Breakfast, Alsen'/>
    <tag k='source' v='stolavsleden.com'/>
    <tag k='network' v='St. Olavsleden'/>
    <tag k='note:trail' v='St. Olavsleden'/>
    <tag k='note:country' v='Sweden'/>
    <tag k='pilegrimsleden:poi_type' v='Boende'/>
    <tag k='stolavsleden:id' v='70657'/>
    <tag k='tourism' v='hostel'/>
  </node>
  <node id='-65' version='0' action='modify' visible='true' lat='62.9856775' lon='15.0007587'>
    <tag k='name' v='Enkelt boende på Bondgård, Svedje'/>
    <tag k='source' v='stolavsleden.com'/>
    <tag k='network' v='St. Olavsleden'/>
    <tag k='note:trail' v='St. Olavsleden'/>
    <tag k='note:country' v='Sweden'/>
    <tag k='pilegrimsleden:poi_type' v='Boende'/>
    <tag k='stolavsleden:id' v='134294'/>
    <tag k='tourism' v='hostel'/>
  </node>
  <node id='-66' version='0' action='modify' visible='true' lat='63.3885609' lon='13.1298894'>
    <tag k='name' v='Fin Attefallstuga med underbar utsikt i Vik, Åre'/>
    <tag k='source' v='stolavsleden.com'/>
    <tag k='network' v='St. Olavsleden'/>
    <tag k='note:trail' v='St. Olavsleden'/>
    <tag k='note:country' v='Sweden'/>
    <tag k='pilegrimsleden:poi_type' v='Boende'/>
    <tag k='stolavsleden:id' v='105690'/>
    <tag k='tourism' v='hostel'/>
  </node>
  <node id='-67' version='0' action='modify' visible='true' lat='62.4206800' lon='16.4887900'>
    <tag k='name' v='Flottarstugan Nederede'/>
    <tag k='source' v='stolavsleden.com'/>
    <tag k='network' v='St. Olavsleden'/>
    <tag k='note:trail' v='St. Olavsleden'/>
    <tag k='note:country' v='Sweden'/>
    <tag k='pilegrimsleden:poi_type' v='Boende'/>
    <tag k='stolavsleden:id' v='21519'/>
    <tag k='tourism' v='hostel'/>
  </node>
  <node id='-68' version='0' action='modify' visible='true' lat='62.3473452' lon='17.0208885'>
    <tag k='name' v='Folkan Matfors'/>
    <tag k='source' v='stolavsleden.com'/>
    <tag k='network' v='St. Olavsleden'/>
    <tag k='note:trail' v='St. Olavsleden'/>
    <tag k='note:country' v='Sweden'/>
    <tag k='pilegrimsleden:poi_type' v='Boende'/>
    <tag k='stolavsleden:id' v='73307'/>
    <tag k='tourism' v='hostel'/>
  </node>
  <node id='-69' version='0' action='modify' visible='true' lat='63.0794365' lon='14.8766120'>
    <tag k='name' v='Friggebod i Lunne'/>
    <tag k='source' v='stolavsleden.com'/>
    <tag k='network' v='St. Olavsleden'/>
    <tag k='note:trail' v='St. Olavsleden'/>
    <tag k='note:country' v='Sweden'/>
    <tag k='pilegrimsleden:poi_type' v='Teltplass'/>
    <tag k='stolavsleden:id' v='55878'/>
    <tag k='tourism' v='camp_site'/>
    <tag k='tents' v='yes'/>
  </node>
  <node id='-70' version='0' action='modify' visible='true' lat='63.1729680' lon='14.5285220'>
    <tag k='name' v='Frösövallens Vandrarhem'/>
    <tag k='source' v='stolavsleden.com'/>
    <tag k='network' v='St. Olavsleden'/>
    <tag k='note:trail' v='St. Olavsleden'/>
    <tag k='note:country' v='Sweden'/>
    <tag k='pilegrimsleden:poi_type' v='Boende'/>
    <tag k='stolavsleden:id' v='21400'/>
    <tag k='tourism' v='hostel'/>
  </node>
  <node id='-71' version='0' action='modify' visible='true' lat='62.8309657' lon='15.3109654'>
    <tag k='name' v='Furulund, Stavre'/>
    <tag k='source' v='stolavsleden.com'/>
    <tag k='network' v='St. Olavsleden'/>
    <tag k='note:trail' v='St. Olavsleden'/>
    <tag k='note:country' v='Sweden'/>
    <tag k='pilegrimsleden:poi_type' v='Boende'/>
    <tag k='stolavsleden:id' v='131609'/>
    <tag k='tourism' v='hostel'/>
  </node>
  <node id='-72' version='0' action='modify' visible='true' lat='63.3837530' lon='13.9962600'>
    <tag k='name' v='Glösa'/>
    <tag k='source' v='stolavsleden.com'/>
    <tag k='network' v='St. Olavsleden'/>
    <tag k='note:trail' v='St. Olavsleden'/>
    <tag k='note:country' v='Sweden'/>
    <tag k='pilegrimsleden:poi_type' v='Boende'/>
    <tag k='stolavsleden:id' v='21415'/>
    <tag k='tourism' v='hostel'/>
  </node>
  <node id='-73' version='0' action='modify' visible='true' lat='62.8746880' lon='15.2730620'>
    <tag k='name' v='Grimnäsvägen 101, Grimnäs'/>
    <tag k='source' v='stolavsleden.com'/>
    <tag k='network' v='St. Olavsleden'/>
    <tag k='note:trail' v='St. Olavsleden'/>
    <tag k='note:country' v='Sweden'/>
    <tag k='pilegrimsleden:poi_type' v='Boende'/>
    <tag k='stolavsleden:id' v='21530'/>
    <tag k='tourism' v='hostel'/>
  </node>
  <node id='-74' version='0' action='modify' visible='true' lat='62.8967950' lon='15.2567570'>
    <tag k='name' v='Gällö, Långnäsudden'/>
    <tag k='source' v='stolavsleden.com'/>
    <tag k='network' v='St. Olavsleden'/>
    <tag k='note:trail' v='St. Olavsleden'/>
    <tag k='note:country' v='Sweden'/>
    <tag k='pilegrimsleden:poi_type' v='Boende'/>
    <tag k='stolavsleden:id' v='21409'/>
    <tag k='tourism' v='hostel'/>
  </node>
  <node id='-75' version='0' action='modify' visible='true' lat='62.3655008' lon='17.0672347'>
    <tag k='name' v='Gäststudio, Vattjom'/>
    <tag k='source' v='stolavsleden.com'/>
    <tag k='network' v='St. Olavsleden'/>
    <tag k='note:trail' v='St. Olavsleden'/>
    <tag k='note:country' v='Sweden'/>
    <tag k='pilegrimsleden:poi_type' v='Boende'/>
    <tag k='stolavsleden:id' v='138009'/>
    <tag k='tourism' v='hostel'/>
  </node>
  <node id='-76' version='0' action='modify' visible='true' lat='62.3891100' lon='16.6658000'>
    <tag k='name' v='Gålvikens pilgrimsboende, Stöde'/>
    <tag k='source' v='stolavsleden.com'/>
    <tag k='network' v='St. Olavsleden'/>
    <tag k='note:trail' v='St. Olavsleden'/>
    <tag k='note:country' v='Sweden'/>
    <tag k='pilegrimsleden:poi_type' v='Boende'/>
    <tag k='stolavsleden:id' v='21458'/>
    <tag k='tourism' v='hostel'/>
  </node>
  <node id='-77' version='0' action='modify' visible='true' lat='63.3840475' lon='13.9998617'>
    <tag k='name' v='Gården Bräcke'/>
    <tag k='source' v='stolavsleden.com'/>
    <tag k='network' v='St. Olavsleden'/>
    <tag k='note:trail' v='St. Olavsleden'/>
    <tag k='note:country' v='Sweden'/>
    <tag k='pilegrimsleden:poi_type' v='Boende'/>
    <tag k='stolavsleden:id' v='70284'/>
    <tag k='tourism' v='hostel'/>
  </node>
  <node id='-78' version='0' action='modify' visible='true' lat='62.7947980' lon='15.3684620'>
    <tag k='name' v='Gården Eriksberg, Mordviken'/>
    <tag k='source' v='stolavsleden.com'/>
    <tag k='network' v='St. Olavsleden'/>
    <tag k='note:trail' v='St. Olavsleden'/>
    <tag k='note:country' v='Sweden'/>
    <tag k='pilegrimsleden:poi_type' v='Boende'/>
    <tag k='stolavsleden:id' v='21388'/>
    <tag k='tourism' v='hostel'/>
  </node>
  <node id='-79' version='0' action='modify' visible='true' lat='63.3124100' lon='13.3198000'>
    <tag k='name' v='Hedmans fjällby, Undersåker'/>
    <tag k='source' v='stolavsleden.com'/>
    <tag k='network' v='St. Olavsleden'/>
    <tag k='note:trail' v='St. Olavsleden'/>
    <tag k='note:country' v='Sweden'/>
    <tag k='pilegrimsleden:poi_type' v='Boende'/>
    <tag k='stolavsleden:id' v='21434'/>
    <tag k='tourism' v='hostel'/>
  </node>
  <node id='-80' version='0' action='modify' visible='true' lat='63.4079850' lon='13.8497070'>
    <tag k='name' v='Helleberg, Stuga'/>
    <tag k='source' v='stolavsleden.com'/>
    <tag k='network' v='St. Olavsleden'/>
    <tag k='note:trail' v='St. Olavsleden'/>
    <tag k='note:country' v='Sweden'/>
    <tag k='pilegrimsleden:poi_type' v='Boende'/>
    <tag k='stolavsleden:id' v='21417'/>
    <tag k='tourism' v='hostel'/>
  </node>
  <node id='-81' version='0' action='modify' visible='true' lat='63.3901573' lon='13.9235300'>
    <tag k='name' v='Hovs Uppgård, Alsen'/>
    <tag k='source' v='stolavsleden.com'/>
    <tag k='network' v='St. Olavsleden'/>
    <tag k='note:trail' v='St. Olavsleden'/>
    <tag k='note:country' v='Sweden'/>
    <tag k='pilegrimsleden:poi_type' v='Boende'/>
    <tag k='stolavsleden:id' v='101400'/>
    <tag k='tourism' v='hostel'/>
  </node>
  <node id='-82' version='0' action='modify' visible='true' lat='62.7057504' lon='15.5975706'>
    <tag k='name' v='Hällsluten 167'/>
    <tag k='source' v='stolavsleden.com'/>
    <tag k='network' v='St. Olavsleden'/>
    <tag k='note:trail' v='St. Olavsleden'/>
    <tag k='note:country' v='Sweden'/>
    <tag k='pilegrimsleden:poi_type' v='Boende'/>
    <tag k='stolavsleden:id' v='127259'/>
    <tag k='tourism' v='hostel'/>
  </node>
  <node id='-83' version='0' action='modify' visible='true' lat='63.4638376' lon='12.6261451'>
    <tag k='name' v='Härbre, Bodsjöbränna'/>
    <tag k='source' v='stolavsleden.com'/>
    <tag k='network' v='St. Olavsleden'/>
    <tag k='note:trail' v='St. Olavsleden'/>
    <tag k='note:country' v='Sweden'/>
    <tag k='pilegrimsleden:poi_type' v='Boende'/>
    <tag k='stolavsleden:id' v='22159'/>
    <tag k='tourism' v='hostel'/>
  </node>
  <node id='-84' version='0' action='modify' visible='true' lat='62.9885569' lon='14.9735302'>
    <tag k='name' v='Hållsta 325'/>
    <tag k='source' v='stolavsleden.com'/>
    <tag k='network' v='St. Olavsleden'/>
    <tag k='note:trail' v='St. Olavsleden'/>
    <tag k='note:country' v='Sweden'/>
    <tag k='pilegrimsleden:poi_type' v='Boende'/>
    <tag k='stolavsleden:id' v='149063'/>
    <tag k='tourism' v='hostel'/>
  </node>
  <node id='-85' version='0' action='modify' visible='true' lat='62.4961650' lon='16.1178300'>
    <tag k='name' v='Kapellet i Byn, Fränsta'/>
    <tag k='source' v='stolavsleden.com'/>
    <tag k='network' v='St. Olavsleden'/>
    <tag k='note:trail' v='St. Olavsleden'/>
    <tag k='note:country' v='Sweden'/>
    <tag k='pilegrimsleden:poi_type' v='Boende'/>
    <tag k='stolavsleden:id' v='21477'/>
    <tag k='tourism' v='hostel'/>
  </node>
  <node id='-86' version='0' action='modify' visible='true' lat='63.3270878' lon='13.3846204'>
    <tag k='name' v='Knut &amp; Ruts, Undersåker kyrka'/>
    <tag k='source' v='stolavsleden.com'/>
    <tag k='network' v='St. Olavsleden'/>
    <tag k='note:trail' v='St. Olavsleden'/>
    <tag k='note:country' v='Sweden'/>
    <tag k='pilegrimsleden:poi_type' v='Boende'/>
    <tag k='stolavsleden:id' v='48295'/>
    <tag k='tourism' v='hostel'/>
  </node>
  <node id='-87' version='0' action='modify' visible='true' lat='62.3722332' lon='16.8508607'>
    <tag k='name' v='Liljedalen, Stöde'/>
    <tag k='source' v='stolavsleden.com'/>
    <tag k='network' v='St. Olavsleden'/>
    <tag k='note:trail' v='St. Olavsleden'/>
    <tag k='note:country' v='Sweden'/>
    <tag k='pilegrimsleden:poi_type' v='Boende'/>
    <tag k='stolavsleden:id' v='73517'/>
    <tag k='tourism' v='hostel'/>
  </node>
  <node id='-88' version='0' action='modify' visible='true' lat='62.4172475' lon='16.5567530'>
    <tag k='name' v='Lilla Bogården, Kälsta'/>
    <tag k='source' v='stolavsleden.com'/>
    <tag k='network' v='St. Olavsleden'/>
    <tag k='note:trail' v='St. Olavsleden'/>
    <tag k='note:country' v='Sweden'/>
    <tag k='pilegrimsleden:poi_type' v='Boende'/>
    <tag k='stolavsleden:id' v='68123'/>
    <tag k='tourism' v='hostel'/>
  </node>
  <node id='-89' version='0' action='modify' visible='true' lat='62.4259220' lon='16.4610940'>
    <tag k='name' v='Lindberga gård, Stöde'/>
    <tag k='source' v='stolavsleden.com'/>
    <tag k='network' v='St. Olavsleden'/>
    <tag k='note:trail' v='St. Olavsleden'/>
    <tag k='note:country' v='Sweden'/>
    <tag k='pilegrimsleden:poi_type' v='Boende'/>
    <tag k='stolavsleden:id' v='21272'/>
    <tag k='tourism' v='hostel'/>
  </node>
  <node id='-90' version='0' action='modify' visible='true' lat='62.4980911' lon='16.1757935'>
    <tag k='name' v='Lindqvist Tjänst &amp; Gästgiveri i Fränsta'/>
    <tag k='source' v='stolavsleden.com'/>
    <tag k='network' v='St. Olavsleden'/>
    <tag k='note:trail' v='St. Olavsleden'/>
    <tag k='note:country' v='Sweden'/>
    <tag k='pilegrimsleden:poi_type' v='Boende'/>
    <tag k='stolavsleden:id' v='103054'/>
    <tag k='tourism' v='hostel'/>
  </node>
  <node id='-91' version='0' action='modify' visible='true' lat='62.5932976' lon='15.6786852'>
    <tag k='name' v='Lombäcksstugorna'/>
    <tag k='source' v='stolavsleden.com'/>
    <tag k='network' v='St. Olavsleden'/>
    <tag k='note:trail' v='St. Olavsleden'/>
    <tag k='note:country' v='Sweden'/>
    <tag k='pilegrimsleden:poi_type' v='Boende'/>
    <tag k='stolavsleden:id' v='21507'/>
    <tag k='tourism' v='hostel'/>
  </node>
  <node id='-92' version='0' action='modify' visible='true' lat='63.4639530' lon='12.6285954'>
    <tag k='name' v='Lägenhet, Bodsjöbränna'/>
    <tag k='source' v='stolavsleden.com'/>
    <tag k='network' v='St. Olavsleden'/>
    <tag k='note:trail' v='St. Olavsleden'/>
    <tag k='note:country' v='Sweden'/>
    <tag k='pilegrimsleden:poi_type' v='Boende'/>
    <tag k='stolavsleden:id' v='126468'/>
    <tag k='tourism' v='hostel'/>
  </node>
  <node id='-93' version='0' action='modify' visible='true' lat='62.8690670' lon='15.2724400'>
    <tag k='name' v='Mellgård, Grimnäsvägen'/>
    <tag k='source' v='stolavsleden.com'/>
    <tag k='network' v='St. Olavsleden'/>
    <tag k='note:trail' v='St. Olavsleden'/>
    <tag k='note:country' v='Sweden'/>
    <tag k='pilegrimsleden:poi_type' v='Boende'/>
    <tag k='stolavsleden:id' v='21408'/>
    <tag k='tourism' v='hostel'/>
  </node>
  <node id='-94' version='0' action='modify' visible='true' lat='62.5489496' lon='15.8348592'>
    <tag k='name' v='Mitt Musteri i Borgsjö'/>
    <tag k='source' v='stolavsleden.com'/>
    <tag k='network' v='St. Olavsleden'/>
    <tag k='note:trail' v='St. Olavsleden'/>
    <tag k='note:country' v='Sweden'/>
    <tag k='pilegrimsleden:poi_type' v='Boende'/>
    <tag k='stolavsleden:id' v='22162'/>
    <tag k='tourism' v='hostel'/>
  </node>
  <node id='-95' version='0' action='modify' visible='true' lat='62.8381959' lon='15.6792893'>
    <tag k='name' v='Mogården, Gimdalen'/>
    <tag k='source' v='stolavsleden.com'/>
    <tag k='network' v='St. Olavsleden'/>
    <tag k='note:trail' v='St. Olavsleden'/>
    <tag k='note:country' v='Sweden'/>
    <tag k='pilegrimsleden:poi_type' v='Boende'/>
    <tag k='stolavsleden:id' v='48308'/>
    <tag k='tourism' v='hostel'/>
  </node>
  <node id='-96' version='0' action='modify' visible='true' lat='63.3096018' lon='13.6509987'>
    <tag k='name' v='Mörsils Gamla Prästgård'/>
    <tag k='source' v='stolavsleden.com'/>
    <tag k='network' v='St. Olavsleden'/>
    <tag k='note:trail' v='St. Olavsleden'/>
    <tag k='note:country' v='Sweden'/>
    <tag k='pilegrimsleden:poi_type' v='Boende'/>
    <tag k='stolavsleden:id' v='94776'/>
    <tag k='tourism' v='hostel'/>
  </node>
  <node id='-97' version='0' action='modify' visible='true' lat='62.4976291' lon='16.1893352'>
    <tag k='name' v='Norrgården: boende i Fränsta '/>
    <tag k='source' v='stolavsleden.com'/>
    <tag k='network' v='St. Olavsleden'/>
    <tag k='note:trail' v='St. Olavsleden'/>
    <tag k='note:country' v='Sweden'/>
    <tag k='pilegrimsleden:poi_type' v='Boende'/>
    <tag k='stolavsleden:id' v='148873'/>
    <tag k='tourism' v='hostel'/>
  </node>
  <node id='-98' version='0' action='modify' visible='true' lat='63.3472130' lon='14.2515450'>
    <tag k='name' v='Nälden, Ishallen'/>
    <tag k='source' v='stolavsleden.com'/>
    <tag k='network' v='St. Olavsleden'/>
    <tag k='note:trail' v='St. Olavsleden'/>
    <tag k='note:country' v='Sweden'/>
    <tag k='pilegrimsleden:poi_type' v='Boende'/>
    <tag k='stolavsleden:id' v='21403'/>
    <tag k='tourism' v='hostel'/>
  </node>
  <node id='-99' version='0' action='modify' visible='true' lat='63.3403836' lon='14.2251069'>
    <tag k='name' v='Pilgrimskullen, Vaplan'/>
    <tag k='source' v='stolavsleden.com'/>
    <tag k='network' v='St. Olavsleden'/>
    <tag k='note:trail' v='St. Olavsleden'/>
    <tag k='note:country' v='Sweden'/>
    <tag k='pilegrimsleden:poi_type' v='Boende'/>
    <tag k='stolavsleden:id' v='26667'/>
    <tag k='tourism' v='hostel'/>
  </node>
  <node id='-100' version='0' action='modify' visible='true' lat='62.9564630' lon='15.0417580'>
    <tag k='name' v='Pilgrimstad Vandrarhem'/>
    <tag k='source' v='stolavsleden.com'/>
    <tag k='network' v='St. Olavsleden'/>
    <tag k='note:trail' v='St. Olavsleden'/>
    <tag k='note:country' v='Sweden'/>
    <tag k='pilegrimsleden:poi_type' v='Boende'/>
    <tag k='stolavsleden:id' v='21394'/>
    <tag k='tourism' v='hostel'/>
  </node>
  <node id='-101' version='0' action='modify' visible='true' lat='63.2336691' lon='14.4177860'>
    <tag k='name' v='Pilgrimsvila - Båthuset på Rödön'/>
    <tag k='source' v='stolavsleden.com'/>
    <tag k='network' v='St. Olavsleden'/>
    <tag k='note:trail' v='St. Olavsleden'/>
    <tag k='note:country' v='Sweden'/>
    <tag k='pilegrimsleden:poi_type' v='Boende'/>
    <tag k='stolavsleden:id' v='73477'/>
    <tag k='tourism' v='hostel'/>
  </node>
  <node id='-102' version='0' action='modify' visible='true' lat='63.3849764' lon='14.0084496'>
    <tag k='name' v='Pils gård, Alsen'/>
    <tag k='source' v='stolavsleden.com'/>
    <tag k='network' v='St. Olavsleden'/>
    <tag k='note:trail' v='St. Olavsleden'/>
    <tag k='note:country' v='Sweden'/>
    <tag k='pilegrimsleden:poi_type' v='Boende'/>
    <tag k='stolavsleden:id' v='138008'/>
    <tag k='tourism' v='hostel'/>
  </node>
  <node id='-103' version='0' action='modify' visible='true' lat='63.3017806' lon='13.6520562'>
    <tag k='name' v='Pizzaros, Mörsil'/>
    <tag k='source' v='stolavsleden.com'/>
    <tag k='network' v='St. Olavsleden'/>
    <tag k='note:trail' v='St. Olavsleden'/>
    <tag k='note:country' v='Sweden'/>
    <tag k='pilegrimsleden:poi_type' v='Boende'/>
    <tag k='stolavsleden:id' v='100370'/>
    <tag k='tourism' v='hostel'/>
  </node>
  <node id='-104' version='0' action='modify' visible='true' lat='63.6031524' lon='12.2284788'>
    <tag k='name' v='Rastplats med vindskydd'/>
    <tag k='source' v='stolavsleden.com'/>
    <tag k='network' v='St. Olavsleden'/>
    <tag k='note:trail' v='St. Olavsleden'/>
    <tag k='note:country' v='Sweden'/>
    <tag k='pilegrimsleden:poi_type' v='Vindskydd'/>
    <tag k='stolavsleden:id' v='27311'/>
    <tag k='amenity' v='shelter'/>
    <tag k='shelter_type' v='lean_to'/>
  </node>
  <node id='-105' version='0' action='modify' visible='true' lat='63.3835698' lon='13.9612977'>
    <tag k='name' v='Rastplats och badplats i Alsen'/>
    <tag k='source' v='stolavsleden.com'/>
    <tag k='network' v='St. Olavsleden'/>
    <tag k='note:trail' v='St. Olavsleden'/>
    <tag k='note:country' v='Sweden'/>
    <tag k='pilegrimsleden:poi_type' v='Vindskydd'/>
    <tag k='stolavsleden:id' v='22403'/>
    <tag k='amenity' v='shelter'/>
    <tag k='shelter_type' v='lean_to'/>
  </node>
  <node id='-106' version='0' action='modify' visible='true' lat='62.8872472' lon='15.2727925'>
    <tag k='name' v='Rastplats och dass i Slåttviken'/>
    <tag k='source' v='stolavsleden.com'/>
    <tag k='network' v='St. Olavsleden'/>
    <tag k='note:trail' v='St. Olavsleden'/>
    <tag k='note:country' v='Sweden'/>
    <tag k='pilegrimsleden:poi_type' v='Vindskydd'/>
    <tag k='stolavsleden:id' v='26772'/>
    <tag k='amenity' v='shelter'/>
    <tag k='shelter_type' v='lean_to'/>
  </node>
  <node id='-107' version='0' action='modify' visible='true' lat='62.9015192' lon='15.1239662'>
    <tag k='name' v='Revsunds Brewery &amp; Distillery'/>
    <tag k='source' v='stolavsleden.com'/>
    <tag k='network' v='St. Olavsleden'/>
    <tag k='note:trail' v='St. Olavsleden'/>
    <tag k='note:country' v='Sweden'/>
    <tag k='pilegrimsleden:poi_type' v='Campingplass'/>
    <tag k='stolavsleden:id' v='93642'/>
    <tag k='tourism' v='camp_site'/>
  </node>
  <node id='-108' version='0' action='modify' visible='true' lat='62.8993389' lon='15.1286735'>
    <tag k='name' v='Revsunds Prästgård'/>
    <tag k='source' v='stolavsleden.com'/>
    <tag k='network' v='St. Olavsleden'/>
    <tag k='note:trail' v='St. Olavsleden'/>
    <tag k='note:country' v='Sweden'/>
    <tag k='pilegrimsleden:poi_type' v='Boende'/>
    <tag k='stolavsleden:id' v='23781'/>
    <tag k='tourism' v='hostel'/>
  </node>
  <node id='-109' version='0' action='modify' visible='true' lat='62.9572900' lon='15.0341700'>
    <tag k='name' v='Ritas brygga, Pilgrimstad'/>
    <tag k='source' v='stolavsleden.com'/>
    <tag k='network' v='St. Olavsleden'/>
    <tag k='note:trail' v='St. Olavsleden'/>
    <tag k='note:country' v='Sweden'/>
    <tag k='pilegrimsleden:poi_type' v='Boende'/>
    <tag k='stolavsleden:id' v='21523'/>
    <tag k='tourism' v='hostel'/>
  </node>
  <node id='-110' version='0' action='modify' visible='true' lat='62.4894800' lon='16.2624000'>
    <tag k='name' v='Rombäck 611, Fränsta'/>
    <tag k='source' v='stolavsleden.com'/>
    <tag k='network' v='St. Olavsleden'/>
    <tag k='note:trail' v='St. Olavsleden'/>
    <tag k='note:country' v='Sweden'/>
    <tag k='pilegrimsleden:poi_type' v='Boende'/>
    <tag k='stolavsleden:id' v='21526'/>
    <tag k='tourism' v='hostel'/>
  </node>
  <node id='-111' version='0' action='modify' visible='true' lat='62.7378049' lon='15.4301922'>
    <tag k='name' v='Rum i Bräcke  +46734843566'/>
    <tag k='source' v='stolavsleden.com'/>
    <tag k='network' v='St. Olavsleden'/>
    <tag k='note:trail' v='St. Olavsleden'/>
    <tag k='note:country' v='Sweden'/>
    <tag k='pilegrimsleden:poi_type' v='Boende'/>
    <tag k='stolavsleden:id' v='122958'/>
    <tag k='tourism' v='hostel'/>
  </node>
  <node id='-112' version='0' action='modify' visible='true' lat='63.3558100' lon='14.0829300'>
    <tag k='name' v='Röde 301'/>
    <tag k='source' v='stolavsleden.com'/>
    <tag k='network' v='St. Olavsleden'/>
    <tag k='note:trail' v='St. Olavsleden'/>
    <tag k='note:country' v='Sweden'/>
    <tag k='pilegrimsleden:poi_type' v='Boende'/>
    <tag k='stolavsleden:id' v='21407'/>
    <tag k='tourism' v='hostel'/>
  </node>
  <node id='-113' version='0' action='modify' visible='true' lat='63.3546166' lon='14.0931588'>
    <tag k='name' v='Röde 585'/>
    <tag k='source' v='stolavsleden.com'/>
    <tag k='network' v='St. Olavsleden'/>
    <tag k='note:trail' v='St. Olavsleden'/>
    <tag k='note:country' v='Sweden'/>
    <tag k='pilegrimsleden:poi_type' v='Boende'/>
    <tag k='stolavsleden:id' v='21527'/>
    <tag k='tourism' v='hostel'/>
  </node>
  <node id='-114' version='0' action='modify' visible='true' lat='63.3890502' lon='14.0868967'>
    <tag k='name' v='Rödebuan Wilderness Camp'/>
    <tag k='source' v='stolavsleden.com'/>
    <tag k='network' v='St. Olavsleden'/>
    <tag k='note:trail' v='St. Olavsleden'/>
    <tag k='note:country' v='Sweden'/>
    <tag k='pilegrimsleden:poi_type' v='Boende'/>
    <tag k='stolavsleden:id' v='128390'/>
    <tag k='tourism' v='hostel'/>
  </node>
  <node id='-115' version='0' action='modify' visible='true' lat='63.2298169' lon='14.4667762'>
    <tag k='name' v='Rödösundet Acc. Rödön'/>
    <tag k='source' v='stolavsleden.com'/>
    <tag k='network' v='St. Olavsleden'/>
    <tag k='note:trail' v='St. Olavsleden'/>
    <tag k='note:country' v='Sweden'/>
    <tag k='pilegrimsleden:poi_type' v='Boende'/>
    <tag k='stolavsleden:id' v='21411'/>
    <tag k='tourism' v='hostel'/>
  </node>
  <node id='-116' version='0' action='modify' visible='true' lat='62.5302780' lon='15.8898250'>
    <tag k='name' v='Sara&apos;s Bed &amp; Breakfast, Erikslund'/>
    <tag k='source' v='stolavsleden.com'/>
    <tag k='network' v='St. Olavsleden'/>
    <tag k='note:trail' v='St. Olavsleden'/>
    <tag k='note:country' v='Sweden'/>
    <tag k='pilegrimsleden:poi_type' v='Boende'/>
    <tag k='stolavsleden:id' v='21510'/>
    <tag k='tourism' v='hostel'/>
  </node>
  <node id='-117' version='0' action='modify' visible='true' lat='63.5745969' lon='12.2752869'>
    <tag k='name' v='Skalstugan pensionat'/>
    <tag k='source' v='stolavsleden.com'/>
    <tag k='network' v='St. Olavsleden'/>
    <tag k='note:trail' v='St. Olavsleden'/>
    <tag k='note:country' v='Sweden'/>
    <tag k='pilegrimsleden:poi_type' v='Boende'/>
    <tag k='stolavsleden:id' v='21355'/>
    <tag k='tourism' v='hostel'/>
  </node>
  <node id='-118' version='0' action='modify' visible='true' lat='62.4936680' lon='16.2093560'>
    <tag k='name' v='Solbacken, Fränsta'/>
    <tag k='source' v='stolavsleden.com'/>
    <tag k='network' v='St. Olavsleden'/>
    <tag k='note:trail' v='St. Olavsleden'/>
    <tag k='note:country' v='Sweden'/>
    <tag k='pilegrimsleden:poi_type' v='Boende'/>
    <tag k='stolavsleden:id' v='21462'/>
    <tag k='tourism' v='hostel'/>
  </node>
  <node id='-119' version='0' action='modify' visible='true' lat='63.0046301' lon='14.9494159'>
    <tag k='name' v='St Olavs Cabin, Hållsta, Brunflo'/>
    <tag k='source' v='stolavsleden.com'/>
    <tag k='network' v='St. Olavsleden'/>
    <tag k='note:trail' v='St. Olavsleden'/>
    <tag k='note:country' v='Sweden'/>
    <tag k='pilegrimsleden:poi_type' v='Boende'/>
    <tag k='stolavsleden:id' v='122750'/>
    <tag k='tourism' v='hostel'/>
  </node>
  <node id='-120' version='0' action='modify' visible='true' lat='63.4695748' lon='12.5782990'>
    <tag k='name' v='Stalltjärnstugan'/>
    <tag k='source' v='stolavsleden.com'/>
    <tag k='network' v='St. Olavsleden'/>
    <tag k='note:trail' v='St. Olavsleden'/>
    <tag k='note:country' v='Sweden'/>
    <tag k='pilegrimsleden:poi_type' v='Boende'/>
    <tag k='stolavsleden:id' v='22108'/>
    <tag k='tourism' v='hostel'/>
  </node>
  <node id='-121' version='0' action='modify' visible='true' lat='63.3252871' lon='13.5367112'>
    <tag k='name' v='Strandbergs Bed and Breakfast'/>
    <tag k='source' v='stolavsleden.com'/>
    <tag k='network' v='St. Olavsleden'/>
    <tag k='note:trail' v='St. Olavsleden'/>
    <tag k='note:country' v='Sweden'/>
    <tag k='pilegrimsleden:poi_type' v='Boende'/>
    <tag k='stolavsleden:id' v='21420'/>
    <tag k='tourism' v='hostel'/>
  </node>
  <node id='-122' version='0' action='modify' visible='true' lat='63.0929276' lon='14.7928011'>
    <tag k='name' v='Stuga i Grytan'/>
    <tag k='source' v='stolavsleden.com'/>
    <tag k='network' v='St. Olavsleden'/>
    <tag k='note:trail' v='St. Olavsleden'/>
    <tag k='note:country' v='Sweden'/>
    <tag k='pilegrimsleden:poi_type' v='Boende'/>
    <tag k='stolavsleden:id' v='52580'/>
    <tag k='tourism' v='hostel'/>
  </node>
  <node id='-123' version='0' action='modify' visible='true' lat='62.7528133' lon='15.5026501'>
    <tag k='name' v='Stuga i Sösjö'/>
    <tag k='source' v='stolavsleden.com'/>
    <tag k='network' v='St. Olavsleden'/>
    <tag k='note:trail' v='St. Olavsleden'/>
    <tag k='note:country' v='Sweden'/>
    <tag k='pilegrimsleden:poi_type' v='Boende'/>
    <tag k='stolavsleden:id' v='26669'/>
    <tag k='tourism' v='hostel'/>
  </node>
  <node id='-124' version='0' action='modify' visible='true' lat='63.0241269' lon='14.9399164'>
    <tag k='name' v='Stuga Österböle 212, Balsta'/>
    <tag k='source' v='stolavsleden.com'/>
    <tag k='network' v='St. Olavsleden'/>
    <tag k='note:trail' v='St. Olavsleden'/>
    <tag k='note:country' v='Sweden'/>
    <tag k='pilegrimsleden:poi_type' v='Boende'/>
    <tag k='stolavsleden:id' v='70730'/>
    <tag k='tourism' v='hostel'/>
  </node>
  <node id='-125' version='0' action='modify' visible='true' lat='62.3676668' lon='16.8077664'>
    <tag k='name' v='Stuga, Lövåsen, Sörnedansjö'/>
    <tag k='source' v='stolavsleden.com'/>
    <tag k='network' v='St. Olavsleden'/>
    <tag k='note:trail' v='St. Olavsleden'/>
    <tag k='note:country' v='Sweden'/>
    <tag k='pilegrimsleden:poi_type' v='Boende'/>
    <tag k='stolavsleden:id' v='100362'/>
    <tag k='tourism' v='hostel'/>
  </node>
  <node id='-126' version='0' action='modify' visible='true' lat='63.4016795' lon='12.8280091'>
    <tag k='name' v='Stuga, Staa'/>
    <tag k='source' v='stolavsleden.com'/>
    <tag k='network' v='St. Olavsleden'/>
    <tag k='note:trail' v='St. Olavsleden'/>
    <tag k='note:country' v='Sweden'/>
    <tag k='pilegrimsleden:poi_type' v='Boende'/>
    <tag k='stolavsleden:id' v='103051'/>
    <tag k='tourism' v='hostel'/>
  </node>
  <node id='-127' version='0' action='modify' visible='true' lat='63.3099192' lon='13.3004200'>
    <tag k='name' v='Stuga, Undersåker'/>
    <tag k='source' v='stolavsleden.com'/>
    <tag k='network' v='St. Olavsleden'/>
    <tag k='note:trail' v='St. Olavsleden'/>
    <tag k='note:country' v='Sweden'/>
    <tag k='pilegrimsleden:poi_type' v='Boende'/>
    <tag k='stolavsleden:id' v='99673'/>
    <tag k='tourism' v='hostel'/>
  </node>
  <node id='-128' version='0' action='modify' visible='true' lat='63.2446149' lon='14.4266786'>
    <tag k='name' v='Stugor, Rödön'/>
    <tag k='source' v='stolavsleden.com'/>
    <tag k='network' v='St. Olavsleden'/>
    <tag k='note:trail' v='St. Olavsleden'/>
    <tag k='note:country' v='Sweden'/>
    <tag k='pilegrimsleden:poi_type' v='Boende'/>
    <tag k='stolavsleden:id' v='100812'/>
    <tag k='tourism' v='hostel'/>
  </node>
  <node id='-129' version='0' action='modify' visible='true' lat='62.9877224' lon='15.0042613'>
    <tag k='name' v='Svedje, Brunflo'/>
    <tag k='source' v='stolavsleden.com'/>
    <tag k='network' v='St. Olavsleden'/>
    <tag k='note:trail' v='St. Olavsleden'/>
    <tag k='note:country' v='Sweden'/>
    <tag k='pilegrimsleden:poi_type' v='Boende'/>
    <tag k='stolavsleden:id' v='73480'/>
    <tag k='tourism' v='hostel'/>
  </node>
  <node id='-130' version='0' action='modify' visible='true' lat='62.4022000' lon='16.6299250'>
    <tag k='name' v='Sweden4u - Usland, Stöde'/>
    <tag k='source' v='stolavsleden.com'/>
    <tag k='network' v='St. Olavsleden'/>
    <tag k='note:trail' v='St. Olavsleden'/>
    <tag k='note:country' v='Sweden'/>
    <tag k='pilegrimsleden:poi_type' v='Boende'/>
    <tag k='stolavsleden:id' v='21269'/>
    <tag k='tourism' v='hostel'/>
  </node>
  <node id='-131' version='0' action='modify' visible='true' lat='63.3878832' lon='13.9131374'>
    <tag k='name' v='Syster Ruths Hus, Alsen'/>
    <tag k='source' v='stolavsleden.com'/>
    <tag k='network' v='St. Olavsleden'/>
    <tag k='note:trail' v='St. Olavsleden'/>
    <tag k='note:country' v='Sweden'/>
    <tag k='pilegrimsleden:poi_type' v='Boende'/>
    <tag k='stolavsleden:id' v='22160'/>
    <tag k='tourism' v='hostel'/>
  </node>
  <node id='-132' version='0' action='modify' visible='true' lat='62.4840416' lon='16.1052997'>
    <tag k='name' v='Södra Gullgård, Fränsta'/>
    <tag k='source' v='stolavsleden.com'/>
    <tag k='network' v='St. Olavsleden'/>
    <tag k='note:trail' v='St. Olavsleden'/>
    <tag k='note:country' v='Sweden'/>
    <tag k='pilegrimsleden:poi_type' v='Boende'/>
    <tag k='stolavsleden:id' v='73516'/>
    <tag k='tourism' v='hostel'/>
  </node>
  <node id='-133' version='0' action='modify' visible='true' lat='62.3729267' lon='16.8513231'>
    <tag k='name' v='Sörnedansjö 149'/>
    <tag k='source' v='stolavsleden.com'/>
    <tag k='network' v='St. Olavsleden'/>
    <tag k='note:trail' v='St. Olavsleden'/>
    <tag k='note:country' v='Sweden'/>
    <tag k='pilegrimsleden:poi_type' v='Boende'/>
    <tag k='stolavsleden:id' v='73513'/>
    <tag k='tourism' v='hostel'/>
  </node>
  <node id='-134' version='0' action='modify' visible='true' lat='62.3596968' lon='17.0369883'>
    <tag k='name' v='Tuna Hembygdsgård'/>
    <tag k='source' v='stolavsleden.com'/>
    <tag k='network' v='St. Olavsleden'/>
    <tag k='note:trail' v='St. Olavsleden'/>
    <tag k='note:country' v='Sweden'/>
    <tag k='pilegrimsleden:poi_type' v='Teltplass'/>
    <tag k='stolavsleden:id' v='26702'/>
    <tag k='tourism' v='camp_site'/>
    <tag k='tents' v='yes'/>
  </node>
  <node id='-135' version='0' action='modify' visible='true' lat='62.5560610' lon='15.8581670'>
    <tag k='name' v='Tälje lantgårdshotell, Erikslund'/>
    <tag k='source' v='stolavsleden.com'/>
    <tag k='network' v='St. Olavsleden'/>
    <tag k='note:trail' v='St. Olavsleden'/>
    <tag k='note:country' v='Sweden'/>
    <tag k='pilegrimsleden:poi_type' v='Boende'/>
    <tag k='stolavsleden:id' v='21386'/>
    <tag k='tourism' v='hostel'/>
  </node>
  <node id='-136' version='0' action='modify' visible='true' lat='63.3153320' lon='13.5884260'>
    <tag k='name' v='Uppland, Måbragård, Mörsil'/>
    <tag k='source' v='stolavsleden.com'/>
    <tag k='network' v='St. Olavsleden'/>
    <tag k='note:trail' v='St. Olavsleden'/>
    <tag k='note:country' v='Sweden'/>
    <tag k='pilegrimsleden:poi_type' v='Boende'/>
    <tag k='stolavsleden:id' v='21419'/>
    <tag k='tourism' v='hostel'/>
  </node>
  <node id='-137' version='0' action='modify' visible='true' lat='63.3354870' lon='14.2126310'>
    <tag k='name' v='Vaplan, Vaplansgård'/>
    <tag k='source' v='stolavsleden.com'/>
    <tag k='network' v='St. Olavsleden'/>
    <tag k='note:trail' v='St. Olavsleden'/>
    <tag k='note:country' v='Sweden'/>
    <tag k='pilegrimsleden:poi_type' v='Boende'/>
    <tag k='stolavsleden:id' v='21414'/>
    <tag k='tourism' v='hostel'/>
  </node>
  <node id='-138' version='0' action='modify' visible='true' lat='62.4954864' lon='16.0492203'>
    <tag k='name' v='Vindskydd, grillplats, bänkar'/>
    <tag k='source' v='stolavsleden.com'/>
    <tag k='network' v='St. Olavsleden'/>
    <tag k='note:trail' v='St. Olavsleden'/>
    <tag k='note:country' v='Sweden'/>
    <tag k='pilegrimsleden:poi_type' v='Vindskydd'/>
    <tag k='stolavsleden:id' v='128545'/>
    <tag k='amenity' v='shelter'/>
    <tag k='shelter_type' v='lean_to'/>
  </node>
  <node id='-139' version='0' action='modify' visible='true' lat='62.4516723' lon='16.4163517'>
    <tag k='name' v='Viskansparken, Torpshammar'/>
    <tag k='source' v='stolavsleden.com'/>
    <tag k='network' v='St. Olavsleden'/>
    <tag k='note:trail' v='St. Olavsleden'/>
    <tag k='note:country' v='Sweden'/>
    <tag k='pilegrimsleden:poi_type' v='Boende'/>
    <tag k='stolavsleden:id' v='126464'/>
    <tag k='tourism' v='hostel'/>
  </node>
  <node id='-140' version='0' action='modify' visible='true' lat='63.3865840' lon='13.9522140'>
    <tag k='name' v='Wångens Wärdshus, Alsen'/>
    <tag k='source' v='stolavsleden.com'/>
    <tag k='network' v='St. Olavsleden'/>
    <tag k='note:trail' v='St. Olavsleden'/>
    <tag k='note:country' v='Sweden'/>
    <tag k='pilegrimsleden:poi_type' v='Boende'/>
    <tag k='stolavsleden:id' v='21486'/>
    <tag k='tourism' v='hostel'/>
  </node>
  <node id='-141' version='0' action='modify' visible='true' lat='63.3518520' lon='13.1861150'>
    <tag k='name' v='Åre Camping och stugor'/>
    <tag k='source' v='stolavsleden.com'/>
    <tag k='network' v='St. Olavsleden'/>
    <tag k='note:trail' v='St. Olavsleden'/>
    <tag k='note:country' v='Sweden'/>
    <tag k='pilegrimsleden:poi_type' v='Boende'/>
    <tag k='stolavsleden:id' v='21438'/>
    <tag k='tourism' v='hostel'/>
  </node>
  <node id='-142' version='0' action='modify' visible='true' lat='63.3239017' lon='13.3635125'>
    <tag k='name' v='Åredalens Fjällgård'/>
    <tag k='source' v='stolavsleden.com'/>
    <tag k='network' v='St. Olavsleden'/>
    <tag k='note:trail' v='St. Olavsleden'/>
    <tag k='note:country' v='Sweden'/>
    <tag k='pilegrimsleden:poi_type' v='Boende'/>
    <tag k='stolavsleden:id' v='52581'/>
    <tag k='tourism' v='hostel'/>
  </node>
  <node id='-143' version='0' action='modify' visible='true' lat='63.3149667' lon='13.6850861'>
    <tag k='name' v='Åsans pilgrimsboende, Mörsil'/>
    <tag k='source' v='stolavsleden.com'/>
    <tag k='network' v='St. Olavsleden'/>
    <tag k='note:trail' v='St. Olavsleden'/>
    <tag k='note:country' v='Sweden'/>
    <tag k='pilegrimsleden:poi_type' v='Boende'/>
    <tag k='stolavsleden:id' v='99226'/>
    <tag k='tourism' v='hostel'/>
  </node>
  <node id='-144' version='0' action='modify' visible='true' lat='62.4930528' lon='16.1694849'>
    <tag k='name' v='Badplats vid hamn'/>
    <tag k='source' v='stolavsleden.com'/>
    <tag k='network' v='St. Olavsleden'/>
    <tag k='note:trail' v='St. Olavsleden'/>
    <tag k='note:country' v='Sweden'/>
    <tag k='pilegrimsleden:poi_type' v='Vindskydd'/>
    <tag k='stolavsleden:id' v='26764'/>
    <tag k='amenity' v='shelter'/>
    <tag k='shelter_type' v='lean_to'/>
  </node>
  <node id='-145' version='0' action='modify' visible='true' lat='63.3101537' lon='13.6474975'>
    <tag k='name' v='Brinkeboda, Mörsil'/>
    <tag k='source' v='stolavsleden.com'/>
    <tag k='network' v='St. Olavsleden'/>
    <tag k='note:trail' v='St. Olavsleden'/>
    <tag k='note:country' v='Sweden'/>
    <tag k='pilegrimsleden:poi_type' v='Boende'/>
    <tag k='stolavsleden:id' v='74998'/>
    <tag k='tourism' v='hostel'/>
  </node>
  <node id='-146' version='0' action='modify' visible='true' lat='62.4805636' lon='16.2960852'>
    <tag k='name' v='Camp Midadventure, Torpshammar'/>
    <tag k='source' v='stolavsleden.com'/>
    <tag k='network' v='St. Olavsleden'/>
    <tag k='note:trail' v='St. Olavsleden'/>
    <tag k='note:country' v='Sweden'/>
    <tag k='pilegrimsleden:poi_type' v='Boende'/>
    <tag k='stolavsleden:id' v='21381'/>
    <tag k='tourism' v='hostel'/>
  </node>
  <node id='-147' version='0' action='modify' visible='true' lat='63.4069686' lon='13.8122597'>
    <tag k='name' v='Camp Östbacken, Kluk'/>
    <tag k='source' v='stolavsleden.com'/>
    <tag k='network' v='St. Olavsleden'/>
    <tag k='note:trail' v='St. Olavsleden'/>
    <tag k='note:country' v='Sweden'/>
    <tag k='pilegrimsleden:poi_type' v='Boende'/>
    <tag k='stolavsleden:id' v='72202'/>
    <tag k='tourism' v='hostel'/>
  </node>
  <node id='-148' version='0' action='modify' visible='true' lat='63.3924820' lon='12.8744620'>
    <tag k='name' v='Duvedsbyn, Millestgården'/>
    <tag k='source' v='stolavsleden.com'/>
    <tag k='network' v='St. Olavsleden'/>
    <tag k='note:trail' v='St. Olavsleden'/>
    <tag k='note:country' v='Sweden'/>
    <tag k='pilegrimsleden:poi_type' v='Boende'/>
    <tag k='stolavsleden:id' v='21442'/>
    <tag k='tourism' v='hostel'/>
  </node>
  <node id='-149' version='0' action='modify' visible='true' lat='62.3905870' lon='17.3110720'>
    <tag k='name' v='Elite Hotel Knaust, Sundsvall'/>
    <tag k='source' v='stolavsleden.com'/>
    <tag k='network' v='St. Olavsleden'/>
    <tag k='note:trail' v='St. Olavsleden'/>
    <tag k='note:country' v='Sweden'/>
    <tag k='pilegrimsleden:poi_type' v='Boende'/>
    <tag k='stolavsleden:id' v='21478'/>
    <tag k='tourism' v='hostel'/>
  </node>
  <node id='-150' version='0' action='modify' visible='true' lat='63.1923640' lon='14.4869650'>
    <tag k='name' v='Frösö Park Hotel'/>
    <tag k='source' v='stolavsleden.com'/>
    <tag k='network' v='St. Olavsleden'/>
    <tag k='note:trail' v='St. Olavsleden'/>
    <tag k='note:country' v='Sweden'/>
    <tag k='pilegrimsleden:poi_type' v='Boende'/>
    <tag k='stolavsleden:id' v='21401'/>
    <tag k='tourism' v='hostel'/>
  </node>
  <node id='-151' version='0' action='modify' visible='true' lat='63.3162252' lon='13.2365266'>
    <tag k='name' v='Gårdshuset Vandrarhem, Undersåker'/>
    <tag k='source' v='stolavsleden.com'/>
    <tag k='network' v='St. Olavsleden'/>
    <tag k='note:trail' v='St. Olavsleden'/>
    <tag k='note:country' v='Sweden'/>
    <tag k='pilegrimsleden:poi_type' v='Boende'/>
    <tag k='stolavsleden:id' v='52579'/>
    <tag k='tourism' v='hostel'/>
  </node>
  <node id='-152' version='0' action='modify' visible='true' lat='63.1781461' lon='14.6369141'>
    <tag k='name' v='Hotell Emma, Östersund'/>
    <tag k='source' v='stolavsleden.com'/>
    <tag k='network' v='St. Olavsleden'/>
    <tag k='note:trail' v='St. Olavsleden'/>
    <tag k='note:country' v='Sweden'/>
    <tag k='pilegrimsleden:poi_type' v='Boende'/>
    <tag k='stolavsleden:id' v='25635'/>
    <tag k='tourism' v='hostel'/>
  </node>
  <node id='-153' version='0' action='modify' visible='true' lat='63.3214850' lon='13.3610220'>
    <tag k='name' v='Hållandsgården'/>
    <tag k='source' v='stolavsleden.com'/>
    <tag k='network' v='St. Olavsleden'/>
    <tag k='note:trail' v='St. Olavsleden'/>
    <tag k='note:country' v='Sweden'/>
    <tag k='pilegrimsleden:poi_type' v='Boende'/>
    <tag k='stolavsleden:id' v='21431'/>
    <tag k='tourism' v='hostel'/>
  </node>
  <node id='-154' version='0' action='modify' visible='true' lat='63.3164487' lon='13.3526767'>
    <tag k='name' v='Hållandsgårdens Pilgrimsstuga'/>
    <tag k='source' v='stolavsleden.com'/>
    <tag k='network' v='St. Olavsleden'/>
    <tag k='note:trail' v='St. Olavsleden'/>
    <tag k='note:country' v='Sweden'/>
    <tag k='pilegrimsleden:poi_type' v='Raststuga'/>
    <tag k='stolavsleden:id' v='122705'/>
    <tag k='tourism' v='wilderness_hut'/>
  </node>
  <node id='-155' version='0' action='modify' visible='true' lat='63.1875010' lon='14.6366430'>
    <tag k='name' v='Jamtli Vandrarhem, Östersund'/>
    <tag k='source' v='stolavsleden.com'/>
    <tag k='network' v='St. Olavsleden'/>
    <tag k='note:trail' v='St. Olavsleden'/>
    <tag k='note:country' v='Sweden'/>
    <tag k='pilegrimsleden:poi_type' v='Boende'/>
    <tag k='stolavsleden:id' v='21484'/>
    <tag k='tourism' v='hostel'/>
  </node>
  <node id='-156' version='0' action='modify' visible='true' lat='63.1620000' lon='14.6572588'>
    <tag k='name' v='Multi Challenge Hostel, Östersund'/>
    <tag k='source' v='stolavsleden.com'/>
    <tag k='network' v='St. Olavsleden'/>
    <tag k='note:trail' v='St. Olavsleden'/>
    <tag k='note:country' v='Sweden'/>
    <tag k='pilegrimsleden:poi_type' v='Boende'/>
    <tag k='stolavsleden:id' v='73514'/>
    <tag k='tourism' v='hostel'/>
  </node>
  <node id='-157' version='0' action='modify' visible='true' lat='62.3863000' lon='17.3066900'>
    <tag k='name' v='Quality Hotel Sundsvall'/>
    <tag k='source' v='stolavsleden.com'/>
    <tag k='network' v='St. Olavsleden'/>
    <tag k='note:trail' v='St. Olavsleden'/>
    <tag k='note:country' v='Sweden'/>
    <tag k='pilegrimsleden:poi_type' v='Boende'/>
    <tag k='stolavsleden:id' v='21505'/>
    <tag k='tourism' v='hostel'/>
  </node>
  <node id='-158' version='0' action='modify' visible='true' lat='63.3161258' lon='13.2746848'>
    <tag k='name' v='STF Södergården Vandrarhem Åre'/>
    <tag k='source' v='stolavsleden.com'/>
    <tag k='network' v='St. Olavsleden'/>
    <tag k='note:trail' v='St. Olavsleden'/>
    <tag k='note:country' v='Sweden'/>
    <tag k='pilegrimsleden:poi_type' v='Boende'/>
    <tag k='stolavsleden:id' v='20175'/>
    <tag k='tourism' v='hostel'/>
  </node>
  <node id='-159' version='0' action='modify' visible='true' lat='63.1781880' lon='14.6456800'>
    <tag k='name' v='STF Östersund Ledkrysset'/>
    <tag k='source' v='stolavsleden.com'/>
    <tag k='network' v='St. Olavsleden'/>
    <tag k='note:trail' v='St. Olavsleden'/>
    <tag k='note:country' v='Sweden'/>
    <tag k='pilegrimsleden:poi_type' v='Boende'/>
    <tag k='stolavsleden:id' v='21397'/>
    <tag k='tourism' v='hostel'/>
  </node>
  <node id='-160' version='0' action='modify' visible='true' lat='63.0798590' lon='14.8278864'>
    <tag k='name' v='Stuga i Brunflo'/>
    <tag k='source' v='stolavsleden.com'/>
    <tag k='network' v='St. Olavsleden'/>
    <tag k='note:trail' v='St. Olavsleden'/>
    <tag k='note:country' v='Sweden'/>
    <tag k='pilegrimsleden:poi_type' v='Boende'/>
    <tag k='stolavsleden:id' v='72671'/>
    <tag k='tourism' v='hostel'/>
  </node>
  <node id='-161' version='0' action='modify' visible='true' lat='62.3913390' lon='17.3107360'>
    <tag k='name' v='Sundsvall City Hotel'/>
    <tag k='source' v='stolavsleden.com'/>
    <tag k='network' v='St. Olavsleden'/>
    <tag k='note:trail' v='St. Olavsleden'/>
    <tag k='note:country' v='Sweden'/>
    <tag k='pilegrimsleden:poi_type' v='Boende'/>
    <tag k='stolavsleden:id' v='21479'/>
    <tag k='tourism' v='hostel'/>
  </node>
  <node id='-162' version='0' action='modify' visible='true' lat='63.0967410' lon='14.7913960'>
    <tag k='name' v='Sörbygården Bed &amp; Breakfast, Brunflo'/>
    <tag k='source' v='stolavsleden.com'/>
    <tag k='network' v='St. Olavsleden'/>
    <tag k='note:trail' v='St. Olavsleden'/>
    <tag k='note:country' v='Sweden'/>
    <tag k='pilegrimsleden:poi_type' v='Boende'/>
    <tag k='stolavsleden:id' v='21395'/>
    <tag k='tourism' v='hostel'/>
  </node>
  <node id='-163' version='0' action='modify' visible='true' lat='62.4719890' lon='16.3313860'>
    <tag k='name' v='Torpshammars Herrgård'/>
    <tag k='source' v='stolavsleden.com'/>
    <tag k='network' v='St. Olavsleden'/>
    <tag k='note:trail' v='St. Olavsleden'/>
    <tag k='note:country' v='Sweden'/>
    <tag k='pilegrimsleden:poi_type' v='Boende'/>
    <tag k='stolavsleden:id' v='21508'/>
    <tag k='tourism' v='hostel'/>
  </node>
  <node id='-164' version='0' action='modify' visible='true' lat='62.7474252' lon='15.4184561'>
    <tag k='name' v='Tältplats Bräcke Båthamn'/>
    <tag k='source' v='stolavsleden.com'/>
    <tag k='network' v='St. Olavsleden'/>
    <tag k='note:trail' v='St. Olavsleden'/>
    <tag k='note:country' v='Sweden'/>
    <tag k='pilegrimsleden:poi_type' v='Boende'/>
    <tag k='stolavsleden:id' v='70283'/>
    <tag k='tourism' v='hostel'/>
  </node>
  <node id='-165' version='0' action='modify' visible='true' lat='63.3973780' lon='13.0912520'>
    <tag k='name' v='Åre B&amp;B'/>
    <tag k='source' v='stolavsleden.com'/>
    <tag k='network' v='St. Olavsleden'/>
    <tag k='note:trail' v='St. Olavsleden'/>
    <tag k='note:country' v='Sweden'/>
    <tag k='pilegrimsleden:poi_type' v='Boende'/>
    <tag k='stolavsleden:id' v='21439'/>
    <tag k='tourism' v='hostel'/>
  </node>
  <node id='-166' version='0' action='modify' visible='true' lat='63.4002390' lon='13.0767370'>
    <tag k='name' v='Åre, Gästhuset'/>
    <tag k='source' v='stolavsleden.com'/>
    <tag k='network' v='St. Olavsleden'/>
    <tag k='note:trail' v='St. Olavsleden'/>
    <tag k='note:country' v='Sweden'/>
    <tag k='pilegrimsleden:poi_type' v='Boende'/>
    <tag k='stolavsleden:id' v='21441'/>
    <tag k='tourism' v='hostel'/>
  </node>
  <node id='-167' version='0' action='modify' visible='true' lat='62.5436437' lon='15.8595424'>
    <tag k='name' v='Öyegården Treat &amp; Retreat, Erikslund'/>
    <tag k='source' v='stolavsleden.com'/>
    <tag k='network' v='St. Olavsleden'/>
    <tag k='note:trail' v='St. Olavsleden'/>
    <tag k='note:country' v='Sweden'/>
    <tag k='pilegrimsleden:poi_type' v='Boende'/>
    <tag k='stolavsleden:id' v='22135'/>
    <tag k='tourism' v='hostel'/>
  </node>
  <node id='-168' version='0' action='modify' visible='true' lat='63.1721300' lon='14.5402100'>
    <tag k='name' v='Frösö Stugby &amp; Camping'/>
    <tag k='source' v='stolavsleden.com'/>
    <tag k='network' v='St. Olavsleden'/>
    <tag k='note:trail' v='St. Olavsleden'/>
    <tag k='note:country' v='Sweden'/>
    <tag k='pilegrimsleden:poi_type' v='Boende'/>
    <tag k='stolavsleden:id' v='21399'/>
    <tag k='tourism' v='hostel'/>
  </node>
  <node id='-169' version='0' action='modify' visible='true' lat='62.6835590' lon='15.6095120'>
    <tag k='name' v='Harrsjöstugan'/>
    <tag k='source' v='stolavsleden.com'/>
    <tag k='network' v='St. Olavsleden'/>
    <tag k='note:trail' v='St. Olavsleden'/>
    <tag k='note:country' v='Sweden'/>
    <tag k='pilegrimsleden:poi_type' v='Boende'/>
    <tag k='stolavsleden:id' v='21501'/>
    <tag k='tourism' v='hostel'/>
  </node>
  <node id='-170' version='0' action='modify' visible='true' lat='62.4157215' lon='16.5641864'>
    <tag k='name' v='Huberget. Café och vandrarhem, Stöde'/>
    <tag k='source' v='stolavsleden.com'/>
    <tag k='network' v='St. Olavsleden'/>
    <tag k='note:trail' v='St. Olavsleden'/>
    <tag k='note:country' v='Sweden'/>
    <tag k='pilegrimsleden:poi_type' v='Boende'/>
    <tag k='stolavsleden:id' v='26710'/>
    <tag k='tourism' v='hostel'/>
  </node>
  <node id='-171' version='0' action='modify' visible='true' lat='62.3585560' lon='17.3699921'>
    <tag k='name' v='Liz Motell, Sundsvall'/>
    <tag k='source' v='stolavsleden.com'/>
    <tag k='network' v='St. Olavsleden'/>
    <tag k='note:trail' v='St. Olavsleden'/>
    <tag k='note:country' v='Sweden'/>
    <tag k='pilegrimsleden:poi_type' v='Boende'/>
    <tag k='stolavsleden:id' v='142728'/>
    <tag k='tourism' v='hostel'/>
  </node>
  <node id='-172' version='0' action='modify' visible='true' lat='63.3534862' lon='14.2527971'>
    <tag k='name' v='Lornsgården, Nälden'/>
    <tag k='source' v='stolavsleden.com'/>
    <tag k='network' v='St. Olavsleden'/>
    <tag k='note:trail' v='St. Olavsleden'/>
    <tag k='note:country' v='Sweden'/>
    <tag k='pilegrimsleden:poi_type' v='Boende'/>
    <tag k='stolavsleden:id' v='103097'/>
    <tag k='tourism' v='hostel'/>
  </node>
  <node id='-173' version='0' action='modify' visible='true' lat='63.3947961' lon='12.9665351'>
    <tag k='name' v='Rastplats Tegeforsen'/>
    <tag k='source' v='stolavsleden.com'/>
    <tag k='network' v='St. Olavsleden'/>
    <tag k='note:trail' v='St. Olavsleden'/>
    <tag k='note:country' v='Sweden'/>
    <tag k='pilegrimsleden:poi_type' v='Vindskydd'/>
    <tag k='stolavsleden:id' v='26844'/>
    <tag k='amenity' v='shelter'/>
    <tag k='shelter_type' v='lean_to'/>
  </node>
  <node id='-174' version='0' action='modify' visible='true' lat='63.3467086' lon='13.4703847'>
    <tag k='name' v='Röjsmons vandrarhem, Järpen'/>
    <tag k='source' v='stolavsleden.com'/>
    <tag k='network' v='St. Olavsleden'/>
    <tag k='note:trail' v='St. Olavsleden'/>
    <tag k='note:country' v='Sweden'/>
    <tag k='pilegrimsleden:poi_type' v='Boende'/>
    <tag k='stolavsleden:id' v='22194'/>
    <tag k='tourism' v='hostel'/>
  </node>
  <node id='-175' version='0' action='modify' visible='true' lat='63.1799259' lon='14.5190008'>
    <tag k='name' v='Stuga, Frösön'/>
    <tag k='source' v='stolavsleden.com'/>
    <tag k='network' v='St. Olavsleden'/>
    <tag k='note:trail' v='St. Olavsleden'/>
    <tag k='note:country' v='Sweden'/>
    <tag k='pilegrimsleden:poi_type' v='Boende'/>
    <tag k='stolavsleden:id' v='140529'/>
    <tag k='tourism' v='hostel'/>
  </node>
  <node id='-176' version='0' action='modify' visible='true' lat='63.1600690' lon='14.6727560'>
    <tag k='name' v='Östersunds Stugby &amp; Camping'/>
    <tag k='source' v='stolavsleden.com'/>
    <tag k='network' v='St. Olavsleden'/>
    <tag k='note:trail' v='St. Olavsleden'/>
    <tag k='note:country' v='Sweden'/>
    <tag k='pilegrimsleden:poi_type' v='Boende'/>
    <tag k='stolavsleden:id' v='21396'/>
    <tag k='tourism' v='hostel'/>
  </node>
</osm>
