<?xml version="1.0" encoding="UTF-8"?>
<gpx version="1.1" creator="pilegrimsleden-osm-extractor 1.0" xmlns="http://www.topografix.com/GPX/1/1">
  <trk><name>Östra Sigfridsleden</name><trkseg>
    <trkpt lat="56.6742423" lon="15.9974295"></trkpt>
    <trkpt lat="56.6745933" lon="15.9977693"></trkpt>
    <trkpt lat="56.6753843" lon="15.9984972"></trkpt>
    <trkpt lat="56.6759087" lon="15.9988208"></trkpt>
    <trkpt lat="56.6764152" lon="15.9991443"></trkpt>
    <trkpt lat="56.6766019" lon="15.9992899"></trkpt>
    <trkpt lat="56.6766463" lon="15.9995164"></trkpt>
    <trkpt lat="56.6766022" lon="16.0002512"></trkpt>
    <trkpt lat="56.6759243" lon="16.0003199"></trkpt>
    <trkpt lat="56.6752465" lon="16.0003887"></trkpt>
    <trkpt lat="56.6745686" lon="16.0004574"></trkpt>
    <trkpt lat="56.6738872" lon="16.0005239"></trkpt>
    <trkpt lat="56.6732059" lon="16.0005903"></trkpt>
    <trkpt lat="56.6725283" lon="16.0010747"></trkpt>
    <trkpt lat="56.6720782" lon="16.0012204"></trkpt>
    <trkpt lat="56.6718382" lon="16.0014388"></trkpt>
    <trkpt lat="56.6713481" lon="16.0014752"></trkpt>
    <trkpt lat="56.6708580" lon="16.0012204"></trkpt>
    <trkpt lat="56.6702170" lon="16.0008250"></trkpt>
    <trkpt lat="56.6695760" lon="16.0004296"></trkpt>
    <trkpt lat="56.6690858" lon="16.0006117"></trkpt>
    <trkpt lat="56.6683156" lon="16.0008483"></trkpt>
    <trkpt lat="56.6677054" lon="16.0002658"></trkpt>
    <trkpt lat="56.6670302" lon="15.9995285"></trkpt>
    <trkpt lat="56.6663549" lon="15.9987912"></trkpt>
    <trkpt lat="56.6658740" lon="15.9988801"></trkpt>
    <trkpt lat="56.6653932" lon="15.9989691"></trkpt>
    <trkpt lat="56.6649145" lon="16.0000086"></trkpt>
    <trkpt lat="56.6647535" lon="16.0003219"></trkpt>
    <trkpt lat="56.6645829" lon="16.0006072"></trkpt>
    <trkpt lat="56.6642203" lon="16.0011128"></trkpt>
    <trkpt lat="56.6635858" lon="16.0019215"></trkpt>
    <trkpt lat="56.6629513" lon="16.0027303"></trkpt>
    <trkpt lat="56.6623943" lon="16.0034438"></trkpt>
    <trkpt lat="56.6618373" lon="16.0041573"></trkpt>
    <trkpt lat="56.6612803" lon="16.0048708"></trkpt>
    <trkpt lat="56.6607233" lon="16.0055843"></trkpt>
    <trkpt lat="56.6604549" lon="16.0058707"></trkpt>
    <trkpt lat="56.6602813" lon="16.0060158"></trkpt>
    <trkpt lat="56.6600478" lon="16.0061668"></trkpt>
    <trkpt lat="56.6597690" lon="16.0062824"></trkpt>
    <trkpt lat="56.6595707" lon="16.0063161"></trkpt>
    <trkpt lat="56.6593305" lon="16.0063115"></trkpt>
    <trkpt lat="56.6590575" lon="16.0062517"></trkpt>
    <trkpt lat="56.6585176" lon="16.0060194"></trkpt>
    <trkpt lat="56.6582104" lon="16.0059366"></trkpt>
    <trkpt lat="56.6578886" lon="16.0059145"></trkpt>
    <trkpt lat="56.6577603" lon="16.0059230"></trkpt>
    <trkpt lat="56.6574777" lon="16.0060047"></trkpt>
    <trkpt lat="56.6572547" lon="16.0061022"></trkpt>
    <trkpt lat="56.6570314" lon="16.0062249"></trkpt>
    <trkpt lat="56.6567603" lon="16.0064196"></trkpt>
    <trkpt lat="56.6564481" lon="16.0067531"></trkpt>
    <trkpt lat="56.6562572" lon="16.0070084"></trkpt>
    <trkpt lat="56.6560844" lon="16.0072806"></trkpt>
    <trkpt lat="56.6559559" lon="16.0075229"></trkpt>
    <trkpt lat="56.6558463" lon="16.0077537"></trkpt>
    <trkpt lat="56.6554488" lon="16.0087137"></trkpt>
    <trkpt lat="56.6551055" lon="16.0094747"></trkpt>
    <trkpt lat="56.6549647" lon="16.0097053"></trkpt>
    <trkpt lat="56.6547273" lon="16.0099710"></trkpt>
    <trkpt lat="56.6545073" lon="16.0101619"></trkpt>
    <trkpt lat="56.6542772" lon="16.0103045"></trkpt>
    <trkpt lat="56.6540231" lon="16.0104218"></trkpt>
    <trkpt lat="56.6537285" lon="16.0105069"></trkpt>
    <trkpt lat="56.6534971" lon="16.0105966"></trkpt>
    <trkpt lat="56.6533341" lon="16.0106877"></trkpt>
    <trkpt lat="56.6531595" lon="16.0108221"></trkpt>
    <trkpt lat="56.6529987" lon="16.0109831"></trkpt>
    <trkpt lat="56.6527916" lon="16.0112522"></trkpt>
    <trkpt lat="56.6525962" lon="16.0115426"></trkpt>
    <trkpt lat="56.6524034" lon="16.0117628"></trkpt>
    <trkpt lat="56.6521888" lon="16.0119161"></trkpt>
    <trkpt lat="56.6520456" lon="16.0119790"></trkpt>
    <trkpt lat="56.6519001" lon="16.0120087"></trkpt>
    <trkpt lat="56.6516028" lon="16.0119918"></trkpt>
    <trkpt lat="56.6514921" lon="16.0119598"></trkpt>
    <trkpt lat="56.6513274" lon="16.0118732"></trkpt>
    <trkpt lat="56.6509240" lon="16.0115949"></trkpt>
    <trkpt lat="56.6506027" lon="16.0114098"></trkpt>
    <trkpt lat="56.6505105" lon="16.0113567"></trkpt>
    <trkpt lat="56.6497494" lon="16.0112489"></trkpt>
    <trkpt lat="56.6489883" lon="16.0111410"></trkpt>
    <trkpt lat="56.6486845" lon="16.0111027"></trkpt>
    <trkpt lat="56.6483898" lon="16.0111454"></trkpt>
    <trkpt lat="56.6481130" lon="16.0112798"></trkpt>
    <trkpt lat="56.6478563" lon="16.0114776"></trkpt>
    <trkpt lat="56.6471668" lon="16.0120982"></trkpt>
    <trkpt lat="56.6469167" lon="16.0123125"></trkpt>
    <trkpt lat="56.6466909" lon="16.0125520"></trkpt>
    <trkpt lat="56.6465159" lon="16.0128425"></trkpt>
    <trkpt lat="56.6463312" lon="16.0132155"></trkpt>
    <trkpt lat="56.6461670" lon="16.0136367"></trkpt>
    <trkpt lat="56.6461237" lon="16.0137478"></trkpt>
    <trkpt lat="56.6459309" lon="16.0142970"></trkpt>
    <trkpt lat="56.6454437" lon="16.0156270"></trkpt>
    <trkpt lat="56.6451932" lon="16.0163257"></trkpt>
    <trkpt lat="56.6449097" lon="16.0170991"></trkpt>
    <trkpt lat="56.6446360" lon="16.0177439"></trkpt>
    <trkpt lat="56.6440298" lon="16.0189379"></trkpt>
    <trkpt lat="56.6434235" lon="16.0201319"></trkpt>
    <trkpt lat="56.6430340" lon="16.0209027"></trkpt>
    <trkpt lat="56.6426446" lon="16.0216734"></trkpt>
    <trkpt lat="56.6424536" lon="16.0220214"></trkpt>
    <trkpt lat="56.6422450" lon="16.0223448"></trkpt>
    <trkpt lat="56.6418415" lon="16.0228587"></trkpt>
    <trkpt lat="56.6412432" lon="16.0236016"></trkpt>
    <trkpt lat="56.6408733" lon="16.0241251"></trkpt>
    <trkpt lat="56.6405035" lon="16.0246485"></trkpt>
    <trkpt lat="56.6398286" lon="16.0256371"></trkpt>
    <trkpt lat="56.6391538" lon="16.0266258"></trkpt>
    <trkpt lat="56.6384789" lon="16.0276144"></trkpt>
    <trkpt lat="56.6378041" lon="16.0286030"></trkpt>
    <trkpt lat="56.6374195" lon="16.0291634"></trkpt>
    <trkpt lat="56.6370349" lon="16.0297239"></trkpt>
    <trkpt lat="56.6367301" lon="16.0300466"></trkpt>
    <trkpt lat="56.6364165" lon="16.0303226"></trkpt>
    <trkpt lat="56.6361053" lon="16.0305388"></trkpt>
    <trkpt lat="56.6356779" lon="16.0306914"></trkpt>
    <trkpt lat="56.6353551" lon="16.0307297"></trkpt>
    <trkpt lat="56.6347720" lon="16.0307251"></trkpt>
    <trkpt lat="56.6341836" lon="16.0307024"></trkpt>
    <trkpt lat="56.6338422" lon="16.0307370"></trkpt>
    <trkpt lat="56.6335244" lon="16.0308392"></trkpt>
    <trkpt lat="56.6331709" lon="16.0309982"></trkpt>
    <trkpt lat="56.6326213" lon="16.0312454"></trkpt>
    <trkpt lat="56.6322916" lon="16.0314453"></trkpt>
    <trkpt lat="56.6320358" lon="16.0316827"></trkpt>
    <trkpt lat="56.6313690" lon="16.0325249"></trkpt>
    <trkpt lat="56.6310916" lon="16.0328173"></trkpt>
    <trkpt lat="56.6308070" lon="16.0330549"></trkpt>
    <trkpt lat="56.6304720" lon="16.0332733"></trkpt>
    <trkpt lat="56.6301237" lon="16.0334904"></trkpt>
    <trkpt lat="56.6298582" lon="16.0336429"></trkpt>
    <trkpt lat="56.6292209" lon="16.0340565"></trkpt>
    <trkpt lat="56.6287458" lon="16.0344776"></trkpt>
    <trkpt lat="56.6283173" lon="16.0348977"></trkpt>
    <trkpt lat="56.6279344" lon="16.0352769"></trkpt>
    <trkpt lat="56.6276496" lon="16.0355895"></trkpt>
    <trkpt lat="56.6272453" lon="16.0360815"></trkpt>
    <trkpt lat="56.6268876" lon="16.0365650"></trkpt>
    <trkpt lat="56.6266671" lon="16.0369297"></trkpt>
    <trkpt lat="56.6264492" lon="16.0373421"></trkpt>
    <trkpt lat="56.6263985" lon="16.0374428"></trkpt>
    <trkpt lat="56.6261982" lon="16.0378411"></trkpt>
    <trkpt lat="56.6259304" lon="16.0383536"></trkpt>
    <trkpt lat="56.6255317" lon="16.0390183"></trkpt>
    <trkpt lat="56.6253038" lon="16.0394240"></trkpt>
    <trkpt lat="56.6251864" lon="16.0396967"></trkpt>
    <trkpt lat="56.6250932" lon="16.0399404"></trkpt>
    <trkpt lat="56.6248646" lon="16.0405487"></trkpt>
    <trkpt lat="56.6247949" lon="16.0407344"></trkpt>
    <trkpt lat="56.6247615" lon="16.0408209"></trkpt>
    <trkpt lat="56.6246284" lon="16.0411562"></trkpt>
    <trkpt lat="56.6245526" lon="16.0413181"></trkpt>
    <trkpt lat="56.6244444" lon="16.0415591"></trkpt>
    <trkpt lat="56.6243432" lon="16.0417796"></trkpt>
    <trkpt lat="56.6241618" lon="16.0421133"></trkpt>
    <trkpt lat="56.6240349" lon="16.0423360"></trkpt>
    <trkpt lat="56.6239541" lon="16.0424763"></trkpt>
    <trkpt lat="56.6238615" lon="16.0426341"></trkpt>
    <trkpt lat="56.6237019" lon="16.0428689"></trkpt>
    <trkpt lat="56.6236325" lon="16.0429620"></trkpt>
    <trkpt lat="56.6235686" lon="16.0430633"></trkpt>
    <trkpt lat="56.6234388" lon="16.0432255"></trkpt>
    <trkpt lat="56.6233296" lon="16.0433563"></trkpt>
    <trkpt lat="56.6232554" lon="16.0434374"></trkpt>
    <trkpt lat="56.6231887" lon="16.0435078"></trkpt>
    <trkpt lat="56.6231108" lon="16.0435843"></trkpt>
    <trkpt lat="56.6230005" lon="16.0436902"></trkpt>
    <trkpt lat="56.6228349" lon="16.0438270"></trkpt>
    <trkpt lat="56.6227408" lon="16.0438954"></trkpt>
    <trkpt lat="56.6224321" lon="16.0440919"></trkpt>
    <trkpt lat="56.6223236" lon="16.0441596"></trkpt>
    <trkpt lat="56.6221516" lon="16.0442548"></trkpt>
    <trkpt lat="56.6221041" lon="16.0443085"></trkpt>
    <trkpt lat="56.6220440" lon="16.0443802"></trkpt>
    <trkpt lat="56.6218802" lon="16.0445076"></trkpt>
    <trkpt lat="56.6217064" lon="16.0446813"></trkpt>
    <trkpt lat="56.6213735" lon="16.0450428"></trkpt>
    <trkpt lat="56.6213371" lon="16.0450823"></trkpt>
    <trkpt lat="56.6211047" lon="16.0453592"></trkpt>
    <trkpt lat="56.6209686" lon="16.0455101"></trkpt>
    <trkpt lat="56.6206675" lon="16.0458595"></trkpt>
    <trkpt lat="56.6205436" lon="16.0459859"></trkpt>
    <trkpt lat="56.6202548" lon="16.0462763"></trkpt>
    <trkpt lat="56.6197026" lon="16.0467514"></trkpt>
    <trkpt lat="56.6194615" lon="16.0470175"></trkpt>
    <trkpt lat="56.6192564" lon="16.0472935"></trkpt>
    <trkpt lat="56.6191487" lon="16.0474758"></trkpt>
    <trkpt lat="56.6190381" lon="16.0476630"></trkpt>
    <trkpt lat="56.6188137" lon="16.0480732"></trkpt>
    <trkpt lat="56.6185539" lon="16.0486032"></trkpt>
    <trkpt lat="56.6182988" lon="16.0491164"></trkpt>
    <trkpt lat="56.6177585" lon="16.0503298"></trkpt>
    <trkpt lat="56.6176129" lon="16.0507540"></trkpt>
    <trkpt lat="56.6175101" lon="16.0511428"></trkpt>
    <trkpt lat="56.6174159" lon="16.0515684"></trkpt>
    <trkpt lat="56.6173250" lon="16.0520592"></trkpt>
    <trkpt lat="56.6172898" lon="16.0522493"></trkpt>
    <trkpt lat="56.6172243" lon="16.0525922"></trkpt>
    <trkpt lat="56.6172068" lon="16.0526827"></trkpt>
    <trkpt lat="56.6171372" lon="16.0530430"></trkpt>
    <trkpt lat="56.6169716" lon="16.0537402"></trkpt>
    <trkpt lat="56.6169451" lon="16.0538517"></trkpt>
    <trkpt lat="56.6169217" lon="16.0539504"></trkpt>
    <trkpt lat="56.6167800" lon="16.0545029"></trkpt>
    <trkpt lat="56.6166240" lon="16.0551677"></trkpt>
    <trkpt lat="56.6165224" lon="16.0556079"></trkpt>
    <trkpt lat="56.6163210" lon="16.0564568"></trkpt>
    <trkpt lat="56.6161874" lon="16.0569262"></trkpt>
    <trkpt lat="56.6161181" lon="16.0571247"></trkpt>
    <trkpt lat="56.6160147" lon="16.0574050"></trkpt>
    <trkpt lat="56.6159465" lon="16.0575639"></trkpt>
    <trkpt lat="56.6157886" lon="16.0579160"></trkpt>
    <trkpt lat="56.6157091" lon="16.0580708"></trkpt>
    <trkpt lat="56.6155550" lon="16.0582741"></trkpt>
    <trkpt lat="56.6154502" lon="16.0583894"></trkpt>
    <trkpt lat="56.6152288" lon="16.0585758"></trkpt>
    <trkpt lat="56.6149130" lon="16.0588011"></trkpt>
    <trkpt lat="56.6144311" lon="16.0591686"></trkpt>
    <trkpt lat="56.6142828" lon="16.0592920"></trkpt>
    <trkpt lat="56.6141326" lon="16.0594321"></trkpt>
    <trkpt lat="56.6140245" lon="16.0595629"></trkpt>
    <trkpt lat="56.6138621" lon="16.0597573"></trkpt>
    <trkpt lat="56.6137529" lon="16.0598727"></trkpt>
    <trkpt lat="56.6136333" lon="16.0599907"></trkpt>
    <trkpt lat="56.6134621" lon="16.0601369"></trkpt>
    <trkpt lat="56.6133212" lon="16.0602482"></trkpt>
    <trkpt lat="56.6130643" lon="16.0604788"></trkpt>
    <trkpt lat="56.6128186" lon="16.0607524"></trkpt>
    <trkpt lat="56.6125182" lon="16.0611802"></trkpt>
    <trkpt lat="56.6123049" lon="16.0615276"></trkpt>
    <trkpt lat="56.6119249" lon="16.0621539"></trkpt>
    <trkpt lat="56.6114643" lon="16.0629947"></trkpt>
    <trkpt lat="56.6112422" lon="16.0633796"></trkpt>
    <trkpt lat="56.6108304" lon="16.0642058"></trkpt>
    <trkpt lat="56.6106304" lon="16.0646255"></trkpt>
    <trkpt lat="56.6103344" lon="16.0652894"></trkpt>
    <trkpt lat="56.6102670" lon="16.0654581"></trkpt>
    <trkpt lat="56.6100687" lon="16.0659640"></trkpt>
    <trkpt lat="56.6099351" lon="16.0663582"></trkpt>
    <trkpt lat="56.6095159" lon="16.0675827"></trkpt>
    <trkpt lat="56.6090775" lon="16.0688567"></trkpt>
    <trkpt lat="56.6088568" lon="16.0694589"></trkpt>
    <trkpt lat="56.6087490" lon="16.0697325"></trkpt>
    <trkpt lat="56.6085859" lon="16.0700771"></trkpt>
    <trkpt lat="56.6084649" lon="16.0702863"></trkpt>
    <trkpt lat="56.6081741" lon="16.0707222"></trkpt>
    <trkpt lat="56.6078833" lon="16.0710883"></trkpt>
    <trkpt lat="56.6075452" lon="16.0715765"></trkpt>
    <trkpt lat="56.6074219" lon="16.0717669"></trkpt>
    <trkpt lat="56.6071606" lon="16.0721867"></trkpt>
    <trkpt lat="56.6066573" lon="16.0730436"></trkpt>
    <trkpt lat="56.6065528" lon="16.0732217"></trkpt>
    <trkpt lat="56.6063325" lon="16.0735962"></trkpt>
    <trkpt lat="56.6060594" lon="16.0740817"></trkpt>
    <trkpt lat="56.6059781" lon="16.0742180"></trkpt>
    <trkpt lat="56.6057737" lon="16.0746020"></trkpt>
    <trkpt lat="56.6054991" lon="16.0750674"></trkpt>
    <trkpt lat="56.6053781" lon="16.0752457"></trkpt>
    <trkpt lat="56.6050577" lon="16.0756803"></trkpt>
    <trkpt lat="56.6047344" lon="16.0760155"></trkpt>
    <trkpt lat="56.6042981" lon="16.0764205"></trkpt>
    <trkpt lat="56.6036338" lon="16.0770549"></trkpt>
    <trkpt lat="56.6030174" lon="16.0776450"></trkpt>
    <trkpt lat="56.6028454" lon="16.0777576"></trkpt>
    <trkpt lat="56.6026749" lon="16.0778287"></trkpt>
    <trkpt lat="56.6024888" lon="16.0778569"></trkpt>
    <trkpt lat="56.6021891" lon="16.0778649"></trkpt>
    <trkpt lat="56.6020179" lon="16.0778797"></trkpt>
    <trkpt lat="56.6015587" lon="16.0781117"></trkpt>
    <trkpt lat="56.6011194" lon="16.0784107"></trkpt>
    <trkpt lat="56.6006802" lon="16.0787098"></trkpt>
    <trkpt lat="56.6003098" lon="16.0789780"></trkpt>
    <trkpt lat="56.5996489" lon="16.0794394"></trkpt>
    <trkpt lat="56.5990686" lon="16.0798390"></trkpt>
    <trkpt lat="56.5985378" lon="16.0802132"></trkpt>
    <trkpt lat="56.5981147" lon="16.0804988"></trkpt>
    <trkpt lat="56.5977951" lon="16.0806946"></trkpt>
    <trkpt lat="56.5976216" lon="16.0808147"></trkpt>
    <trkpt lat="56.5974326" lon="16.0809414"></trkpt>
    <trkpt lat="56.5970088" lon="16.0812345"></trkpt>
    <trkpt lat="56.5965850" lon="16.0815275"></trkpt>
    <trkpt lat="56.5961191" lon="16.0818480"></trkpt>
    <trkpt lat="56.5956532" lon="16.0821685"></trkpt>
    <trkpt lat="56.5951980" lon="16.0824837"></trkpt>
    <trkpt lat="56.5947428" lon="16.0827988"></trkpt>
    <trkpt lat="56.5945841" lon="16.0829061"></trkpt>
    <trkpt lat="56.5942781" lon="16.0831105"></trkpt>
    <trkpt lat="56.5939658" lon="16.0833176"></trkpt>
    <trkpt lat="56.5937660" lon="16.0834640"></trkpt>
    <trkpt lat="56.5934569" lon="16.0836833"></trkpt>
    <trkpt lat="56.5928267" lon="16.0841292"></trkpt>
    <trkpt lat="56.5923286" lon="16.0844886"></trkpt>
    <trkpt lat="56.5918306" lon="16.0848480"></trkpt>
    <trkpt lat="56.5915161" lon="16.0850854"></trkpt>
    <trkpt lat="56.5913795" lon="16.0851525"></trkpt>
    <trkpt lat="56.5911232" lon="16.0851753"></trkpt>
    <trkpt lat="56.5908958" lon="16.0852182"></trkpt>
    <trkpt lat="56.5907813" lon="16.0852584"></trkpt>
    <trkpt lat="56.5906174" lon="16.0853000"></trkpt>
    <trkpt lat="56.5904520" lon="16.0853711"></trkpt>
    <trkpt lat="56.5902984" lon="16.0854650"></trkpt>
    <trkpt lat="56.5901537" lon="16.0856178"></trkpt>
    <trkpt lat="56.5900599" lon="16.0857332"></trkpt>
    <trkpt lat="56.5898398" lon="16.0860001"></trkpt>
    <trkpt lat="56.5893576" lon="16.0864493"></trkpt>
    <trkpt lat="56.5891272" lon="16.0867283"></trkpt>
    <trkpt lat="56.5889736" lon="16.0869844"></trkpt>
    <trkpt lat="56.5888488" lon="16.0872929"></trkpt>
    <trkpt lat="56.5886930" lon="16.0877797"></trkpt>
    <trkpt lat="56.5885807" lon="16.0881512"></trkpt>
    <trkpt lat="56.5884316" lon="16.0884932"></trkpt>
    <trkpt lat="56.5882676" lon="16.0888311"></trkpt>
    <trkpt lat="56.5879907" lon="16.0894011"></trkpt>
    <trkpt lat="56.5878903" lon="16.0896519"></trkpt>
    <trkpt lat="56.5878253" lon="16.0898530"></trkpt>
    <trkpt lat="56.5877795" lon="16.0900475"></trkpt>
    <trkpt lat="56.5877511" lon="16.0902500"></trkpt>
    <trkpt lat="56.5877296" lon="16.0904612"></trkpt>
    <trkpt lat="56.5877308" lon="16.0907811"></trkpt>
    <trkpt lat="56.5877536" lon="16.0913417"></trkpt>
    <trkpt lat="56.5878076" lon="16.0920793"></trkpt>
    <trkpt lat="56.5878194" lon="16.0922885"></trkpt>
    <trkpt lat="56.5878061" lon="16.0925312"></trkpt>
    <trkpt lat="56.5877507" lon="16.0928464"></trkpt>
    <trkpt lat="56.5876089" lon="16.0933641"></trkpt>
    <trkpt lat="56.5873903" lon="16.0941794"></trkpt>
    <trkpt lat="56.5872707" lon="16.0948017"></trkpt>
    <trkpt lat="56.5872382" lon="16.0952121"></trkpt>
    <trkpt lat="56.5872603" lon="16.0955715"></trkpt>
    <trkpt lat="56.5873637" lon="16.0961348"></trkpt>
    <trkpt lat="56.5875779" lon="16.0968630"></trkpt>
    <trkpt lat="56.5877920" lon="16.0975912"></trkpt>
    <trkpt lat="56.5880357" lon="16.0985032"></trkpt>
    <trkpt lat="56.5882307" lon="16.0994393"></trkpt>
    <trkpt lat="56.5883858" lon="16.1001393"></trkpt>
    <trkpt lat="56.5887004" lon="16.1016145"></trkpt>
    <trkpt lat="56.5888363" lon="16.1023253"></trkpt>
    <trkpt lat="56.5889072" lon="16.1028001"></trkpt>
    <trkpt lat="56.5889367" lon="16.1031541"></trkpt>
    <trkpt lat="56.5889426" lon="16.1036691"></trkpt>
    <trkpt lat="56.5889456" lon="16.1041144"></trkpt>
    <trkpt lat="56.5889020" lon="16.1049163"></trkpt>
    <trkpt lat="56.5888591" lon="16.1052248"></trkpt>
    <trkpt lat="56.5887838" lon="16.1055601"></trkpt>
    <trkpt lat="56.5888953" lon="16.1056298"></trkpt>
    <trkpt lat="56.5894359" lon="16.1058001"></trkpt>
    <trkpt lat="56.5896613" lon="16.1058946"></trkpt>
    <trkpt lat="56.5899425" lon="16.1060241"></trkpt>
    <trkpt lat="56.5900966" lon="16.1060590"></trkpt>
    <trkpt lat="56.5902556" lon="16.1060616"></trkpt>
    <trkpt lat="56.5905731" lon="16.1060241"></trkpt>
    <trkpt lat="56.5907533" lon="16.1060965"></trkpt>
    <trkpt lat="56.5914178" lon="16.1066745"></trkpt>
    <trkpt lat="56.5920824" lon="16.1072525"></trkpt>
    <trkpt lat="56.5924029" lon="16.1076656"></trkpt>
    <trkpt lat="56.5927883" lon="16.1080840"></trkpt>
    <trkpt lat="56.5932506" lon="16.1086044"></trkpt>
    <trkpt lat="56.5933938" lon="16.1088511"></trkpt>
    <trkpt lat="56.5935046" lon="16.1091328"></trkpt>
    <trkpt lat="56.5936966" lon="16.1097872"></trkpt>
    <trkpt lat="56.5939225" lon="16.1104873"></trkpt>
    <trkpt lat="56.5940126" lon="16.1110264"></trkpt>
    <trkpt lat="56.5940111" lon="16.1113161"></trkpt>
    <trkpt lat="56.5939284" lon="16.1115977"></trkpt>
    <trkpt lat="56.5937911" lon="16.1119571"></trkpt>
    <trkpt lat="56.5931354" lon="16.1129630"></trkpt>
    <trkpt lat="56.5930246" lon="16.1132365"></trkpt>
    <trkpt lat="56.5929360" lon="16.1135048"></trkpt>
    <trkpt lat="56.5928991" lon="16.1137542"></trkpt>
    <trkpt lat="56.5928814" lon="16.1140063"></trkpt>
    <trkpt lat="56.5928799" lon="16.1142477"></trkpt>
    <trkpt lat="56.5929213" lon="16.1144677"></trkpt>
    <trkpt lat="56.5931797" lon="16.1150819"></trkpt>
    <trkpt lat="56.5933362" lon="16.1155111"></trkpt>
    <trkpt lat="56.5934174" lon="16.1158892"></trkpt>
    <trkpt lat="56.5935208" lon="16.1167127"></trkpt>
    <trkpt lat="56.5936212" lon="16.1181074"></trkpt>
    <trkpt lat="56.5935799" lon="16.1183032"></trkpt>
    <trkpt lat="56.5933805" lon="16.1187726"></trkpt>
    <trkpt lat="56.5934948" lon="16.1190032"></trkpt>
    <trkpt lat="56.5935810" lon="16.1192335"></trkpt>
    <trkpt lat="56.5936699" lon="16.1194804"></trkpt>
    <trkpt lat="56.5937566" lon="16.1197669"></trkpt>
    <trkpt lat="56.5938234" lon="16.1200280"></trkpt>
    <trkpt lat="56.5939047" lon="16.1204068"></trkpt>
    <trkpt lat="56.5939830" lon="16.1208433"></trkpt>
    <trkpt lat="56.5940243" lon="16.1212802"></trkpt>
    <trkpt lat="56.5940455" lon="16.1216572"></trkpt>
    <trkpt lat="56.5940512" lon="16.1220337"></trkpt>
    <trkpt lat="56.5940444" lon="16.1223810"></trkpt>
    <trkpt lat="56.5940209" lon="16.1227154"></trkpt>
    <trkpt lat="56.5939904" lon="16.1230159"></trkpt>
    <trkpt lat="56.5939418" lon="16.1233617"></trkpt>
    <trkpt lat="56.5938795" lon="16.1236999"></trkpt>
    <trkpt lat="56.5938184" lon="16.1239680"></trkpt>
    <trkpt lat="56.5937642" lon="16.1241775"></trkpt>
    <trkpt lat="56.5936892" lon="16.1244294"></trkpt>
    <trkpt lat="56.5935978" lon="16.1246987"></trkpt>
    <trkpt lat="56.5933813" lon="16.1252293"></trkpt>
    <trkpt lat="56.5932021" lon="16.1256061"></trkpt>
    <trkpt lat="56.5929283" lon="16.1261232"></trkpt>
    <trkpt lat="56.5927572" lon="16.1264644"></trkpt>
    <trkpt lat="56.5926391" lon="16.1267307"></trkpt>
    <trkpt lat="56.5924750" lon="16.1271542"></trkpt>
    <trkpt lat="56.5923070" lon="16.1276600"></trkpt>
    <trkpt lat="56.5921921" lon="16.1280767"></trkpt>
    <trkpt lat="56.5921092" lon="16.1280272"></trkpt>
    <trkpt lat="56.5919582" lon="16.1279819"></trkpt>
    <trkpt lat="56.5917270" lon="16.1279450"></trkpt>
    <trkpt lat="56.5917127" lon="16.1278008"></trkpt>
    <trkpt lat="56.5916775" lon="16.1273860"></trkpt>
    <trkpt lat="56.5916398" lon="16.1268739"></trkpt>
    <trkpt lat="56.5915886" lon="16.1262006"></trkpt>
    <trkpt lat="56.5915354" lon="16.1256058"></trkpt>
    <trkpt lat="56.5914669" lon="16.1248004"></trkpt>
    <trkpt lat="56.5914659" lon="16.1246734"></trkpt>
    <trkpt lat="56.5907677" lon="16.1243530"></trkpt>
    <trkpt lat="56.5901951" lon="16.1240779"></trkpt>
    <trkpt lat="56.5897315" lon="16.1238631"></trkpt>
    <trkpt lat="56.5892928" lon="16.1236422"></trkpt>
    <trkpt lat="56.5888541" lon="16.1234213"></trkpt>
    <trkpt lat="56.5882318" lon="16.1230313"></trkpt>
    <trkpt lat="56.5877918" lon="16.1227681"></trkpt>
    <trkpt lat="56.5873517" lon="16.1225048"></trkpt>
    <trkpt lat="56.5872376" lon="16.1224434"></trkpt>
    <trkpt lat="56.5871590" lon="16.1224203"></trkpt>
    <trkpt lat="56.5870401" lon="16.1224454"></trkpt>
    <trkpt lat="56.5868669" lon="16.1225032"></trkpt>
    <trkpt lat="56.5866945" lon="16.1225401"></trkpt>
    <trkpt lat="56.5864646" lon="16.1225651"></trkpt>
    <trkpt lat="56.5862943" lon="16.1226010"></trkpt>
    <trkpt lat="56.5856869" lon="16.1228232"></trkpt>
    <trkpt lat="56.5850773" lon="16.1230925"></trkpt>
    <trkpt lat="56.5848946" lon="16.1231861"></trkpt>
    <trkpt lat="56.5847115" lon="16.1233044"></trkpt>
    <trkpt lat="56.5844979" lon="16.1234590"></trkpt>
    <trkpt lat="56.5842782" lon="16.1236071"></trkpt>
    <trkpt lat="56.5840864" lon="16.1237710"></trkpt>
    <trkpt lat="56.5838614" lon="16.1239263"></trkpt>
    <trkpt lat="56.5835054" lon="16.1241029"></trkpt>
    <trkpt lat="56.5832618" lon="16.1242378"></trkpt>
    <trkpt lat="56.5828491" lon="16.1244533"></trkpt>
    <trkpt lat="56.5823638" lon="16.1247529"></trkpt>
    <trkpt lat="56.5818800" lon="16.1250147"></trkpt>
    <trkpt lat="56.5813962" lon="16.1252764"></trkpt>
    <trkpt lat="56.5812551" lon="16.1253671"></trkpt>
    <trkpt lat="56.5811715" lon="16.1254312"></trkpt>
    <trkpt lat="56.5810802" lon="16.1255251"></trkpt>
    <trkpt lat="56.5809847" lon="16.1256493"></trkpt>
    <trkpt lat="56.5808861" lon="16.1257475"></trkpt>
    <trkpt lat="56.5808284" lon="16.1257875"></trkpt>
    <trkpt lat="56.5807256" lon="16.1258074"></trkpt>
    <trkpt lat="56.5803359" lon="16.1258177"></trkpt>
    <trkpt lat="56.5802316" lon="16.1258454"></trkpt>
    <trkpt lat="56.5801307" lon="16.1258948"></trkpt>
    <trkpt lat="56.5800548" lon="16.1259180"></trkpt>
    <trkpt lat="56.5799860" lon="16.1259177"></trkpt>
    <trkpt lat="56.5799372" lon="16.1258934"></trkpt>
    <trkpt lat="56.5798663" lon="16.1258730"></trkpt>
    <trkpt lat="56.5797775" lon="16.1258766"></trkpt>
    <trkpt lat="56.5796998" lon="16.1259044"></trkpt>
    <trkpt lat="56.5796043" lon="16.1259562"></trkpt>
    <trkpt lat="56.5795310" lon="16.1260162"></trkpt>
    <trkpt lat="56.5794799" lon="16.1260923"></trkpt>
    <trkpt lat="56.5794332" lon="16.1261966"></trkpt>
    <trkpt lat="56.5793395" lon="16.1265057"></trkpt>
    <trkpt lat="56.5792839" lon="16.1266260"></trkpt>
    <trkpt lat="56.5790438" lon="16.1269947"></trkpt>
    <trkpt lat="56.5789637" lon="16.1271350"></trkpt>
    <trkpt lat="56.5788925" lon="16.1272915"></trkpt>
    <trkpt lat="56.5788011" lon="16.1275443"></trkpt>
    <trkpt lat="56.5787164" lon="16.1278373"></trkpt>
    <trkpt lat="56.5786583" lon="16.1281224"></trkpt>
    <trkpt lat="56.5786023" lon="16.1285241"></trkpt>
    <trkpt lat="56.5785687" lon="16.1287250"></trkpt>
    <trkpt lat="56.5785308" lon="16.1288936"></trkpt>
    <trkpt lat="56.5784639" lon="16.1290782"></trkpt>
    <trkpt lat="56.5783459" lon="16.1293711"></trkpt>
    <trkpt lat="56.5782079" lon="16.1297504"></trkpt>
    <trkpt lat="56.5778647" lon="16.1304733"></trkpt>
    <trkpt lat="56.5777492" lon="16.1306855"></trkpt>
    <trkpt lat="56.5776919" lon="16.1307554"></trkpt>
    <trkpt lat="56.5776077" lon="16.1308200"></trkpt>
    <trkpt lat="56.5775278" lon="16.1308605"></trkpt>
    <trkpt lat="56.5774169" lon="16.1308851"></trkpt>
    <trkpt lat="56.5773303" lon="16.1308854"></trkpt>
    <trkpt lat="56.5772438" lon="16.1308576"></trkpt>
    <trkpt lat="56.5770905" lon="16.1307577"></trkpt>
    <trkpt lat="56.5767950" lon="16.1304975"></trkpt>
    <trkpt lat="56.5766929" lon="16.1304295"></trkpt>
    <trkpt lat="56.5766218" lon="16.1303977"></trkpt>
    <trkpt lat="56.5765175" lon="16.1303940"></trkpt>
    <trkpt lat="56.5762313" lon="16.1304635"></trkpt>
    <trkpt lat="56.5761360" lon="16.1305161"></trkpt>
    <trkpt lat="56.5760561" lon="16.1305848"></trkpt>
    <trkpt lat="56.5759653" lon="16.1307057"></trkpt>
    <trkpt lat="56.5759032" lon="16.1307783"></trkpt>
    <trkpt lat="56.5755588" lon="16.1310998"></trkpt>
    <trkpt lat="56.5750946" lon="16.1315967"></trkpt>
    <trkpt lat="56.5748238" lon="16.1318770"></trkpt>
    <trkpt lat="56.5747181" lon="16.1320775"></trkpt>
    <trkpt lat="56.5745928" lon="16.1324469"></trkpt>
    <trkpt lat="56.5744726" lon="16.1327140"></trkpt>
    <trkpt lat="56.5743164" lon="16.1331046"></trkpt>
    <trkpt lat="56.5741878" lon="16.1334653"></trkpt>
    <trkpt lat="56.5740059" lon="16.1336869"></trkpt>
    <trkpt lat="56.5739364" lon="16.1338238"></trkpt>
    <trkpt lat="56.5739367" lon="16.1339284"></trkpt>
    <trkpt lat="56.5739370" lon="16.1340380"></trkpt>
    <trkpt lat="56.5739975" lon="16.1346071"></trkpt>
    <trkpt lat="56.5740822" lon="16.1353358"></trkpt>
    <trkpt lat="56.5741263" lon="16.1358797"></trkpt>
    <trkpt lat="56.5741175" lon="16.1362527"></trkpt>
    <trkpt lat="56.5740764" lon="16.1369282"></trkpt>
    <trkpt lat="56.5740085" lon="16.1377257"></trkpt>
    <trkpt lat="56.5739730" lon="16.1379941"></trkpt>
    <trkpt lat="56.5736823" lon="16.1389180"></trkpt>
    <trkpt lat="56.5729735" lon="16.1380443"></trkpt>
    <trkpt lat="56.5728154" lon="16.1379158"></trkpt>
    <trkpt lat="56.5720884" lon="16.1376963"></trkpt>
    <trkpt lat="56.5716304" lon="16.1376555"></trkpt>
    <trkpt lat="56.5711724" lon="16.1376146"></trkpt>
    <trkpt lat="56.5707820" lon="16.1374510"></trkpt>
    <trkpt lat="56.5702864" lon="16.1375464"></trkpt>
    <trkpt lat="56.5697909" lon="16.1376418"></trkpt>
    <trkpt lat="56.5693041" lon="16.1377158"></trkpt>
    <trkpt lat="56.5689162" lon="16.1377747"></trkpt>
    <trkpt lat="56.5685745" lon="16.1368786"></trkpt>
    <trkpt lat="56.5683642" lon="16.1364425"></trkpt>
    <trkpt lat="56.5683078" lon="16.1358492"></trkpt>
    <trkpt lat="56.5682140" lon="16.1348615"></trkpt>
    <trkpt lat="56.5681389" lon="16.1339892"></trkpt>
    <trkpt lat="56.5681314" lon="16.1325650"></trkpt>
    <trkpt lat="56.5681239" lon="16.1311408"></trkpt>
    <trkpt lat="56.5681164" lon="16.1297165"></trkpt>
    <trkpt lat="56.5681089" lon="16.1282923"></trkpt>
    <trkpt lat="56.5681389" lon="16.1278017"></trkpt>
    <trkpt lat="56.5684693" lon="16.1267113"></trkpt>
    <trkpt lat="56.5685144" lon="16.1263297"></trkpt>
    <trkpt lat="56.5684543" lon="16.1259209"></trkpt>
    <trkpt lat="56.5682441" lon="16.1256210"></trkpt>
    <trkpt lat="56.5674782" lon="16.1248851"></trkpt>
    <trkpt lat="56.5671833" lon="16.1243449"></trkpt>
    <trkpt lat="56.5671508" lon="16.1242296"></trkpt>
    <trkpt lat="56.5671345" lon="16.1241263"></trkpt>
    <trkpt lat="56.5671345" lon="16.1239775"></trkpt>
    <trkpt lat="56.5671678" lon="16.1236891"></trkpt>
    <trkpt lat="56.5671731" lon="16.1236240"></trkpt>
    <trkpt lat="56.5671721" lon="16.1235564"></trkpt>
    <trkpt lat="56.5671638" lon="16.1235006"></trkpt>
    <trkpt lat="56.5671405" lon="16.1234432"></trkpt>
    <trkpt lat="56.5671126" lon="16.1234111"></trkpt>
    <trkpt lat="56.5670735" lon="16.1233739"></trkpt>
    <trkpt lat="56.5670213" lon="16.1233367"></trkpt>
    <trkpt lat="56.5668351" lon="16.1232624"></trkpt>
    <trkpt lat="56.5664469" lon="16.1230850"></trkpt>
    <trkpt lat="56.5663985" lon="16.1230545"></trkpt>
    <trkpt lat="56.5663603" lon="16.1230208"></trkpt>
    <trkpt lat="56.5663305" lon="16.1229785"></trkpt>
    <trkpt lat="56.5662998" lon="16.1229211"></trkpt>
    <trkpt lat="56.5662700" lon="16.1228248"></trkpt>
    <trkpt lat="56.5662235" lon="16.1225983"></trkpt>
    <trkpt lat="56.5661593" lon="16.1223280"></trkpt>
    <trkpt lat="56.5661164" lon="16.1221489"></trkpt>
    <trkpt lat="56.5660606" lon="16.1219732"></trkpt>
    <trkpt lat="56.5660028" lon="16.1218380"></trkpt>
    <trkpt lat="56.5659386" lon="16.1217400"></trkpt>
    <trkpt lat="56.5654844" lon="16.1213499"></trkpt>
    <trkpt lat="56.5650302" lon="16.1209599"></trkpt>
    <trkpt lat="56.5645495" lon="16.1203057"></trkpt>
    <trkpt lat="56.5640238" lon="16.1195425"></trkpt>
    <trkpt lat="56.5634982" lon="16.1187793"></trkpt>
    <trkpt lat="56.5634066" lon="16.1188618"></trkpt>
    <trkpt lat="56.5630818" lon="16.1191609"></trkpt>
    <trkpt lat="56.5627341" lon="16.1194713"></trkpt>
    <trkpt lat="56.5625603" lon="16.1195924"></trkpt>
    <trkpt lat="56.5623587" lon="16.1197825"></trkpt>
    <trkpt lat="56.5622612" lon="16.1199246"></trkpt>
    <trkpt lat="56.5620986" lon="16.1201774"></trkpt>
    <trkpt lat="56.5619745" lon="16.1204336"></trkpt>
    <trkpt lat="56.5618813" lon="16.1206931"></trkpt>
    <trkpt lat="56.5617845" lon="16.1209613"></trkpt>
    <trkpt lat="56.5617191" lon="16.1211001"></trkpt>
    <trkpt lat="56.5616663" lon="16.1211779"></trkpt>
    <trkpt lat="56.5616057" lon="16.1212382"></trkpt>
    <trkpt lat="56.5615181" lon="16.1213060"></trkpt>
    <trkpt lat="56.5611782" lon="16.1215018"></trkpt>
    <trkpt lat="56.5607322" lon="16.1217485"></trkpt>
    <trkpt lat="56.5604706" lon="16.1219289"></trkpt>
    <trkpt lat="56.5601532" lon="16.1221368"></trkpt>
    <trkpt lat="56.5598938" lon="16.1222870"></trkpt>
    <trkpt lat="56.5594104" lon="16.1225130"></trkpt>
    <trkpt lat="56.5588569" lon="16.1227269"></trkpt>
    <trkpt lat="56.5586074" lon="16.1228288"></trkpt>
    <trkpt lat="56.5584485" lon="16.1229059"></trkpt>
    <trkpt lat="56.5583403" lon="16.1229844"></trkpt>
    <trkpt lat="56.5582671" lon="16.1230608"></trkpt>
    <trkpt lat="56.5581755" lon="16.1231916"></trkpt>
    <trkpt lat="56.5579988" lon="16.1234947"></trkpt>
    <trkpt lat="56.5578639" lon="16.1237414"></trkpt>
    <trkpt lat="56.5576836" lon="16.1240720"></trkpt>
    <trkpt lat="56.5574800" lon="16.1244489"></trkpt>
    <trkpt lat="56.5573362" lon="16.1247003"></trkpt>
    <trkpt lat="56.5571674" lon="16.1250021"></trkpt>
    <trkpt lat="56.5570236" lon="16.1252441"></trkpt>
    <trkpt lat="56.5571415" lon="16.1255452"></trkpt>
    <trkpt lat="56.5574146" lon="16.1261990"></trkpt>
    <trkpt lat="56.5574696" lon="16.1263619"></trkpt>
    <trkpt lat="56.5574837" lon="16.1265021"></trkpt>
    <trkpt lat="56.5574781" lon="16.1265933"></trkpt>
    <trkpt lat="56.5574594" lon="16.1266813"></trkpt>
    <trkpt lat="56.5573865" lon="16.1269212"></trkpt>
    <trkpt lat="56.5573078" lon="16.1271324"></trkpt>
    <trkpt lat="56.5571670" lon="16.1274556"></trkpt>
    <trkpt lat="56.5570502" lon="16.1276890"></trkpt>
    <trkpt lat="56.5568769" lon="16.1279082"></trkpt>
    <trkpt lat="56.5567753" lon="16.1280276"></trkpt>
    <trkpt lat="56.5564608" lon="16.1283535"></trkpt>
    <trkpt lat="56.5560147" lon="16.1287022"></trkpt>
    <trkpt lat="56.5557183" lon="16.1289597"></trkpt>
    <trkpt lat="56.5554940" lon="16.1291836"></trkpt>
    <trkpt lat="56.5551237" lon="16.1295497"></trkpt>
    <trkpt lat="56.5549748" lon="16.1296530"></trkpt>
    <trkpt lat="56.5548702" lon="16.1297140"></trkpt>
    <trkpt lat="56.5547360" lon="16.1297462"></trkpt>
    <trkpt lat="56.5543813" lon="16.1298186"></trkpt>
    <trkpt lat="56.5542512" lon="16.1298790"></trkpt>
    <trkpt lat="56.5541418" lon="16.1299501"></trkpt>
    <trkpt lat="56.5540121" lon="16.1300198"></trkpt>
    <trkpt lat="56.5537740" lon="16.1301713"></trkpt>
    <trkpt lat="56.5535508" lon="16.1303792"></trkpt>
    <trkpt lat="56.5534056" lon="16.1305428"></trkpt>
    <trkpt lat="56.5532285" lon="16.1307313"></trkpt>
    <trkpt lat="56.5530293" lon="16.1308781"></trkpt>
    <trkpt lat="56.5529661" lon="16.1309445"></trkpt>
    <trkpt lat="56.5528841" lon="16.1310679"></trkpt>
    <trkpt lat="56.5528279" lon="16.1311953"></trkpt>
    <trkpt lat="56.5526982" lon="16.1316191"></trkpt>
    <trkpt lat="56.5526302" lon="16.1318846"></trkpt>
    <trkpt lat="56.5524942" lon="16.1323956"></trkpt>
    <trkpt lat="56.5523833" lon="16.1329722"></trkpt>
    <trkpt lat="56.5522429" lon="16.1339647"></trkpt>
    <trkpt lat="56.5520640" lon="16.1350496"></trkpt>
    <trkpt lat="56.5520226" lon="16.1353366"></trkpt>
    <trkpt lat="56.5517587" lon="16.1365275"></trkpt>
    <trkpt lat="56.5514068" lon="16.1378995"></trkpt>
    <trkpt lat="56.5511060" lon="16.1392084"></trkpt>
    <trkpt lat="56.5508753" lon="16.1403537"></trkpt>
    <trkpt lat="56.5508236" lon="16.1407265"></trkpt>
    <trkpt lat="56.5507955" lon="16.1410792"></trkpt>
    <trkpt lat="56.5507482" lon="16.1419885"></trkpt>
    <trkpt lat="56.5506706" lon="16.1431164"></trkpt>
    <trkpt lat="56.5506624" lon="16.1436206"></trkpt>
    <trkpt lat="56.5506772" lon="16.1439612"></trkpt>
    <trkpt lat="56.5506994" lon="16.1441812"></trkpt>
    <trkpt lat="56.5506987" lon="16.1443971"></trkpt>
    <trkpt lat="56.5506794" lon="16.1446305"></trkpt>
    <trkpt lat="56.5506381" lon="16.1448893"></trkpt>
    <trkpt lat="56.5504813" lon="16.1454391"></trkpt>
    <trkpt lat="56.5500859" lon="16.1466421"></trkpt>
    <trkpt lat="56.5497103" lon="16.1477512"></trkpt>
    <trkpt lat="56.5493318" lon="16.1488751"></trkpt>
    <trkpt lat="56.5490110" lon="16.1497709"></trkpt>
    <trkpt lat="56.5489038" lon="16.1501082"></trkpt>
    <trkpt lat="56.5486628" lon="16.1499453"></trkpt>
    <trkpt lat="56.5483516" lon="16.1497495"></trkpt>
    <trkpt lat="56.5479435" lon="16.1494410"></trkpt>
    <trkpt lat="56.5476787" lon="16.1492093"></trkpt>
    <trkpt lat="56.5473210" lon="16.1488321"></trkpt>
    <trkpt lat="56.5470076" lon="16.1484110"></trkpt>
    <trkpt lat="56.5469041" lon="16.1482555"></trkpt>
    <trkpt lat="56.5465115" lon="16.1475889"></trkpt>
    <trkpt lat="56.5461806" lon="16.1469882"></trkpt>
    <trkpt lat="56.5458750" lon="16.1464624"></trkpt>
    <trkpt lat="56.5456259" lon="16.1460726"></trkpt>
    <trkpt lat="56.5453360" lon="16.1457168"></trkpt>
    <trkpt lat="56.5449213" lon="16.1452125"></trkpt>
    <trkpt lat="56.5446699" lon="16.1449362"></trkpt>
    <trkpt lat="56.5444865" lon="16.1447753"></trkpt>
    <trkpt lat="56.5444133" lon="16.1447203"></trkpt>
    <trkpt lat="56.5443346" lon="16.1446689"></trkpt>
    <trkpt lat="56.5439586" lon="16.1444159"></trkpt>
    <trkpt lat="56.5435734" lon="16.1441986"></trkpt>
    <trkpt lat="56.5431505" lon="16.1440068"></trkpt>
    <trkpt lat="56.5429376" lon="16.1439089"></trkpt>
    <trkpt lat="56.5428010" lon="16.1438628"></trkpt>
    <trkpt lat="56.5426086" lon="16.1438620"></trkpt>
    <trkpt lat="56.5422892" lon="16.1438821"></trkpt>
    <trkpt lat="56.5421206" lon="16.1438620"></trkpt>
    <trkpt lat="56.5419550" lon="16.1438057"></trkpt>
    <trkpt lat="56.5416596" lon="16.1436366"></trkpt>
    <trkpt lat="56.5416056" lon="16.1436072"></trkpt>
    <trkpt lat="56.5415132" lon="16.1435361"></trkpt>
    <trkpt lat="56.5412662" lon="16.1433423"></trkpt>
    <trkpt lat="56.5411640" lon="16.1432286"></trkpt>
    <trkpt lat="56.5410115" lon="16.1430822"></trkpt>
    <trkpt lat="56.5407878" lon="16.1428025"></trkpt>
    <trkpt lat="56.5406621" lon="16.1426529"></trkpt>
    <trkpt lat="56.5406285" lon="16.1426228"></trkpt>
    <trkpt lat="56.5404921" lon="16.1425176"></trkpt>
    <trkpt lat="56.5403242" lon="16.1424190"></trkpt>
    <trkpt lat="56.5402388" lon="16.1423808"></trkpt>
    <trkpt lat="56.5399893" lon="16.1422990"></trkpt>
    <trkpt lat="56.5396251" lon="16.1421065"></trkpt>
    <trkpt lat="56.5394095" lon="16.1419710"></trkpt>
    <trkpt lat="56.5393266" lon="16.1418980"></trkpt>
    <trkpt lat="56.5391115" lon="16.1417866"></trkpt>
    <trkpt lat="56.5390051" lon="16.1417478"></trkpt>
    <trkpt lat="56.5388283" lon="16.1417384"></trkpt>
    <trkpt lat="56.5387015" lon="16.1417651"></trkpt>
    <trkpt lat="56.5381771" lon="16.1418898"></trkpt>
    <trkpt lat="56.5380966" lon="16.1421788"></trkpt>
    <trkpt lat="56.5380772" lon="16.1425294"></trkpt>
    <trkpt lat="56.5381594" lon="16.1440960"></trkpt>
    <trkpt lat="56.5380119" lon="16.1450971"></trkpt>
    <trkpt lat="56.5378643" lon="16.1460981"></trkpt>
    <trkpt lat="56.5377724" lon="16.1463887"></trkpt>
    <trkpt lat="56.5377092" lon="16.1464425"></trkpt>
    <trkpt lat="56.5377452" lon="16.1466375"></trkpt>
    <trkpt lat="56.5375441" lon="16.1477962"></trkpt>
    <trkpt lat="56.5373074" lon="16.1490407"></trkpt>
    <trkpt lat="56.5373311" lon="16.1504140"></trkpt>
    <trkpt lat="56.5375145" lon="16.1512509"></trkpt>
    <trkpt lat="56.5376979" lon="16.1520877"></trkpt>
    <trkpt lat="56.5379818" lon="16.1533323"></trkpt>
    <trkpt lat="56.5382421" lon="16.1546841"></trkpt>
    <trkpt lat="56.5385734" lon="16.1558643"></trkpt>
    <trkpt lat="56.5388692" lon="16.1573878"></trkpt>
    <trkpt lat="56.5391649" lon="16.1585036"></trkpt>
    <trkpt lat="56.5393069" lon="16.1600485"></trkpt>
    <trkpt lat="56.5393779" lon="16.1613896"></trkpt>
    <trkpt lat="56.5394489" lon="16.1627307"></trkpt>
    <trkpt lat="56.5395317" lon="16.1633745"></trkpt>
    <trkpt lat="56.5400523" lon="16.1636749"></trkpt>
    <trkpt lat="56.5402179" lon="16.1637822"></trkpt>
    <trkpt lat="56.5403007" lon="16.1651769"></trkpt>
    <trkpt lat="56.5403599" lon="16.1667433"></trkpt>
    <trkpt lat="56.5403244" lon="16.1680737"></trkpt>
    <trkpt lat="56.5401824" lon="16.1691680"></trkpt>
    <trkpt lat="56.5399813" lon="16.1698332"></trkpt>
    <trkpt lat="56.5397683" lon="16.1704769"></trkpt>
    <trkpt lat="56.5396618" lon="16.1709490"></trkpt>
    <trkpt lat="56.5397683" lon="16.1714425"></trkpt>
    <trkpt lat="56.5398908" lon="16.1716758"></trkpt>
    <trkpt lat="56.5400641" lon="16.1718717"></trkpt>
    <trkpt lat="56.5405241" lon="16.1723025"></trkpt>
    <trkpt lat="56.5406698" lon="16.1724796"></trkpt>
    <trkpt lat="56.5410263" lon="16.1728435"></trkpt>
    <trkpt lat="56.5413586" lon="16.1730668"></trkpt>
    <trkpt lat="56.5416993" lon="16.1731906"></trkpt>
    <trkpt lat="56.5418718" lon="16.1734321"></trkpt>
    <trkpt lat="56.5420022" lon="16.1737139"></trkpt>
    <trkpt lat="56.5422112" lon="16.1742593"></trkpt>
    <trkpt lat="56.5423076" lon="16.1746109"></trkpt>
    <trkpt lat="56.5423710" lon="16.1749831"></trkpt>
    <trkpt lat="56.5424234" lon="16.1756997"></trkpt>
    <trkpt lat="56.5424726" lon="16.1759448"></trkpt>
    <trkpt lat="56.5426199" lon="16.1764361"></trkpt>
    <trkpt lat="56.5427315" lon="16.1768421"></trkpt>
    <trkpt lat="56.5428419" lon="16.1771106"></trkpt>
    <trkpt lat="56.5429753" lon="16.1780285"></trkpt>
    <trkpt lat="56.5431928" lon="16.1793852"></trkpt>
    <trkpt lat="56.5432659" lon="16.1795181"></trkpt>
    <trkpt lat="56.5433424" lon="16.1796976"></trkpt>
    <trkpt lat="56.5433891" lon="16.1799201"></trkpt>
    <trkpt lat="56.5433819" lon="16.1801980"></trkpt>
    <trkpt lat="56.5433740" lon="16.1804216"></trkpt>
    <trkpt lat="56.5435195" lon="16.1816051"></trkpt>
    <trkpt lat="56.5436649" lon="16.1827887"></trkpt>
    <trkpt lat="56.5436933" lon="16.1827969"></trkpt>
    <trkpt lat="56.5441073" lon="16.1830865"></trkpt>
    <trkpt lat="56.5441760" lon="16.1831835"></trkpt>
    <trkpt lat="56.5443180" lon="16.1833841"></trkpt>
    <trkpt lat="56.5445172" lon="16.1836430"></trkpt>
    <trkpt lat="56.5445923" lon="16.1837303"></trkpt>
    <trkpt lat="56.5446431" lon="16.1837360"></trkpt>
    <trkpt lat="56.5449768" lon="16.1837732"></trkpt>
    <trkpt lat="56.5453476" lon="16.1837907"></trkpt>
    <trkpt lat="56.5455978" lon="16.1838483"></trkpt>
    <trkpt lat="56.5459664" lon="16.1840050"></trkpt>
    <trkpt lat="56.5460768" lon="16.1841300"></trkpt>
    <trkpt lat="56.5461125" lon="16.1844112"></trkpt>
    <trkpt lat="56.5455892" lon="16.1845688"></trkpt>
    <trkpt lat="56.5450660" lon="16.1847264"></trkpt>
    <trkpt lat="56.5448832" lon="16.1848644"></trkpt>
    <trkpt lat="56.5447287" lon="16.1850607"></trkpt>
    <trkpt lat="56.5443956" lon="16.1856564"></trkpt>
    <trkpt lat="56.5437802" lon="16.1867569"></trkpt>
    <trkpt lat="56.5434894" lon="16.1871547"></trkpt>
    <trkpt lat="56.5430684" lon="16.1875752"></trkpt>
    <trkpt lat="56.5427598" lon="16.1878593"></trkpt>
    <trkpt lat="56.5420695" lon="16.1884957"></trkpt>
    <trkpt lat="56.5413791" lon="16.1891320"></trkpt>
    <trkpt lat="56.5406888" lon="16.1897684"></trkpt>
    <trkpt lat="56.5403788" lon="16.1900908"></trkpt>
    <trkpt lat="56.5400417" lon="16.1904374"></trkpt>
    <trkpt lat="56.5397831" lon="16.1907716"></trkpt>
    <trkpt lat="56.5396996" lon="16.1907815"></trkpt>
    <trkpt lat="56.5393811" lon="16.1909992"></trkpt>
    <trkpt lat="56.5389434" lon="16.1913801"></trkpt>
    <trkpt lat="56.5385234" lon="16.1921579"></trkpt>
    <trkpt lat="56.5383725" lon="16.1923940"></trkpt>
    <trkpt lat="56.5382808" lon="16.1923618"></trkpt>
    <trkpt lat="56.5380678" lon="16.1919487"></trkpt>
    <trkpt lat="56.5377433" lon="16.1912500"></trkpt>
    <trkpt lat="56.5375813" lon="16.1909573"></trkpt>
  </trkseg></trk>
</gpx>
