<?xml version='1.0' encoding='UTF-8'?>
<osm version='0.6' generator='pilegrimsleden-osm-extractor 1.0'>
  <node id='837453934' version='1' visible='true' lat='62.2685920' lon='7.8317317'>
    <tag k='name' v='Vakkerstøylen'/>
    <tag k='tourism' v='wilderness_hut'/>
    <tag k='note:proposed' v='Proposed: add as member of relation 11218584 (Valldalsleden). Do not modify existing members of relation 11218584 (Valldalsleden). Research aid only. Existing OSM object: node/837453934.'/>
    <tag k='note' v='Proposed: add as member of relation 11218584 (Valldalsleden). Do not modify existing members of relation 11218584 (Valldalsleden). Research aid only. Existing OSM object: node/837453934.'/>
    <tag k='note:osm_route_relation' v='11218584'/>
  </node>
  <node id='-1' version='0' action='modify' visible='true' lat='62.0862064' lon='9.1785368'>
    <tag k='note:proposed' v='Centroid proxy for way/890226001. Proposed: add as member of relation 11218584 (Valldalsleden). Do not modify existing members of relation 11218584 (Valldalsleden). Research aid only. Existing OSM object: way/890226001.'/>
    <tag k='note' v='Centroid proxy for way/890226001. Proposed: add as member of relation 11218584 (Valldalsleden). Do not modify existing members of relation 11218584 (Valldalsleden). Research aid only. Existing OSM object: way/890226001.'/>
    <tag k='note:osm_object' v='way/890226001'/>
    <tag k='note:osm_route_relation' v='11218584'/>
    <tag k='amenity' v='shelter'/>
    <tag k='building' v='yes'/>
  </node>
  <node id='-2' version='0' action='modify' visible='true' lat='62.0928165' lon='9.2177093'>
    <tag k='name' v='Gapahuken på Hundyrju'/>
    <tag k='note:proposed' v='Centroid proxy for way/890225979. Proposed: add as member of relation 11218584 (Valldalsleden). Do not modify existing members of relation 11218584 (Valldalsleden). Research aid only. Existing OSM object: way/890225979.'/>
    <tag k='note' v='Centroid proxy for way/890225979. Proposed: add as member of relation 11218584 (Valldalsleden). Do not modify existing members of relation 11218584 (Valldalsleden). Research aid only. Existing OSM object: way/890225979.'/>
    <tag k='note:osm_object' v='way/890225979'/>
    <tag k='note:osm_route_relation' v='11218584'/>
    <tag k='amenity' v='shelter'/>
    <tag k='building' v='yes'/>
  </node>
  <node id='1356403693' version='1' visible='true' lat='62.3211360' lon='7.6668627'>
    <tag k='name' v='Tjønnebu'/>
    <tag k='tourism' v='wilderness_hut'/>
    <tag k='note:proposed' v='Proposed: add as member of relation 11218584 (Valldalsleden). Do not modify existing members of relation 11218584 (Valldalsleden). Research aid only. Existing OSM object: node/1356403693.'/>
    <tag k='note' v='Proposed: add as member of relation 11218584 (Valldalsleden). Do not modify existing members of relation 11218584 (Valldalsleden). Research aid only. Existing OSM object: node/1356403693.'/>
    <tag k='note:osm_route_relation' v='11218584'/>
  </node>
  <node id='-3' version='0' action='modify' visible='true' lat='62.3000217' lon='7.2640292'>
    <tag k='name' v='Valldal Fjord Lodge'/>
    <tag k='note:proposed' v='Centroid proxy for way/677097863. Proposed: add as member of relation 11218584 (Valldalsleden). Do not modify existing members of relation 11218584 (Valldalsleden). Research aid only. Existing OSM object: way/677097863.'/>
    <tag k='note' v='Centroid proxy for way/677097863. Proposed: add as member of relation 11218584 (Valldalsleden). Do not modify existing members of relation 11218584 (Valldalsleden). Research aid only. Existing OSM object: way/677097863.'/>
    <tag k='note:osm_object' v='way/677097863'/>
    <tag k='note:osm_route_relation' v='11218584'/>
    <tag k='tourism' v='hotel'/>
    <tag k='building' v='hotel'/>
  </node>
  <node id='-4' version='0' action='modify' visible='true' lat='62.1142708' lon='9.2873581'>
    <tag k='name' v='Fokstugu fjellstue'/>
    <tag k='note:proposed' v='Centroid proxy for way/298217058. Proposed: add as member of relation 11218584 (Valldalsleden). Do not modify existing members of relation 11218584 (Valldalsleden). Research aid only. Existing OSM object: way/298217058.'/>
    <tag k='note' v='Centroid proxy for way/298217058. Proposed: add as member of relation 11218584 (Valldalsleden). Do not modify existing members of relation 11218584 (Valldalsleden). Research aid only. Existing OSM object: way/298217058.'/>
    <tag k='note:osm_object' v='way/298217058'/>
    <tag k='note:osm_route_relation' v='11218584'/>
    <tag k='tourism' v='chalet'/>
    <tag k='building' v='church'/>
  </node>
  <node id='3663314566' version='1' visible='true' lat='62.0804180' lon='9.1242930'>
    <tag k='name' v='Dombås Motell'/>
    <tag k='tourism' v='camp_site'/>
    <tag k='note:proposed' v='Proposed: add as member of relation 11218584 (Valldalsleden). Do not modify existing members of relation 11218584 (Valldalsleden). Research aid only. Existing OSM object: node/3663314566.'/>
    <tag k='note' v='Proposed: add as member of relation 11218584 (Valldalsleden). Do not modify existing members of relation 11218584 (Valldalsleden). Research aid only. Existing OSM object: node/3663314566.'/>
    <tag k='note:osm_route_relation' v='11218584'/>
  </node>
  <node id='6734886122' version='1' visible='true' lat='62.0750548' lon='9.1362003'>
    <tag k='name' v='Dombås Gjestehus'/>
    <tag k='tourism' v='guest_house'/>
    <tag k='note:proposed' v='Proposed: add as member of relation 11218584 (Valldalsleden). Do not modify existing members of relation 11218584 (Valldalsleden). Research aid only. Existing OSM object: node/6734886122.'/>
    <tag k='note' v='Proposed: add as member of relation 11218584 (Valldalsleden). Do not modify existing members of relation 11218584 (Valldalsleden). Research aid only. Existing OSM object: node/6734886122.'/>
    <tag k='note:osm_route_relation' v='11218584'/>
  </node>
  <node id='14060927024' version='1' visible='true' lat='62.2976115' lon='7.2628203'>
    <tag k='tourism' v='picnic_site'/>
    <tag k='note:proposed' v='Proposed: add as member of relation 11218584 (Valldalsleden). Do not modify existing members of relation 11218584 (Valldalsleden). Research aid only. Existing OSM object: node/14060927024.'/>
    <tag k='note' v='Proposed: add as member of relation 11218584 (Valldalsleden). Do not modify existing members of relation 11218584 (Valldalsleden). Research aid only. Existing OSM object: node/14060927024.'/>
    <tag k='note:osm_route_relation' v='11218584'/>
  </node>
  <node id='13695007800' version='1' visible='true' lat='62.1118500' lon='8.7717889'>
    <tag k='tourism' v='picnic_site'/>
    <tag k='note:proposed' v='Proposed: add as member of relation 11218584 (Valldalsleden). Do not modify existing members of relation 11218584 (Valldalsleden). Research aid only. Existing OSM object: node/13695007800.'/>
    <tag k='note' v='Proposed: add as member of relation 11218584 (Valldalsleden). Do not modify existing members of relation 11218584 (Valldalsleden). Research aid only. Existing OSM object: node/13695007800.'/>
    <tag k='note:osm_route_relation' v='11218584'/>
  </node>
  <node id='4706500650' version='1' visible='true' lat='62.3330144' lon='7.4704554'>
    <tag k='name' v='Juvet Landskapshotell'/>
    <tag k='tourism' v='hotel'/>
    <tag k='note:proposed' v='Proposed: add as member of relation 11218584 (Valldalsleden). Do not modify existing members of relation 11218584 (Valldalsleden). Research aid only. Existing OSM object: node/4706500650.'/>
    <tag k='note' v='Proposed: add as member of relation 11218584 (Valldalsleden). Do not modify existing members of relation 11218584 (Valldalsleden). Research aid only. Existing OSM object: node/4706500650.'/>
    <tag k='note:osm_route_relation' v='11218584'/>
  </node>
  <node id='-5' version='0' action='modify' visible='true' lat='62.0801057' lon='9.1234024'>
    <tag k='note:proposed' v='Centroid proxy for way/297397683. Proposed: add as member of relation 11218584 (Valldalsleden). Do not modify existing members of relation 11218584 (Valldalsleden). Research aid only. Existing OSM object: way/297397683.'/>
    <tag k='note' v='Centroid proxy for way/297397683. Proposed: add as member of relation 11218584 (Valldalsleden). Do not modify existing members of relation 11218584 (Valldalsleden). Research aid only. Existing OSM object: way/297397683.'/>
    <tag k='note:osm_object' v='way/297397683'/>
    <tag k='note:osm_route_relation' v='11218584'/>
    <tag k='tourism' v='camp_site'/>
  </node>
  <node id='-6' version='0' action='modify' visible='true' lat='62.1119039' lon='8.7717828'>
    <tag k='name' v='Ulvaholen'/>
    <tag k='note:proposed' v='Centroid proxy for way/1494570496. Proposed: add as member of relation 11218584 (Valldalsleden). Do not modify existing members of relation 11218584 (Valldalsleden). Research aid only. Existing OSM object: way/1494570496.'/>
    <tag k='note' v='Centroid proxy for way/1494570496. Proposed: add as member of relation 11218584 (Valldalsleden). Do not modify existing members of relation 11218584 (Valldalsleden). Research aid only. Existing OSM object: way/1494570496.'/>
    <tag k='note:osm_object' v='way/1494570496'/>
    <tag k='note:osm_route_relation' v='11218584'/>
    <tag k='amenity' v='shelter'/>
  </node>
  <node id='3663315937' version='1' visible='true' lat='62.0796980' lon='9.1235510'>
    <tag k='name' v='Midtskog Camping'/>
    <tag k='tourism' v='camp_site'/>
    <tag k='note:proposed' v='Proposed: add as member of relation 11218584 (Valldalsleden). Do not modify existing members of relation 11218584 (Valldalsleden). Research aid only. Existing OSM object: node/3663315937.'/>
    <tag k='note' v='Proposed: add as member of relation 11218584 (Valldalsleden). Do not modify existing members of relation 11218584 (Valldalsleden). Research aid only. Existing OSM object: node/3663315937.'/>
    <tag k='note:osm_route_relation' v='11218584'/>
  </node>
  <node id='5014558730' version='1' visible='true' lat='62.1896127' lon='8.5386678'>
    <tag k='tourism' v='picnic_site'/>
    <tag k='note:proposed' v='Proposed: add as member of relation 11218584 (Valldalsleden). Do not modify existing members of relation 11218584 (Valldalsleden). Research aid only. Existing OSM object: node/5014558730.'/>
    <tag k='note' v='Proposed: add as member of relation 11218584 (Valldalsleden). Do not modify existing members of relation 11218584 (Valldalsleden). Research aid only. Existing OSM object: node/5014558730.'/>
    <tag k='note:osm_route_relation' v='11218584'/>
  </node>
  <node id='14049320618' version='1' visible='true' lat='62.0785695' lon='9.1438007'>
    <tag k='name' v='Dombås vandrerhjem'/>
    <tag k='tourism' v='hostel'/>
    <tag k='note:proposed' v='Proposed: add as member of relation 11218584 (Valldalsleden). Do not modify existing members of relation 11218584 (Valldalsleden). Research aid only. Existing OSM object: node/14049320618.'/>
    <tag k='note' v='Proposed: add as member of relation 11218584 (Valldalsleden). Do not modify existing members of relation 11218584 (Valldalsleden). Research aid only. Existing OSM object: node/14049320618.'/>
    <tag k='note:osm_route_relation' v='11218584'/>
  </node>
  <node id='12115211607' version='1' visible='true' lat='62.0717134' lon='9.1317355'>
    <tag k='name' v='Ljoshaugen camping'/>
    <tag k='tourism' v='camp_site'/>
    <tag k='note:proposed' v='Proposed: add as member of relation 11218584 (Valldalsleden). Do not modify existing members of relation 11218584 (Valldalsleden). Research aid only. Existing OSM object: node/12115211607.'/>
    <tag k='note' v='Proposed: add as member of relation 11218584 (Valldalsleden). Do not modify existing members of relation 11218584 (Valldalsleden). Research aid only. Existing OSM object: node/12115211607.'/>
    <tag k='note:osm_route_relation' v='11218584'/>
  </node>
  <node id='3663317727' version='1' visible='true' lat='62.3153930' lon='7.2893690'>
    <tag k='name' v='Uritun Camping'/>
    <tag k='tourism' v='camp_site'/>
    <tag k='note:proposed' v='Proposed: add as member of relation 11218584 (Valldalsleden). Do not modify existing members of relation 11218584 (Valldalsleden). Research aid only. Existing OSM object: node/3663317727.'/>
    <tag k='note' v='Proposed: add as member of relation 11218584 (Valldalsleden). Do not modify existing members of relation 11218584 (Valldalsleden). Research aid only. Existing OSM object: node/3663317727.'/>
    <tag k='note:osm_route_relation' v='11218584'/>
  </node>
  <node id='-7' version='0' action='modify' visible='true' lat='62.3166586' lon='7.2950649'>
    <tag k='name' v='Valldal Camping'/>
    <tag k='note:proposed' v='Centroid proxy for way/672728331. Proposed: add as member of relation 11218584 (Valldalsleden). Do not modify existing members of relation 11218584 (Valldalsleden). Research aid only. Existing OSM object: way/672728331.'/>
    <tag k='note' v='Centroid proxy for way/672728331. Proposed: add as member of relation 11218584 (Valldalsleden). Do not modify existing members of relation 11218584 (Valldalsleden). Research aid only. Existing OSM object: way/672728331.'/>
    <tag k='note:osm_object' v='way/672728331'/>
    <tag k='note:osm_route_relation' v='11218584'/>
    <tag k='tourism' v='camp_site'/>
  </node>
  <node id='-8' version='0' action='modify' visible='true' lat='62.0899252' lon='9.2099783'>
    <tag k='note:proposed' v='Centroid proxy for way/177373104. Proposed: add as member of relation 11218584 (Valldalsleden). Do not modify existing members of relation 11218584 (Valldalsleden). Research aid only. Existing OSM object: way/177373104.'/>
    <tag k='note' v='Centroid proxy for way/177373104. Proposed: add as member of relation 11218584 (Valldalsleden). Do not modify existing members of relation 11218584 (Valldalsleden). Research aid only. Existing OSM object: way/177373104.'/>
    <tag k='note:osm_object' v='way/177373104'/>
    <tag k='note:osm_route_relation' v='11218584'/>
    <tag k='tourism' v='chalet'/>
    <tag k='building' v='cabin'/>
  </node>
  <node id='-9' version='0' action='modify' visible='true' lat='62.0897706' lon='9.2102040'>
    <tag k='note:proposed' v='Centroid proxy for way/177373105. Proposed: add as member of relation 11218584 (Valldalsleden). Do not modify existing members of relation 11218584 (Valldalsleden). Research aid only. Existing OSM object: way/177373105.'/>
    <tag k='note' v='Centroid proxy for way/177373105. Proposed: add as member of relation 11218584 (Valldalsleden). Do not modify existing members of relation 11218584 (Valldalsleden). Research aid only. Existing OSM object: way/177373105.'/>
    <tag k='note:osm_object' v='way/177373105'/>
    <tag k='note:osm_route_relation' v='11218584'/>
    <tag k='tourism' v='chalet'/>
    <tag k='building' v='cabin'/>
  </node>
  <node id='-10' version='0' action='modify' visible='true' lat='62.0894761' lon='9.2092193'>
    <tag k='note:proposed' v='Centroid proxy for way/177373109. Proposed: add as member of relation 11218584 (Valldalsleden). Do not modify existing members of relation 11218584 (Valldalsleden). Research aid only. Existing OSM object: way/177373109.'/>
    <tag k='note' v='Centroid proxy for way/177373109. Proposed: add as member of relation 11218584 (Valldalsleden). Do not modify existing members of relation 11218584 (Valldalsleden). Research aid only. Existing OSM object: way/177373109.'/>
    <tag k='note:osm_object' v='way/177373109'/>
    <tag k='note:osm_route_relation' v='11218584'/>
    <tag k='tourism' v='chalet'/>
    <tag k='building' v='cabin'/>
  </node>
  <node id='-11' version='0' action='modify' visible='true' lat='62.0895444' lon='9.2095984'>
    <tag k='note:proposed' v='Centroid proxy for way/177373103. Proposed: add as member of relation 11218584 (Valldalsleden). Do not modify existing members of relation 11218584 (Valldalsleden). Research aid only. Existing OSM object: way/177373103.'/>
    <tag k='note' v='Centroid proxy for way/177373103. Proposed: add as member of relation 11218584 (Valldalsleden). Do not modify existing members of relation 11218584 (Valldalsleden). Research aid only. Existing OSM object: way/177373103.'/>
    <tag k='note:osm_object' v='way/177373103'/>
    <tag k='note:osm_route_relation' v='11218584'/>
    <tag k='tourism' v='chalet'/>
    <tag k='building' v='cabin'/>
  </node>
  <node id='-12' version='0' action='modify' visible='true' lat='62.0893664' lon='9.2090656'>
    <tag k='note:proposed' v='Centroid proxy for way/177373108. Proposed: add as member of relation 11218584 (Valldalsleden). Do not modify existing members of relation 11218584 (Valldalsleden). Research aid only. Existing OSM object: way/177373108.'/>
    <tag k='note' v='Centroid proxy for way/177373108. Proposed: add as member of relation 11218584 (Valldalsleden). Do not modify existing members of relation 11218584 (Valldalsleden). Research aid only. Existing OSM object: way/177373108.'/>
    <tag k='note:osm_object' v='way/177373108'/>
    <tag k='note:osm_route_relation' v='11218584'/>
    <tag k='tourism' v='chalet'/>
    <tag k='building' v='cabin'/>
  </node>
  <node id='247936655' version='1' visible='true' lat='62.0856385' lon='9.1237930'>
    <tag k='name' v='Dovrefjell hotell'/>
    <tag k='tourism' v='hotel'/>
    <tag k='note:proposed' v='Proposed: add as member of relation 11218584 (Valldalsleden). Do not modify existing members of relation 11218584 (Valldalsleden). Research aid only. Existing OSM object: node/247936655.'/>
    <tag k='note' v='Proposed: add as member of relation 11218584 (Valldalsleden). Do not modify existing members of relation 11218584 (Valldalsleden). Research aid only. Existing OSM object: node/247936655.'/>
    <tag k='note:osm_route_relation' v='11218584'/>
  </node>
  <node id='4963334722' version='1' visible='true' lat='62.2969938' lon='7.2579663'>
    <tag k='name' v='Valldal fjordhotell'/>
    <tag k='tourism' v='hotel'/>
    <tag k='note:proposed' v='Proposed: add as member of relation 11218584 (Valldalsleden). Do not modify existing members of relation 11218584 (Valldalsleden). Research aid only. Existing OSM object: node/4963334722.'/>
    <tag k='note' v='Proposed: add as member of relation 11218584 (Valldalsleden). Do not modify existing members of relation 11218584 (Valldalsleden). Research aid only. Existing OSM object: node/4963334722.'/>
    <tag k='note:osm_route_relation' v='11218584'/>
  </node>
  <node id='-13' version='0' action='modify' visible='true' lat='62.0731725' lon='9.1211324'>
    <tag k='name' v='Dombås Hotel'/>
    <tag k='note:proposed' v='Centroid proxy for way/648286531. Proposed: add as member of relation 11218584 (Valldalsleden). Do not modify existing members of relation 11218584 (Valldalsleden). Research aid only. Existing OSM object: way/648286531.'/>
    <tag k='note' v='Centroid proxy for way/648286531. Proposed: add as member of relation 11218584 (Valldalsleden). Do not modify existing members of relation 11218584 (Valldalsleden). Research aid only. Existing OSM object: way/648286531.'/>
    <tag k='note:osm_object' v='way/648286531'/>
    <tag k='note:osm_route_relation' v='11218584'/>
    <tag k='tourism' v='hotel'/>
    <tag k='building' v='hotel'/>
  </node>
  <node id='3663315010' version='1' visible='true' lat='62.3334050' lon='7.3794340'>
    <tag k='name' v='Gjerde camping'/>
    <tag k='tourism' v='camp_site'/>
    <tag k='note:proposed' v='Proposed: add as member of relation 11218584 (Valldalsleden). Do not modify existing members of relation 11218584 (Valldalsleden). Research aid only. Existing OSM object: node/3663315010.'/>
    <tag k='note' v='Proposed: add as member of relation 11218584 (Valldalsleden). Do not modify existing members of relation 11218584 (Valldalsleden). Research aid only. Existing OSM object: node/3663315010.'/>
    <tag k='note:osm_route_relation' v='11218584'/>
  </node>
  <node id='3663314565' version='1' visible='true' lat='62.0728970' lon='9.1206940'>
    <tag k='name' v='Domaas Gård Hyttetun &amp; Caravancamp'/>
    <tag k='tourism' v='camp_site'/>
    <tag k='note:proposed' v='Proposed: add as member of relation 11218584 (Valldalsleden). Do not modify existing members of relation 11218584 (Valldalsleden). Research aid only. Existing OSM object: node/3663314565.'/>
    <tag k='note' v='Proposed: add as member of relation 11218584 (Valldalsleden). Do not modify existing members of relation 11218584 (Valldalsleden). Research aid only. Existing OSM object: node/3663314565.'/>
    <tag k='note:osm_route_relation' v='11218584'/>
  </node>
  <node id='3663316412' version='1' visible='true' lat='62.3293290' lon='7.3297090'>
    <tag k='name' v='Skoglund Camping I'/>
    <tag k='tourism' v='camp_site'/>
    <tag k='note:proposed' v='Proposed: add as member of relation 11218584 (Valldalsleden). Do not modify existing members of relation 11218584 (Valldalsleden). Research aid only. Existing OSM object: node/3663316412.'/>
    <tag k='note' v='Proposed: add as member of relation 11218584 (Valldalsleden). Do not modify existing members of relation 11218584 (Valldalsleden). Research aid only. Existing OSM object: node/3663316412.'/>
    <tag k='note:osm_route_relation' v='11218584'/>
  </node>
  <node id='3663315238' version='1' visible='true' lat='62.3287810' lon='7.4706260'>
    <tag k='name' v='Gudbrandsjuvet Camping'/>
    <tag k='tourism' v='camp_site'/>
    <tag k='note:proposed' v='Proposed: add as member of relation 11218584 (Valldalsleden). Do not modify existing members of relation 11218584 (Valldalsleden). Research aid only. Existing OSM object: node/3663315238.'/>
    <tag k='note' v='Proposed: add as member of relation 11218584 (Valldalsleden). Do not modify existing members of relation 11218584 (Valldalsleden). Research aid only. Existing OSM object: node/3663315238.'/>
    <tag k='note:osm_route_relation' v='11218584'/>
  </node>
  <node id='6808271313' version='1' visible='true' lat='62.1195851' lon='8.8031790'>
    <tag k='name' v='Tynnøl Backpackers Lodge'/>
    <tag k='tourism' v='guest_house'/>
    <tag k='note:proposed' v='Proposed: add as member of relation 11218584 (Valldalsleden). Do not modify existing members of relation 11218584 (Valldalsleden). Research aid only. Existing OSM object: node/6808271313.'/>
    <tag k='note' v='Proposed: add as member of relation 11218584 (Valldalsleden). Do not modify existing members of relation 11218584 (Valldalsleden). Research aid only. Existing OSM object: node/6808271313.'/>
    <tag k='note:osm_route_relation' v='11218584'/>
  </node>
  <node id='6808271301' version='1' visible='true' lat='62.1144221' lon='8.8380074'>
    <tag k='name' v='Kolstad gard'/>
    <tag k='tourism' v='apartment'/>
    <tag k='note:proposed' v='Proposed: add as member of relation 11218584 (Valldalsleden). Do not modify existing members of relation 11218584 (Valldalsleden). Research aid only. Existing OSM object: node/6808271301.'/>
    <tag k='note' v='Proposed: add as member of relation 11218584 (Valldalsleden). Do not modify existing members of relation 11218584 (Valldalsleden). Research aid only. Existing OSM object: node/6808271301.'/>
    <tag k='note:osm_route_relation' v='11218584'/>
  </node>
  <node id='-14' version='0' action='modify' visible='true' lat='62.2300724' lon='8.4077641'>
    <tag k='name' v='Lesjaskogvatnet Camping'/>
    <tag k='note:proposed' v='Centroid proxy for way/305044838. Proposed: add as member of relation 11218584 (Valldalsleden). Do not modify existing members of relation 11218584 (Valldalsleden). Research aid only. Existing OSM object: way/305044838.'/>
    <tag k='note' v='Centroid proxy for way/305044838. Proposed: add as member of relation 11218584 (Valldalsleden). Do not modify existing members of relation 11218584 (Valldalsleden). Research aid only. Existing OSM object: way/305044838.'/>
    <tag k='note:osm_object' v='way/305044838'/>
    <tag k='note:osm_route_relation' v='11218584'/>
    <tag k='tourism' v='camp_site'/>
  </node>
  <node id='6050165613' version='1' visible='true' lat='62.1952701' lon='8.4793693'>
    <tag k='name' v='Søre Tandsætre'/>
    <tag k='tourism' v='chalet'/>
    <tag k='note:proposed' v='Proposed: add as member of relation 11218584 (Valldalsleden). Do not modify existing members of relation 11218584 (Valldalsleden). Research aid only. Existing OSM object: node/6050165613.'/>
    <tag k='note' v='Proposed: add as member of relation 11218584 (Valldalsleden). Do not modify existing members of relation 11218584 (Valldalsleden). Research aid only. Existing OSM object: node/6050165613.'/>
    <tag k='note:osm_route_relation' v='11218584'/>
  </node>
  <node id='-15' version='0' action='modify' visible='true' lat='62.2279959' lon='8.4232210'>
    <tag k='name' v='Aaheim Camping'/>
    <tag k='note:proposed' v='Centroid proxy for way/304849086. Proposed: add as member of relation 11218584 (Valldalsleden). Do not modify existing members of relation 11218584 (Valldalsleden). Research aid only. Existing OSM object: way/304849086.'/>
    <tag k='note' v='Centroid proxy for way/304849086. Proposed: add as member of relation 11218584 (Valldalsleden). Do not modify existing members of relation 11218584 (Valldalsleden). Research aid only. Existing OSM object: way/304849086.'/>
    <tag k='note:osm_object' v='way/304849086'/>
    <tag k='note:osm_route_relation' v='11218584'/>
    <tag k='tourism' v='camp_site'/>
  </node>
  <node id='-16' version='0' action='modify' visible='true' lat='62.1298345' lon='8.8801983'>
    <tag k='name' v='Tussheimbue'/>
    <tag k='note:proposed' v='Centroid proxy for way/1255056874. Proposed: add as member of relation 11218584 (Valldalsleden). Do not modify existing members of relation 11218584 (Valldalsleden). Research aid only. Existing OSM object: way/1255056874.'/>
    <tag k='note' v='Centroid proxy for way/1255056874. Proposed: add as member of relation 11218584 (Valldalsleden). Do not modify existing members of relation 11218584 (Valldalsleden). Research aid only. Existing OSM object: way/1255056874.'/>
    <tag k='note:osm_object' v='way/1255056874'/>
    <tag k='note:osm_route_relation' v='11218584'/>
    <tag k='amenity' v='shelter'/>
  </node>
  <node id='3663317745' version='1' visible='true' lat='62.1729120' lon='8.6349470'>
    <tag k='name' v='Vangrud Camping'/>
    <tag k='tourism' v='camp_site'/>
    <tag k='note:proposed' v='Proposed: add as member of relation 11218584 (Valldalsleden). Do not modify existing members of relation 11218584 (Valldalsleden). Research aid only. Existing OSM object: node/3663317745.'/>
    <tag k='note' v='Proposed: add as member of relation 11218584 (Valldalsleden). Do not modify existing members of relation 11218584 (Valldalsleden). Research aid only. Existing OSM object: node/3663317745.'/>
    <tag k='note:osm_route_relation' v='11218584'/>
  </node>
  <node id='3663316201' version='1' visible='true' lat='62.0852960' lon='9.0279920'>
    <tag k='name' v='Rolstad Camping'/>
    <tag k='tourism' v='camp_site'/>
    <tag k='note:proposed' v='Proposed: add as member of relation 11218584 (Valldalsleden). Do not modify existing members of relation 11218584 (Valldalsleden). Research aid only. Existing OSM object: node/3663316201.'/>
    <tag k='note' v='Proposed: add as member of relation 11218584 (Valldalsleden). Do not modify existing members of relation 11218584 (Valldalsleden). Research aid only. Existing OSM object: node/3663316201.'/>
    <tag k='note:osm_route_relation' v='11218584'/>
  </node>
  <node id='3663317769' version='1' visible='true' lat='62.2928950' lon='7.2858530'>
    <tag k='name' v='Vika Ferie og Fritid'/>
    <tag k='tourism' v='camp_site'/>
    <tag k='note:proposed' v='Proposed: add as member of relation 11218584 (Valldalsleden). Do not modify existing members of relation 11218584 (Valldalsleden). Research aid only. Existing OSM object: node/3663317769.'/>
    <tag k='note' v='Proposed: add as member of relation 11218584 (Valldalsleden). Do not modify existing members of relation 11218584 (Valldalsleden). Research aid only. Existing OSM object: node/3663317769.'/>
    <tag k='note:osm_route_relation' v='11218584'/>
  </node>
  <node id='13001139903' version='1' visible='true' lat='62.3052838' lon='7.3330906'>
    <tag k='tourism' v='picnic_site'/>
    <tag k='note:proposed' v='Proposed: add as member of relation 11218584 (Valldalsleden). Do not modify existing members of relation 11218584 (Valldalsleden). Research aid only. Existing OSM object: node/13001139903.'/>
    <tag k='note' v='Proposed: add as member of relation 11218584 (Valldalsleden). Do not modify existing members of relation 11218584 (Valldalsleden). Research aid only. Existing OSM object: node/13001139903.'/>
    <tag k='note:osm_route_relation' v='11218584'/>
  </node>
  <node id='2396576894' version='1' visible='true' lat='62.2519842' lon='8.2161703'>
    <tag k='name' v='Bjorliheimen hotel'/>
    <tag k='tourism' v='hotel'/>
    <tag k='note:proposed' v='Proposed: add as member of relation 11218584 (Valldalsleden). Do not modify existing members of relation 11218584 (Valldalsleden). Research aid only. Existing OSM object: node/2396576894.'/>
    <tag k='note' v='Proposed: add as member of relation 11218584 (Valldalsleden). Do not modify existing members of relation 11218584 (Valldalsleden). Research aid only. Existing OSM object: node/2396576894.'/>
    <tag k='note:osm_route_relation' v='11218584'/>
  </node>
  <node id='-17' version='0' action='modify' visible='true' lat='62.2529787' lon='8.2172336'>
    <tag k='note:proposed' v='Centroid proxy for way/306894609. Proposed: add as member of relation 11218584 (Valldalsleden). Do not modify existing members of relation 11218584 (Valldalsleden). Research aid only. Existing OSM object: way/306894609.'/>
    <tag k='note' v='Centroid proxy for way/306894609. Proposed: add as member of relation 11218584 (Valldalsleden). Do not modify existing members of relation 11218584 (Valldalsleden). Research aid only. Existing OSM object: way/306894609.'/>
    <tag k='note:osm_object' v='way/306894609'/>
    <tag k='note:osm_route_relation' v='11218584'/>
    <tag k='tourism' v='chalet'/>
  </node>
  <node id='-18' version='0' action='modify' visible='true' lat='62.3025138' lon='7.2558082'>
    <tag k='name' v='Elvebakken Camping'/>
    <tag k='source' v='pilegrimsleden.no'/>
    <tag k='network' v='Pilegrimsleden'/>
    <tag k='note:trail' v='Valldalsleden'/>
    <tag k='note:osm_route_relation' v='11218584'/>
    <tag k='note:proposed' v='Proposed: create OSM object and add as member of relation 11218584 (Valldalsleden). Do not modify existing members of relation 11218584 (Valldalsleden). Research aid only.'/>
    <tag k='note' v='Proposed: create OSM object and add as member of relation 11218584 (Valldalsleden). Do not modify existing members of relation 11218584 (Valldalsleden). Research aid only.'/>
    <tag k='tourism' v='camp_site'/>
  </node>
  <node id='-19' version='0' action='modify' visible='true' lat='62.2350940' lon='8.3063111'>
    <tag k='name' v='Gammelstuggu'/>
    <tag k='source' v='pilegrimsleden.no'/>
    <tag k='network' v='Pilegrimsleden'/>
    <tag k='note:trail' v='Valldalsleden'/>
    <tag k='note:osm_route_relation' v='11218584'/>
    <tag k='note:proposed' v='Proposed: create OSM object and add as member of relation 11218584 (Valldalsleden). Do not modify existing members of relation 11218584 (Valldalsleden). Research aid only.'/>
    <tag k='note' v='Proposed: create OSM object and add as member of relation 11218584 (Valldalsleden). Do not modify existing members of relation 11218584 (Valldalsleden). Research aid only.'/>
    <tag k='tourism' v='chalet'/>
  </node>
  <node id='-20' version='0' action='modify' visible='true' lat='62.2998853' lon='7.2951452'>
    <tag k='name' v='Klosteret av Den Hellige Olav'/>
    <tag k='source' v='pilegrimsleden.no'/>
    <tag k='network' v='Pilegrimsleden'/>
    <tag k='note:trail' v='Valldalsleden'/>
    <tag k='note:osm_route_relation' v='11218584'/>
    <tag k='note:proposed' v='Proposed: create OSM object and add as member of relation 11218584 (Valldalsleden). Do not modify existing members of relation 11218584 (Valldalsleden). Research aid only.'/>
    <tag k='note' v='Proposed: create OSM object and add as member of relation 11218584 (Valldalsleden). Do not modify existing members of relation 11218584 (Valldalsleden). Research aid only.'/>
    <tag k='tourism' v='hostel'/>
    <tag k='hostel:type' v='pilgrim'/>
  </node>
  <node id='-21' version='0' action='modify' visible='true' lat='62.2695601' lon='8.0741358'>
    <tag k='name' v='Koia - Hytte i Verma'/>
    <tag k='source' v='pilegrimsleden.no'/>
    <tag k='network' v='Pilegrimsleden'/>
    <tag k='note:trail' v='Valldalsleden'/>
    <tag k='note:osm_route_relation' v='11218584'/>
    <tag k='note:proposed' v='Proposed: create OSM object and add as member of relation 11218584 (Valldalsleden). Do not modify existing members of relation 11218584 (Valldalsleden). Research aid only.'/>
    <tag k='note' v='Proposed: create OSM object and add as member of relation 11218584 (Valldalsleden). Do not modify existing members of relation 11218584 (Valldalsleden). Research aid only.'/>
    <tag k='tourism' v='chalet'/>
  </node>
  <node id='-22' version='0' action='modify' visible='true' lat='62.1923994' lon='8.5405803'>
    <tag k='name' v='Kvennbekkhytta (stengt)'/>
    <tag k='source' v='pilegrimsleden.no'/>
    <tag k='network' v='Pilegrimsleden'/>
    <tag k='note:trail' v='Valldalsleden'/>
    <tag k='note:osm_route_relation' v='11218584'/>
    <tag k='note:proposed' v='Proposed: create OSM object and add as member of relation 11218584 (Valldalsleden). Do not modify existing members of relation 11218584 (Valldalsleden). Research aid only.'/>
    <tag k='note' v='Proposed: create OSM object and add as member of relation 11218584 (Valldalsleden). Do not modify existing members of relation 11218584 (Valldalsleden). Research aid only.'/>
    <tag k='tourism' v='chalet'/>
  </node>
  <node id='-23' version='0' action='modify' visible='true' lat='62.1182020' lon='8.8533729'>
    <tag k='name' v='Lesja Gjestgiveri'/>
    <tag k='source' v='pilegrimsleden.no'/>
    <tag k='network' v='Pilegrimsleden'/>
    <tag k='note:trail' v='Valldalsleden'/>
    <tag k='note:osm_route_relation' v='11218584'/>
    <tag k='note:proposed' v='Proposed: create OSM object and add as member of relation 11218584 (Valldalsleden). Do not modify existing members of relation 11218584 (Valldalsleden). Research aid only.'/>
    <tag k='note' v='Proposed: create OSM object and add as member of relation 11218584 (Valldalsleden). Do not modify existing members of relation 11218584 (Valldalsleden). Research aid only.'/>
    <tag k='tourism' v='chalet'/>
  </node>
  <node id='-24' version='0' action='modify' visible='true' lat='62.1200643' lon='8.6512083'>
    <tag k='name' v='Lorkverna'/>
    <tag k='source' v='pilegrimsleden.no'/>
    <tag k='network' v='Pilegrimsleden'/>
    <tag k='note:trail' v='Valldalsleden'/>
    <tag k='note:osm_route_relation' v='11218584'/>
    <tag k='note:proposed' v='Proposed: create OSM object and add as member of relation 11218584 (Valldalsleden). Do not modify existing members of relation 11218584 (Valldalsleden). Research aid only.'/>
    <tag k='note' v='Proposed: create OSM object and add as member of relation 11218584 (Valldalsleden). Do not modify existing members of relation 11218584 (Valldalsleden). Research aid only.'/>
    <tag k='tourism' v='chalet'/>
  </node>
  <node id='-25' version='0' action='modify' visible='true' lat='62.2991634' lon='7.2549677'>
    <tag k='name' v='Muri hytteutleige'/>
    <tag k='source' v='pilegrimsleden.no'/>
    <tag k='network' v='Pilegrimsleden'/>
    <tag k='note:trail' v='Valldalsleden'/>
    <tag k='note:osm_route_relation' v='11218584'/>
    <tag k='note:proposed' v='Proposed: create OSM object and add as member of relation 11218584 (Valldalsleden). Do not modify existing members of relation 11218584 (Valldalsleden). Research aid only.'/>
    <tag k='note' v='Proposed: create OSM object and add as member of relation 11218584 (Valldalsleden). Do not modify existing members of relation 11218584 (Valldalsleden). Research aid only.'/>
    <tag k='tourism' v='chalet'/>
  </node>
  <node id='-26' version='0' action='modify' visible='true' lat='62.2390944' lon='8.3011685'>
    <tag k='name' v='Sør-Einbu'/>
    <tag k='source' v='pilegrimsleden.no'/>
    <tag k='network' v='Pilegrimsleden'/>
    <tag k='note:trail' v='Valldalsleden'/>
    <tag k='note:osm_route_relation' v='11218584'/>
    <tag k='note:proposed' v='Proposed: create OSM object and add as member of relation 11218584 (Valldalsleden). Do not modify existing members of relation 11218584 (Valldalsleden). Research aid only.'/>
    <tag k='note' v='Proposed: create OSM object and add as member of relation 11218584 (Valldalsleden). Do not modify existing members of relation 11218584 (Valldalsleden). Research aid only.'/>
    <tag k='tourism' v='chalet'/>
  </node>
  <relation id='-27' version='0' action='modify' visible='true'>
    <member type='node' ref='837453934' role='shelter'/>
    <member type='node' ref='-1' role='shelter'/>
    <member type='node' ref='-2' role='shelter'/>
    <member type='node' ref='1356403693' role='shelter'/>
    <member type='node' ref='-3' role='shelter'/>
    <member type='node' ref='-4' role='shelter'/>
    <member type='node' ref='3663314566' role='shelter'/>
    <member type='node' ref='6734886122' role='shelter'/>
    <member type='node' ref='14060927024' role='shelter'/>
    <member type='node' ref='13695007800' role='shelter'/>
    <member type='node' ref='4706500650' role='shelter'/>
    <member type='node' ref='-5' role='shelter'/>
    <member type='node' ref='-6' role='shelter'/>
    <member type='node' ref='3663315937' role='shelter'/>
    <member type='node' ref='5014558730' role='shelter'/>
    <member type='node' ref='14049320618' role='shelter'/>
    <member type='node' ref='12115211607' role='shelter'/>
    <member type='node' ref='3663317727' role='shelter'/>
    <member type='node' ref='-7' role='shelter'/>
    <member type='node' ref='-8' role='shelter'/>
    <member type='node' ref='-9' role='shelter'/>
    <member type='node' ref='-10' role='shelter'/>
    <member type='node' ref='-11' role='shelter'/>
    <member type='node' ref='-12' role='shelter'/>
    <member type='node' ref='247936655' role='shelter'/>
    <member type='node' ref='4963334722' role='shelter'/>
    <member type='node' ref='-13' role='shelter'/>
    <member type='node' ref='3663315010' role='shelter'/>
    <member type='node' ref='3663314565' role='shelter'/>
    <member type='node' ref='3663316412' role='shelter'/>
    <member type='node' ref='3663315238' role='shelter'/>
    <member type='node' ref='6808271313' role='shelter'/>
    <member type='node' ref='6808271301' role='shelter'/>
    <member type='node' ref='-14' role='shelter'/>
    <member type='node' ref='6050165613' role='shelter'/>
    <member type='node' ref='-15' role='shelter'/>
    <member type='node' ref='-16' role='shelter'/>
    <member type='node' ref='3663317745' role='shelter'/>
    <member type='node' ref='3663316201' role='shelter'/>
    <member type='node' ref='3663317769' role='shelter'/>
    <member type='node' ref='13001139903' role='shelter'/>
    <member type='node' ref='2396576894' role='shelter'/>
    <member type='node' ref='-17' role='shelter'/>
    <member type='node' ref='-18' role='shelter'/>
    <member type='node' ref='-19' role='shelter'/>
    <member type='node' ref='-20' role='shelter'/>
    <member type='node' ref='-21' role='shelter'/>
    <member type='node' ref='-22' role='shelter'/>
    <member type='node' ref='-23' role='shelter'/>
    <member type='node' ref='-24' role='shelter'/>
    <member type='node' ref='-25' role='shelter'/>
    <member type='node' ref='-26' role='shelter'/>
    <tag k='type' v='site'/>
    <tag k='name' v='Proposed additions to Valldalsleden'/>
    <tag k='network' v='Pilegrimsleden'/>
    <tag k='note:trail' v='Valldalsleden'/>
    <tag k='note:target_osm_relation' v='11218584'/>
    <tag k='source' v='openstreetmap.org/relation/11218584'/>
    <tag k='note' v='LOCAL research relation listing objects missing from OSM relation 11218584. Does not modify the existing OSM relation. Each proposed POI carries note:proposed. Not an import.'/>
  </relation>
</osm>
