<?xml version='1.0' encoding='UTF-8'?>
<osm version='0.6' generator='pilegrimsleden-osm-extractor 1.0'>
  <node id='-1' version='0' action='modify' visible='true' lat='62.2276702' lon='8.4231037'>
    <tag k='name' v='Aaheim camping'/>
    <tag k='source' v='pilegrimsleden.no'/>
    <tag k='url' v='https://www.pilegrimsleden.no/interessepunkter/aaheim-camping'/>
    <tag k='network' v='Pilegrimsleden'/>
    <tag k='note:trail' v='Valldalsleden'/>
    <tag k='pilegrimsleden:poi_type' v='Rom og hytter'/>
    <tag k='pilegrimsleden:id' v='9007'/>
    <tag k='tourism' v='chalet'/>
  </node>
  <node id='-2' version='0' action='modify' visible='true' lat='62.2533484' lon='8.2164860'>
    <tag k='name' v='Bjorliheimen hotell'/>
    <tag k='source' v='pilegrimsleden.no'/>
    <tag k='url' v='https://www.pilegrimsleden.no/interessepunkter/bjorliheimen-hotell'/>
    <tag k='network' v='Pilegrimsleden'/>
    <tag k='note:trail' v='Valldalsleden'/>
    <tag k='pilegrimsleden:poi_type' v='Pilegrimsherberge;Vandrerhjem;Campingplass;Rom og hytter;Teltplass'/>
    <tag k='pilegrimsleden:id' v='9028'/>
    <tag k='tourism' v='hostel'/>
    <tag k='hostel:type' v='pilgrim'/>
    <tag k='note:osm_mapping' v='uncertain OSM equivalent for category Pilegrimsherberge'/>
  </node>
  <node id='-3' version='0' action='modify' visible='true' lat='62.0726800' lon='9.1202563'>
    <tag k='name' v='Dombås gard'/>
    <tag k='source' v='pilegrimsleden.no'/>
    <tag k='url' v='https://www.pilegrimsleden.no/interessepunkter/dombas-gard'/>
    <tag k='network' v='Pilegrimsleden'/>
    <tag k='note:trail' v='Valldalsleden'/>
    <tag k='pilegrimsleden:poi_type' v='Rom og hytter'/>
    <tag k='pilegrimsleden:id' v='8974'/>
    <tag k='tourism' v='chalet'/>
  </node>
  <node id='-4' version='0' action='modify' visible='true' lat='62.3025138' lon='7.2558082'>
    <tag k='name' v='Elvebakken Camping'/>
    <tag k='source' v='pilegrimsleden.no'/>
    <tag k='url' v='https://www.pilegrimsleden.no/interessepunkter/elvebakken-camping'/>
    <tag k='network' v='Pilegrimsleden'/>
    <tag k='note:trail' v='Valldalsleden'/>
    <tag k='pilegrimsleden:poi_type' v='Campingplass;Teltplass'/>
    <tag k='pilegrimsleden:id' v='545854'/>
    <tag k='tourism' v='camp_site'/>
  </node>
  <node id='-5' version='0' action='modify' visible='true' lat='62.2350940' lon='8.3063111'>
    <tag k='name' v='Gammelstuggu'/>
    <tag k='source' v='pilegrimsleden.no'/>
    <tag k='url' v='https://www.pilegrimsleden.no/interessepunkter/gammelstuggu'/>
    <tag k='network' v='Pilegrimsleden'/>
    <tag k='note:trail' v='Valldalsleden'/>
    <tag k='pilegrimsleden:poi_type' v='Rom og hytter'/>
    <tag k='pilegrimsleden:id' v='9016'/>
    <tag k='tourism' v='chalet'/>
  </node>
  <node id='-6' version='0' action='modify' visible='true' lat='62.3288582' lon='7.4704021'>
    <tag k='name' v='Gudbrandsjuvet camping'/>
    <tag k='source' v='pilegrimsleden.no'/>
    <tag k='url' v='https://www.pilegrimsleden.no/interessepunkter/gudbrandsjuvet-camping'/>
    <tag k='network' v='Pilegrimsleden'/>
    <tag k='note:trail' v='Valldalsleden'/>
    <tag k='pilegrimsleden:poi_type' v='Rom og hytter'/>
    <tag k='pilegrimsleden:id' v='9037'/>
    <tag k='tourism' v='chalet'/>
  </node>
  <node id='-7' version='0' action='modify' visible='true' lat='62.2998853' lon='7.2951452'>
    <tag k='name' v='Klosteret av Den Hellige Olav'/>
    <tag k='source' v='pilegrimsleden.no'/>
    <tag k='url' v='https://www.pilegrimsleden.no/interessepunkter/monastery-of-saint-olav'/>
    <tag k='network' v='Pilegrimsleden'/>
    <tag k='note:trail' v='Valldalsleden'/>
    <tag k='pilegrimsleden:poi_type' v='Pilegrimsherberge'/>
    <tag k='pilegrimsleden:id' v='560419'/>
    <tag k='tourism' v='hostel'/>
    <tag k='hostel:type' v='pilgrim'/>
    <tag k='note:osm_mapping' v='uncertain OSM equivalent for category Pilegrimsherberge'/>
  </node>
  <node id='-8' version='0' action='modify' visible='true' lat='62.2695601' lon='8.0741358'>
    <tag k='name' v='Koia - Hytte i Verma'/>
    <tag k='source' v='pilegrimsleden.no'/>
    <tag k='url' v='https://www.pilegrimsleden.no/interessepunkter/koia-hytte-i-verma'/>
    <tag k='network' v='Pilegrimsleden'/>
    <tag k='note:trail' v='Valldalsleden'/>
    <tag k='pilegrimsleden:poi_type' v='Rom og hytter'/>
    <tag k='pilegrimsleden:id' v='313272'/>
    <tag k='tourism' v='chalet'/>
  </node>
  <node id='-9' version='0' action='modify' visible='true' lat='62.1145350' lon='8.8378280'>
    <tag k='name' v='Kolstad gård'/>
    <tag k='source' v='pilegrimsleden.no'/>
    <tag k='url' v='https://www.pilegrimsleden.no/interessepunkter/kolstad-gard'/>
    <tag k='network' v='Pilegrimsleden'/>
    <tag k='note:trail' v='Valldalsleden'/>
    <tag k='pilegrimsleden:poi_type' v='Rom og hytter'/>
    <tag k='pilegrimsleden:id' v='8995'/>
    <tag k='tourism' v='chalet'/>
  </node>
  <node id='-10' version='0' action='modify' visible='true' lat='62.1923994' lon='8.5405803'>
    <tag k='name' v='Kvennbekkhytta (stengt)'/>
    <tag k='source' v='pilegrimsleden.no'/>
    <tag k='url' v='https://www.pilegrimsleden.no/interessepunkter/kvennbekkhytta'/>
    <tag k='network' v='Pilegrimsleden'/>
    <tag k='note:trail' v='Valldalsleden'/>
    <tag k='pilegrimsleden:poi_type' v='Rom og hytter'/>
    <tag k='pilegrimsleden:id' v='9004'/>
    <tag k='tourism' v='chalet'/>
  </node>
  <node id='-11' version='0' action='modify' visible='true' lat='62.1182020' lon='8.8533729'>
    <tag k='name' v='Lesja Gjestgiveri'/>
    <tag k='source' v='pilegrimsleden.no'/>
    <tag k='url' v='https://www.pilegrimsleden.no/interessepunkter/lesja-gjestgiveri'/>
    <tag k='network' v='Pilegrimsleden'/>
    <tag k='note:trail' v='Valldalsleden'/>
    <tag k='pilegrimsleden:poi_type' v='Rom og hytter'/>
    <tag k='pilegrimsleden:id' v='8989'/>
    <tag k='tourism' v='chalet'/>
  </node>
  <node id='-12' version='0' action='modify' visible='true' lat='62.2303184' lon='8.4064592'>
    <tag k='name' v='Lesjaskogsvatnet camping'/>
    <tag k='source' v='pilegrimsleden.no'/>
    <tag k='url' v='https://www.pilegrimsleden.no/interessepunkter/lesjaskogsvatnet-camping'/>
    <tag k='network' v='Pilegrimsleden'/>
    <tag k='note:trail' v='Valldalsleden'/>
    <tag k='pilegrimsleden:poi_type' v='Rom og hytter'/>
    <tag k='pilegrimsleden:id' v='9010'/>
    <tag k='tourism' v='chalet'/>
  </node>
  <node id='-13' version='0' action='modify' visible='true' lat='62.0707621' lon='9.1316986'>
    <tag k='name' v='Ljoshaugen camping'/>
    <tag k='source' v='pilegrimsleden.no'/>
    <tag k='url' v='https://www.pilegrimsleden.no/interessepunkter/ljoshaugen-camping'/>
    <tag k='network' v='Pilegrimsleden'/>
    <tag k='note:trail' v='Valldalsleden'/>
    <tag k='pilegrimsleden:poi_type' v='Campingplass'/>
    <tag k='pilegrimsleden:id' v='223720'/>
    <tag k='tourism' v='camp_site'/>
  </node>
  <node id='-14' version='0' action='modify' visible='true' lat='62.1200643' lon='8.6512083'>
    <tag k='name' v='Lorkverna'/>
    <tag k='source' v='pilegrimsleden.no'/>
    <tag k='url' v='https://www.pilegrimsleden.no/interessepunkter/lorkverna'/>
    <tag k='network' v='Pilegrimsleden'/>
    <tag k='note:trail' v='Valldalsleden'/>
    <tag k='pilegrimsleden:poi_type' v='Rom og hytter'/>
    <tag k='pilegrimsleden:id' v='9001'/>
    <tag k='tourism' v='chalet'/>
  </node>
  <node id='-15' version='0' action='modify' visible='true' lat='62.3138027' lon='7.2913170'>
    <tag k='name' v='Meretes Garden'/>
    <tag k='source' v='pilegrimsleden.no'/>
    <tag k='url' v='https://www.pilegrimsleden.no/interessepunkter/meretes-garden'/>
    <tag k='network' v='Pilegrimsleden'/>
    <tag k='note:trail' v='Valldalsleden'/>
    <tag k='pilegrimsleden:poi_type' v='Vandrerhjem'/>
    <tag k='pilegrimsleden:id' v='9043'/>
    <tag k='tourism' v='hostel'/>
  </node>
  <node id='-16' version='0' action='modify' visible='true' lat='62.0798430' lon='9.1229175'>
    <tag k='name' v='Midtskog camping'/>
    <tag k='source' v='pilegrimsleden.no'/>
    <tag k='url' v='https://www.pilegrimsleden.no/interessepunkter/midtskog-camping'/>
    <tag k='network' v='Pilegrimsleden'/>
    <tag k='note:trail' v='Valldalsleden'/>
    <tag k='pilegrimsleden:poi_type' v='Campingplass;Rom og hytter;Teltplass'/>
    <tag k='pilegrimsleden:id' v='8980'/>
    <tag k='tourism' v='chalet'/>
  </node>
  <node id='-17' version='0' action='modify' visible='true' lat='62.2991634' lon='7.2549677'>
    <tag k='name' v='Muri hytteutleige'/>
    <tag k='source' v='pilegrimsleden.no'/>
    <tag k='url' v='https://www.pilegrimsleden.no/interessepunkter/muri-hytteutleige'/>
    <tag k='network' v='Pilegrimsleden'/>
    <tag k='note:trail' v='Valldalsleden'/>
    <tag k='pilegrimsleden:poi_type' v='Rom og hytter'/>
    <tag k='pilegrimsleden:id' v='9046'/>
    <tag k='tourism' v='chalet'/>
  </node>
  <node id='-18' version='0' action='modify' visible='true' lat='62.2390944' lon='8.3011685'>
    <tag k='name' v='Sør-Einbu'/>
    <tag k='source' v='pilegrimsleden.no'/>
    <tag k='url' v='https://www.pilegrimsleden.no/interessepunkter/sor-einbu'/>
    <tag k='network' v='Pilegrimsleden'/>
    <tag k='note:trail' v='Valldalsleden'/>
    <tag k='pilegrimsleden:poi_type' v='Rom og hytter'/>
    <tag k='pilegrimsleden:id' v='9019'/>
    <tag k='tourism' v='chalet'/>
  </node>
  <node id='-19' version='0' action='modify' visible='true' lat='62.3211459' lon='7.6662683'>
    <tag k='name' v='Tjønnebu'/>
    <tag k='source' v='pilegrimsleden.no'/>
    <tag k='url' v='https://www.pilegrimsleden.no/interessepunkter/tjonnebu'/>
    <tag k='network' v='Pilegrimsleden'/>
    <tag k='note:trail' v='Valldalsleden'/>
    <tag k='pilegrimsleden:poi_type' v='Rom og hytter'/>
    <tag k='pilegrimsleden:id' v='9034'/>
    <tag k='tourism' v='chalet'/>
  </node>
  <node id='-20' version='0' action='modify' visible='true' lat='62.0775638' lon='9.1442798'>
    <tag k='name' v='Trolltun Hotell og Hytter'/>
    <tag k='source' v='pilegrimsleden.no'/>
    <tag k='url' v='https://www.pilegrimsleden.no/interessepunkter/trolltun-gjestegard'/>
    <tag k='network' v='Pilegrimsleden'/>
    <tag k='note:trail' v='Valldalsleden'/>
    <tag k='pilegrimsleden:poi_type' v='Rom og hytter'/>
    <tag k='pilegrimsleden:id' v='8971'/>
    <tag k='tourism' v='chalet'/>
  </node>
  <node id='-21' version='0' action='modify' visible='true' lat='62.1194271' lon='8.8028384'>
    <tag k='name' v='Tynnøl Backpackers Lodge'/>
    <tag k='source' v='pilegrimsleden.no'/>
    <tag k='url' v='https://www.pilegrimsleden.no/interessepunkter/tynnol-gard'/>
    <tag k='network' v='Pilegrimsleden'/>
    <tag k='note:trail' v='Valldalsleden'/>
    <tag k='pilegrimsleden:poi_type' v='Rom og hytter'/>
    <tag k='pilegrimsleden:id' v='8998'/>
    <tag k='tourism' v='chalet'/>
  </node>
  <node id='-22' version='0' action='modify' visible='true' lat='62.2696151' lon='7.8359985'>
    <tag k='name' v='Vakkerstøylen'/>
    <tag k='source' v='pilegrimsleden.no'/>
    <tag k='url' v='https://www.pilegrimsleden.no/interessepunkter/vakkerstoylen'/>
    <tag k='network' v='Pilegrimsleden'/>
    <tag k='note:trail' v='Valldalsleden'/>
    <tag k='pilegrimsleden:poi_type' v='Vandrerhjem;Rom og hytter'/>
    <tag k='pilegrimsleden:id' v='9031'/>
    <tag k='tourism' v='hostel'/>
  </node>
</osm>
