<?xml version="1.0" encoding="UTF-8"?>
<gpx version="1.1" creator="pilegrimsleden-osm-extractor 1.0" xmlns="http://www.topografix.com/GPX/1/1">
  <trk><name>Saint Henry&apos;s way</name><trkseg>
    <trkpt lat="60.8776888" lon="22.3716042"></trkpt>
    <trkpt lat="60.8783489" lon="22.3700151"></trkpt>
    <trkpt lat="60.8787101" lon="22.3690910"></trkpt>
    <trkpt lat="60.8791779" lon="22.3679969"></trkpt>
    <trkpt lat="60.8799640" lon="22.3662866"></trkpt>
    <trkpt lat="60.8803804" lon="22.3655308"></trkpt>
    <trkpt lat="60.8806051" lon="22.3652878"></trkpt>
    <trkpt lat="60.8808583" lon="22.3650345"></trkpt>
    <trkpt lat="60.8812144" lon="22.3646767"></trkpt>
    <trkpt lat="60.8814495" lon="22.3643498"></trkpt>
    <trkpt lat="60.8815703" lon="22.3641407"></trkpt>
    <trkpt lat="60.8817206" lon="22.3637757"></trkpt>
    <trkpt lat="60.8776888" lon="22.3716042"></trkpt>
    <trkpt lat="60.8773959" lon="22.3721734"></trkpt>
    <trkpt lat="60.8771822" lon="22.3724743"></trkpt>
    <trkpt lat="60.8768380" lon="22.3727182"></trkpt>
    <trkpt lat="60.8764331" lon="22.3729176"></trkpt>
    <trkpt lat="60.8762009" lon="22.3730353"></trkpt>
    <trkpt lat="60.8757107" lon="22.3735389"></trkpt>
    <trkpt lat="60.8756468" lon="22.3736045"></trkpt>
    <trkpt lat="60.8753658" lon="22.3739947"></trkpt>
    <trkpt lat="60.8749938" lon="22.3753120"></trkpt>
    <trkpt lat="60.8749451" lon="22.3754867"></trkpt>
    <trkpt lat="60.8748212" lon="22.3759925"></trkpt>
    <trkpt lat="60.8745110" lon="22.3774097"></trkpt>
    <trkpt lat="60.8743409" lon="22.3780439"></trkpt>
    <trkpt lat="60.8742291" lon="22.3784780"></trkpt>
    <trkpt lat="60.8740312" lon="22.3789817"></trkpt>
    <trkpt lat="60.8739299" lon="22.3793078"></trkpt>
    <trkpt lat="60.8736602" lon="22.3802312"></trkpt>
    <trkpt lat="60.8735691" lon="22.3806458"></trkpt>
    <trkpt lat="60.8734583" lon="22.3813695"></trkpt>
    <trkpt lat="60.8734325" lon="22.3821904"></trkpt>
    <trkpt lat="60.8734325" lon="22.3826948"></trkpt>
    <trkpt lat="60.8734548" lon="22.3831274"></trkpt>
    <trkpt lat="60.8734662" lon="22.3832396"></trkpt>
    <trkpt lat="60.8734721" lon="22.3837112"></trkpt>
    <trkpt lat="60.8734474" lon="22.3839470"></trkpt>
    <trkpt lat="60.8734171" lon="22.3840307"></trkpt>
    <trkpt lat="60.8733635" lon="22.3841300"></trkpt>
    <trkpt lat="60.8740672" lon="22.3854685"></trkpt>
    <trkpt lat="60.8742275" lon="22.3857905"></trkpt>
    <trkpt lat="60.8744320" lon="22.3861024"></trkpt>
    <trkpt lat="60.8750090" lon="22.3868861"></trkpt>
    <trkpt lat="60.8752212" lon="22.3872787"></trkpt>
    <trkpt lat="60.8758706" lon="22.3892510"></trkpt>
    <trkpt lat="60.8759550" lon="22.3895107"></trkpt>
    <trkpt lat="60.8760568" lon="22.3899821"></trkpt>
    <trkpt lat="60.8763804" lon="22.3914802"></trkpt>
    <trkpt lat="60.8765041" lon="22.3920587"></trkpt>
    <trkpt lat="60.8767299" lon="22.3931145"></trkpt>
    <trkpt lat="60.8768204" lon="22.3935375"></trkpt>
    <trkpt lat="60.8768968" lon="22.3939511"></trkpt>
    <trkpt lat="60.8769402" lon="22.3942477"></trkpt>
    <trkpt lat="60.8769677" lon="22.3945260"></trkpt>
    <trkpt lat="60.8769766" lon="22.3946617"></trkpt>
    <trkpt lat="60.8769855" lon="22.3947975"></trkpt>
    <trkpt lat="60.8769958" lon="22.3950840"></trkpt>
    <trkpt lat="60.8770104" lon="22.3954887"></trkpt>
    <trkpt lat="60.8770389" lon="22.3961689"></trkpt>
    <trkpt lat="60.8770421" lon="22.3962323"></trkpt>
    <trkpt lat="60.8771146" lon="22.3976721"></trkpt>
    <trkpt lat="60.8771196" lon="22.3977708"></trkpt>
    <trkpt lat="60.8772107" lon="22.3997182"></trkpt>
    <trkpt lat="60.8772583" lon="22.4002931"></trkpt>
    <trkpt lat="60.8773064" lon="22.4007564"></trkpt>
    <trkpt lat="60.8774860" lon="22.4019965"></trkpt>
    <trkpt lat="60.8777093" lon="22.4034235"></trkpt>
    <trkpt lat="60.8780088" lon="22.4045002"></trkpt>
    <trkpt lat="60.8781876" lon="22.4050435"></trkpt>
    <trkpt lat="60.8790929" lon="22.4076647"></trkpt>
    <trkpt lat="60.8792037" lon="22.4080049"></trkpt>
    <trkpt lat="60.8793923" lon="22.4085551"></trkpt>
    <trkpt lat="60.8795080" lon="22.4090013"></trkpt>
    <trkpt lat="60.8795513" lon="22.4092088"></trkpt>
    <trkpt lat="60.8795665" lon="22.4094951"></trkpt>
    <trkpt lat="60.8842652" lon="22.4103338"></trkpt>
    <trkpt lat="60.8845223" lon="22.4102855"></trkpt>
    <trkpt lat="60.8855559" lon="22.4101379"></trkpt>
    <trkpt lat="60.8863827" lon="22.4099971"></trkpt>
    <trkpt lat="60.8865172" lon="22.4099742"></trkpt>
    <trkpt lat="60.8842652" lon="22.4103338"></trkpt>
    <trkpt lat="60.8828362" lon="22.4105155"></trkpt>
    <trkpt lat="60.8825428" lon="22.4104683"></trkpt>
    <trkpt lat="60.8824805" lon="22.4104441"></trkpt>
    <trkpt lat="60.8822042" lon="22.4103369"></trkpt>
    <trkpt lat="60.8807355" lon="22.4094584"></trkpt>
    <trkpt lat="60.8806430" lon="22.4094031"></trkpt>
    <trkpt lat="60.8805694" lon="22.4093590"></trkpt>
    <trkpt lat="60.8805445" lon="22.4093441"></trkpt>
    <trkpt lat="60.8802792" lon="22.4092609"></trkpt>
    <trkpt lat="60.8800391" lon="22.4092595"></trkpt>
    <trkpt lat="60.8798343" lon="22.4093196"></trkpt>
    <trkpt lat="60.8796382" lon="22.4094641"></trkpt>
    <trkpt lat="60.8795665" lon="22.4094951"></trkpt>
    <trkpt lat="60.8865172" lon="22.4099742"></trkpt>
    <trkpt lat="60.8869131" lon="22.4098603"></trkpt>
    <trkpt lat="60.8871843" lon="22.4097349"></trkpt>
    <trkpt lat="60.8873796" lon="22.4096285"></trkpt>
    <trkpt lat="60.8875489" lon="22.4094997"></trkpt>
    <trkpt lat="60.8876238" lon="22.4094566"></trkpt>
    <trkpt lat="60.8882931" lon="22.4090720"></trkpt>
    <trkpt lat="60.8892039" lon="22.4085456"></trkpt>
    <trkpt lat="60.8901289" lon="22.4080245"></trkpt>
    <trkpt lat="60.8905662" lon="22.4077992"></trkpt>
    <trkpt lat="60.8911752" lon="22.4075526"></trkpt>
    <trkpt lat="60.8915455" lon="22.4074911"></trkpt>
    <trkpt lat="60.8917484" lon="22.4074864"></trkpt>
    <trkpt lat="60.8919737" lon="22.4075352"></trkpt>
    <trkpt lat="60.8921963" lon="22.4076591"></trkpt>
    <trkpt lat="60.8925184" lon="22.4079793"></trkpt>
    <trkpt lat="60.8927035" lon="22.4081887"></trkpt>
    <trkpt lat="60.8929179" lon="22.4083464"></trkpt>
    <trkpt lat="60.8931160" lon="22.4083579"></trkpt>
    <trkpt lat="60.8933228" lon="22.4083219"></trkpt>
    <trkpt lat="60.8937027" lon="22.4082961"></trkpt>
    <trkpt lat="60.8939997" lon="22.4083460"></trkpt>
    <trkpt lat="60.8947362" lon="22.4084697"></trkpt>
    <trkpt lat="60.8951654" lon="22.4084395"></trkpt>
    <trkpt lat="60.8954257" lon="22.4085003"></trkpt>
    <trkpt lat="60.8956707" lon="22.4086418"></trkpt>
    <trkpt lat="60.8960269" lon="22.4088270"></trkpt>
    <trkpt lat="60.8963965" lon="22.4089955"></trkpt>
    <trkpt lat="60.8967155" lon="22.4092159"></trkpt>
    <trkpt lat="60.8970819" lon="22.4092197"></trkpt>
    <trkpt lat="60.8974563" lon="22.4091317"></trkpt>
    <trkpt lat="60.8977547" lon="22.4088919"></trkpt>
    <trkpt lat="60.8979678" lon="22.4086053"></trkpt>
    <trkpt lat="60.8986770" lon="22.4074946"></trkpt>
    <trkpt lat="60.8988597" lon="22.4071586"></trkpt>
    <trkpt lat="60.8990775" lon="22.4068313"></trkpt>
    <trkpt lat="60.8992887" lon="22.4066566"></trkpt>
    <trkpt lat="60.8994313" lon="22.4064389"></trkpt>
    <trkpt lat="60.8992887" lon="22.4066566"></trkpt>
    <trkpt lat="60.8995553" lon="22.4067960"></trkpt>
    <trkpt lat="60.9000283" lon="22.4068881"></trkpt>
    <trkpt lat="60.9005783" lon="22.4072468"></trkpt>
    <trkpt lat="60.9010963" lon="22.4074258"></trkpt>
    <trkpt lat="60.9013079" lon="22.4076424"></trkpt>
    <trkpt lat="60.9017225" lon="22.4080710"></trkpt>
    <trkpt lat="60.9020853" lon="22.4081806"></trkpt>
    <trkpt lat="60.9024258" lon="22.4083206"></trkpt>
    <trkpt lat="60.9032574" lon="22.4092782"></trkpt>
    <trkpt lat="60.9036266" lon="22.4098163"></trkpt>
    <trkpt lat="60.9039312" lon="22.4100146"></trkpt>
    <trkpt lat="60.9043135" lon="22.4100758"></trkpt>
    <trkpt lat="60.9050064" lon="22.4105815"></trkpt>
    <trkpt lat="60.9052809" lon="22.4105573"></trkpt>
    <trkpt lat="60.9058363" lon="22.4101328"></trkpt>
    <trkpt lat="60.9061077" lon="22.4100782"></trkpt>
    <trkpt lat="60.9063160" lon="22.4100614"></trkpt>
    <trkpt lat="60.9064204" lon="22.4098950"></trkpt>
    <trkpt lat="60.9065696" lon="22.4094316"></trkpt>
    <trkpt lat="60.9081037" lon="22.4105230"></trkpt>
    <trkpt lat="60.9087930" lon="22.4110247"></trkpt>
    <trkpt lat="60.9094026" lon="22.4114679"></trkpt>
    <trkpt lat="60.9097918" lon="22.4117601"></trkpt>
    <trkpt lat="60.9100058" lon="22.4119223"></trkpt>
    <trkpt lat="60.9112359" lon="22.4128380"></trkpt>
    <trkpt lat="60.9120236" lon="22.4134368"></trkpt>
    <trkpt lat="60.9128682" lon="22.4140632"></trkpt>
    <trkpt lat="60.9134991" lon="22.4145176"></trkpt>
    <trkpt lat="60.9148249" lon="22.4155207"></trkpt>
    <trkpt lat="60.9158043" lon="22.4162425"></trkpt>
    <trkpt lat="60.9168315" lon="22.4169812"></trkpt>
    <trkpt lat="60.9175711" lon="22.4174689"></trkpt>
    <trkpt lat="60.9183082" lon="22.4179078"></trkpt>
    <trkpt lat="60.9187967" lon="22.4181721"></trkpt>
    <trkpt lat="60.9191466" lon="22.4183631"></trkpt>
    <trkpt lat="60.9203719" lon="22.4189646"></trkpt>
    <trkpt lat="60.9207540" lon="22.4191104"></trkpt>
    <trkpt lat="60.9208271" lon="22.4191383"></trkpt>
    <trkpt lat="60.9220719" lon="22.4196133"></trkpt>
    <trkpt lat="60.9207726" lon="22.4193580"></trkpt>
    <trkpt lat="60.9218574" lon="22.4202814"></trkpt>
    <trkpt lat="60.9220504" lon="22.4204528"></trkpt>
    <trkpt lat="60.9221909" lon="22.4205563"></trkpt>
    <trkpt lat="60.9226602" lon="22.4209244"></trkpt>
    <trkpt lat="60.9231556" lon="22.4215152"></trkpt>
    <trkpt lat="60.9233020" lon="22.4216867"></trkpt>
    <trkpt lat="60.9234349" lon="22.4217556"></trkpt>
    <trkpt lat="60.9236624" lon="22.4217971"></trkpt>
    <trkpt lat="60.9239441" lon="22.4218485"></trkpt>
    <trkpt lat="60.9246143" lon="22.4219186"></trkpt>
    <trkpt lat="60.9247555" lon="22.4219537"></trkpt>
    <trkpt lat="60.9248985" lon="22.4220461"></trkpt>
    <trkpt lat="60.9251350" lon="22.4222762"></trkpt>
    <trkpt lat="60.9252376" lon="22.4224196"></trkpt>
    <trkpt lat="60.9253494" lon="22.4226153"></trkpt>
    <trkpt lat="60.9255012" lon="22.4228528"></trkpt>
    <trkpt lat="60.9257270" lon="22.4231930"></trkpt>
    <trkpt lat="60.9258932" lon="22.4233792"></trkpt>
    <trkpt lat="60.9261209" lon="22.4236681"></trkpt>
    <trkpt lat="60.9262427" lon="22.4237976"></trkpt>
    <trkpt lat="60.9264714" lon="22.4240864"></trkpt>
    <trkpt lat="60.9266726" lon="22.4243632"></trkpt>
    <trkpt lat="60.9268075" lon="22.4245092"></trkpt>
    <trkpt lat="60.9269640" lon="22.4246228"></trkpt>
    <trkpt lat="60.9272295" lon="22.4247010"></trkpt>
    <trkpt lat="60.9275594" lon="22.4247768"></trkpt>
    <trkpt lat="60.9278576" lon="22.4248288"></trkpt>
    <trkpt lat="60.9283130" lon="22.4248797"></trkpt>
    <trkpt lat="60.9287061" lon="22.4250517"></trkpt>
    <trkpt lat="60.9289106" lon="22.4251490"></trkpt>
    <trkpt lat="60.9290556" lon="22.4252648"></trkpt>
    <trkpt lat="60.9292946" lon="22.4254349"></trkpt>
    <trkpt lat="60.9295369" lon="22.4255859"></trkpt>
    <trkpt lat="60.9297926" lon="22.4256944"></trkpt>
    <trkpt lat="60.9300654" lon="22.4257879"></trkpt>
    <trkpt lat="60.9302608" lon="22.4259075"></trkpt>
    <trkpt lat="60.9306740" lon="22.4262503"></trkpt>
    <trkpt lat="60.9310463" lon="22.4266130"></trkpt>
    <trkpt lat="60.9312548" lon="22.4267532"></trkpt>
    <trkpt lat="60.9314323" lon="22.4267808"></trkpt>
    <trkpt lat="60.9323791" lon="22.4266242"></trkpt>
    <trkpt lat="60.9325756" lon="22.4266474"></trkpt>
    <trkpt lat="60.9328240" lon="22.4267161"></trkpt>
    <trkpt lat="60.9331572" lon="22.4269002"></trkpt>
    <trkpt lat="60.9335155" lon="22.4271442"></trkpt>
    <trkpt lat="60.9348273" lon="22.4279348"></trkpt>
    <trkpt lat="60.9350858" lon="22.4281115"></trkpt>
    <trkpt lat="60.9353495" lon="22.4283767"></trkpt>
    <trkpt lat="60.9359373" lon="22.4291308"></trkpt>
    <trkpt lat="60.9362977" lon="22.4295406"></trkpt>
    <trkpt lat="60.9366640" lon="22.4298781"></trkpt>
    <trkpt lat="60.9372210" lon="22.4303128"></trkpt>
    <trkpt lat="60.9376652" lon="22.4305526"></trkpt>
    <trkpt lat="60.9384697" lon="22.4310314"></trkpt>
    <trkpt lat="60.9385931" lon="22.4310184"></trkpt>
    <trkpt lat="60.9387281" lon="22.4309539"></trkpt>
    <trkpt lat="60.9388445" lon="22.4308511"></trkpt>
    <trkpt lat="60.9392296" lon="22.4306045"></trkpt>
    <trkpt lat="60.9395837" lon="22.4304275"></trkpt>
    <trkpt lat="60.9398001" lon="22.4303554"></trkpt>
    <trkpt lat="60.9401928" lon="22.4302778"></trkpt>
    <trkpt lat="60.9405002" lon="22.4301816"></trkpt>
    <trkpt lat="60.9410435" lon="22.4300799"></trkpt>
    <trkpt lat="60.9413466" lon="22.4299958"></trkpt>
    <trkpt lat="60.9416024" lon="22.4299903"></trkpt>
    <trkpt lat="60.9418103" lon="22.4300779"></trkpt>
    <trkpt lat="60.9420860" lon="22.4301870"></trkpt>
    <trkpt lat="60.9423125" lon="22.4302027"></trkpt>
    <trkpt lat="60.9425834" lon="22.4301470"></trkpt>
    <trkpt lat="60.9429028" lon="22.4300314"></trkpt>
    <trkpt lat="60.9431194" lon="22.4299365"></trkpt>
    <trkpt lat="60.9433360" lon="22.4298042"></trkpt>
    <trkpt lat="60.9435353" lon="22.4297829"></trkpt>
    <trkpt lat="60.9437181" lon="22.4298123"></trkpt>
    <trkpt lat="60.9439444" lon="22.4299648"></trkpt>
    <trkpt lat="60.9440361" lon="22.4300863"></trkpt>
    <trkpt lat="60.9441896" lon="22.4303398"></trkpt>
    <trkpt lat="60.9443425" lon="22.4305933"></trkpt>
    <trkpt lat="60.9444885" lon="22.4308818"></trkpt>
    <trkpt lat="60.9447143" lon="22.4314350"></trkpt>
    <trkpt lat="60.9448334" lon="22.4316481"></trkpt>
    <trkpt lat="60.9451451" lon="22.4321139"></trkpt>
    <trkpt lat="60.9453060" lon="22.4323235"></trkpt>
    <trkpt lat="60.9454676" lon="22.4324719"></trkpt>
    <trkpt lat="60.9455822" lon="22.4325327"></trkpt>
    <trkpt lat="60.9457034" lon="22.4325390"></trkpt>
    <trkpt lat="60.9458565" lon="22.4324849"></trkpt>
    <trkpt lat="60.9460637" lon="22.4323199"></trkpt>
    <trkpt lat="60.9462238" lon="22.4321692"></trkpt>
    <trkpt lat="60.9463846" lon="22.4319879"></trkpt>
    <trkpt lat="60.9464944" lon="22.4318400"></trkpt>
    <trkpt lat="60.9466088" lon="22.4316267"></trkpt>
    <trkpt lat="60.9467716" lon="22.4312487"></trkpt>
    <trkpt lat="60.9471147" lon="22.4305028"></trkpt>
    <trkpt lat="60.9472261" lon="22.4302066"></trkpt>
    <trkpt lat="60.9475997" lon="22.4293593"></trkpt>
    <trkpt lat="60.9476866" lon="22.4291416"></trkpt>
    <trkpt lat="60.9477600" lon="22.4288492"></trkpt>
    <trkpt lat="60.9478931" lon="22.4287254"></trkpt>
    <trkpt lat="60.9480345" lon="22.4284280"></trkpt>
    <trkpt lat="60.9482289" lon="22.4280954"></trkpt>
    <trkpt lat="60.9491917" lon="22.4269903"></trkpt>
    <trkpt lat="60.9496444" lon="22.4268777"></trkpt>
    <trkpt lat="60.9502785" lon="22.4273156"></trkpt>
    <trkpt lat="60.9508315" lon="22.4276500"></trkpt>
    <trkpt lat="60.9512608" lon="22.4276861"></trkpt>
    <trkpt lat="60.9521699" lon="22.4275534"></trkpt>
    <trkpt lat="60.9525328" lon="22.4275148"></trkpt>
    <trkpt lat="60.9529199" lon="22.4270638"></trkpt>
    <trkpt lat="60.9531583" lon="22.4263255"></trkpt>
    <trkpt lat="60.9534505" lon="22.4257541"></trkpt>
    <trkpt lat="60.9538857" lon="22.4253966"></trkpt>
    <trkpt lat="60.9542001" lon="22.4248449"></trkpt>
    <trkpt lat="60.9563669" lon="22.4211757"></trkpt>
    <trkpt lat="60.9571378" lon="22.4201886"></trkpt>
    <trkpt lat="60.9578357" lon="22.4196951"></trkpt>
    <trkpt lat="60.9586117" lon="22.4194376"></trkpt>
    <trkpt lat="60.9587522" lon="22.4198768"></trkpt>
    <trkpt lat="60.9591182" lon="22.4204614"></trkpt>
    <trkpt lat="60.9593348" lon="22.4209383"></trkpt>
    <trkpt lat="60.9597007" lon="22.4211075"></trkpt>
    <trkpt lat="60.9599427" lon="22.4213081"></trkpt>
    <trkpt lat="60.9602309" lon="22.4214152"></trkpt>
    <trkpt lat="60.9606790" lon="22.4213999"></trkpt>
    <trkpt lat="60.9610897" lon="22.4219999"></trkpt>
    <trkpt lat="60.9615005" lon="22.4225537"></trkpt>
    <trkpt lat="60.9621277" lon="22.4231691"></trkpt>
    <trkpt lat="60.9626355" lon="22.4241691"></trkpt>
    <trkpt lat="60.9630238" lon="22.4250152"></trkpt>
    <trkpt lat="60.9637332" lon="22.4251537"></trkpt>
    <trkpt lat="60.9644053" lon="22.4246306"></trkpt>
    <trkpt lat="60.9650773" lon="22.4240306"></trkpt>
    <trkpt lat="60.9654656" lon="22.4233537"></trkpt>
    <trkpt lat="60.9659509" lon="22.4229537"></trkpt>
    <trkpt lat="60.9667573" lon="22.4233383"></trkpt>
    <trkpt lat="60.9675412" lon="22.4245845"></trkpt>
    <trkpt lat="60.9678474" lon="22.4252306"></trkpt>
    <trkpt lat="60.9680489" lon="22.4253691"></trkpt>
    <trkpt lat="60.9687209" lon="22.4267691"></trkpt>
    <trkpt lat="60.9689137" lon="22.4270086"></trkpt>
    <trkpt lat="60.9690494" lon="22.4272768"></trkpt>
    <trkpt lat="60.9694600" lon="22.4273691"></trkpt>
    <trkpt lat="60.9694749" lon="22.4281230"></trkpt>
    <trkpt lat="60.9696765" lon="22.4283230"></trkpt>
    <trkpt lat="60.9700274" lon="22.4292460"></trkpt>
    <trkpt lat="60.9706396" lon="22.4295383"></trkpt>
    <trkpt lat="60.9711398" lon="22.4307230"></trkpt>
    <trkpt lat="60.9712667" lon="22.4317383"></trkpt>
    <trkpt lat="60.9719236" lon="22.4330153"></trkpt>
    <trkpt lat="60.9721103" lon="22.4340153"></trkpt>
    <trkpt lat="60.9721924" lon="22.4351384"></trkpt>
    <trkpt lat="60.9727299" lon="22.4365845"></trkpt>
    <trkpt lat="60.9733719" lon="22.4374153"></trkpt>
    <trkpt lat="60.9737132" lon="22.4383294"></trkpt>
    <trkpt lat="60.9740060" lon="22.4394086"></trkpt>
    <trkpt lat="60.9750813" lon="22.4399230"></trkpt>
    <trkpt lat="60.9753948" lon="22.4404615"></trkpt>
    <trkpt lat="60.9756411" lon="22.4404922"></trkpt>
    <trkpt lat="60.9759322" lon="22.4402153"></trkpt>
    <trkpt lat="60.9763875" lon="22.4403384"></trkpt>
    <trkpt lat="60.9766562" lon="22.4407999"></trkpt>
    <trkpt lat="60.9768279" lon="22.4403999"></trkpt>
    <trkpt lat="60.9773824" lon="22.4404588"></trkpt>
    <trkpt lat="60.9775519" lon="22.4404768"></trkpt>
    <trkpt lat="60.9780893" lon="22.4407999"></trkpt>
    <trkpt lat="60.9785371" lon="22.4416768"></trkpt>
    <trkpt lat="60.9787312" lon="22.4422153"></trkpt>
    <trkpt lat="60.9791118" lon="22.4438769"></trkpt>
    <trkpt lat="60.9795820" lon="22.4449846"></trkpt>
    <trkpt lat="60.9799552" lon="22.4457999"></trkpt>
    <trkpt lat="60.9806791" lon="22.4457384"></trkpt>
    <trkpt lat="60.9813210" lon="22.4452307"></trkpt>
    <trkpt lat="60.9821717" lon="22.4448769"></trkpt>
    <trkpt lat="60.9830897" lon="22.4447692"></trkpt>
    <trkpt lat="60.9838956" lon="22.4447692"></trkpt>
    <trkpt lat="60.9843881" lon="22.4449076"></trkpt>
    <trkpt lat="60.9845598" lon="22.4452307"></trkpt>
    <trkpt lat="60.9847463" lon="22.4464615"></trkpt>
    <trkpt lat="60.9848433" lon="22.4467999"></trkpt>
    <trkpt lat="60.9851120" lon="22.4470769"></trkpt>
    <trkpt lat="60.9854552" lon="22.4477230"></trkpt>
    <trkpt lat="60.9858358" lon="22.4477076"></trkpt>
    <trkpt lat="60.9862462" lon="22.4476461"></trkpt>
    <trkpt lat="60.9866640" lon="22.4474923"></trkpt>
    <trkpt lat="60.9872684" lon="22.4476923"></trkpt>
    <trkpt lat="60.9877833" lon="22.4481384"></trkpt>
    <trkpt lat="60.9882235" lon="22.4484769"></trkpt>
    <trkpt lat="60.9885667" lon="22.4486461"></trkpt>
    <trkpt lat="60.9888752" lon="22.4490263"></trkpt>
    <trkpt lat="60.9891488" lon="22.4490925"></trkpt>
    <trkpt lat="60.9892746" lon="22.4493185"></trkpt>
    <trkpt lat="60.9893848" lon="22.4497689"></trkpt>
    <trkpt lat="60.9894187" lon="22.4502203"></trkpt>
    <trkpt lat="60.9904613" lon="22.4505882"></trkpt>
    <trkpt lat="60.9911169" lon="22.4508779"></trkpt>
    <trkpt lat="60.9915227" lon="22.4507706"></trkpt>
    <trkpt lat="60.9957191" lon="22.4487173"></trkpt>
    <trkpt lat="60.9994487" lon="22.4467734"></trkpt>
    <trkpt lat="61.0002613" lon="22.4461361"></trkpt>
    <trkpt lat="61.0006974" lon="22.4456823"></trkpt>
    <trkpt lat="61.0011409" lon="22.4452661"></trkpt>
    <trkpt lat="61.0013278" lon="22.4451260"></trkpt>
    <trkpt lat="61.0011634" lon="22.4446200"></trkpt>
    <trkpt lat="61.0013660" lon="22.4438932"></trkpt>
    <trkpt lat="61.0015862" lon="22.4436752"></trkpt>
    <trkpt lat="61.0016831" lon="22.4433337"></trkpt>
    <trkpt lat="61.0017247" lon="22.4431869"></trkpt>
    <trkpt lat="61.0020090" lon="22.4421853"></trkpt>
    <trkpt lat="61.0020860" lon="22.4419242"></trkpt>
    <trkpt lat="61.0023789" lon="22.4409317"></trkpt>
    <trkpt lat="61.0027312" lon="22.4387695"></trkpt>
    <trkpt lat="61.0027501" lon="22.4385357"></trkpt>
    <trkpt lat="61.0027753" lon="22.4382245"></trkpt>
    <trkpt lat="61.0026519" lon="22.4374432"></trkpt>
    <trkpt lat="61.0027400" lon="22.4364257"></trkpt>
    <trkpt lat="61.0029690" lon="22.4356081"></trkpt>
    <trkpt lat="61.0031710" lon="22.4352869"></trkpt>
    <trkpt lat="61.0032729" lon="22.4354161"></trkpt>
    <trkpt lat="61.0034363" lon="22.4356431"></trkpt>
    <trkpt lat="61.0036136" lon="22.4358364"></trkpt>
    <trkpt lat="61.0037603" lon="22.4359241"></trkpt>
    <trkpt lat="61.0037986" lon="22.4353576"></trkpt>
    <trkpt lat="61.0039335" lon="22.4346944"></trkpt>
    <trkpt lat="61.0039827" lon="22.4342999"></trkpt>
    <trkpt lat="61.0040290" lon="22.4338688"></trkpt>
    <trkpt lat="61.0041321" lon="22.4337103"></trkpt>
    <trkpt lat="61.0041980" lon="22.4336357"></trkpt>
    <trkpt lat="61.0043203" lon="22.4335552"></trkpt>
    <trkpt lat="61.0044269" lon="22.4334211"></trkpt>
    <trkpt lat="61.0050796" lon="22.4321068"></trkpt>
    <trkpt lat="61.0051966" lon="22.4318064"></trkpt>
    <trkpt lat="61.0052668" lon="22.4317581"></trkpt>
    <trkpt lat="61.0054722" lon="22.4315596"></trkpt>
    <trkpt lat="61.0056906" lon="22.4312968"></trkpt>
    <trkpt lat="61.0059298" lon="22.4310554"></trkpt>
    <trkpt lat="61.0062536" lon="22.4308891"></trkpt>
    <trkpt lat="61.0063732" lon="22.4308193"></trkpt>
    <trkpt lat="61.0065019" lon="22.4306960"></trkpt>
    <trkpt lat="61.0066501" lon="22.4305699"></trkpt>
    <trkpt lat="61.0067788" lon="22.4305297"></trkpt>
    <trkpt lat="61.0069478" lon="22.4304599"></trkpt>
    <trkpt lat="61.0070661" lon="22.4303312"></trkpt>
    <trkpt lat="61.0071623" lon="22.4300791"></trkpt>
    <trkpt lat="61.0072247" lon="22.4298162"></trkpt>
    <trkpt lat="61.0073248" lon="22.4295909"></trkpt>
    <trkpt lat="61.0075128" lon="22.4292983"></trkpt>
    <trkpt lat="61.0075174" lon="22.4293907"></trkpt>
    <trkpt lat="61.0076435" lon="22.4297265"></trkpt>
    <trkpt lat="61.0078627" lon="22.4302499"></trkpt>
    <trkpt lat="61.0082511" lon="22.4310917"></trkpt>
    <trkpt lat="61.0083647" lon="22.4309822"></trkpt>
    <trkpt lat="61.0085831" lon="22.4309607"></trkpt>
    <trkpt lat="61.0086648" lon="22.4309990"></trkpt>
    <trkpt lat="61.0088119" lon="22.4310680"></trkpt>
    <trkpt lat="61.0089681" lon="22.4312392"></trkpt>
    <trkpt lat="61.0091447" lon="22.4314328"></trkpt>
    <trkpt lat="61.0092802" lon="22.4315599"></trkpt>
    <trkpt lat="61.0093735" lon="22.4316474"></trkpt>
    <trkpt lat="61.0096959" lon="22.4317761"></trkpt>
    <trkpt lat="61.0102887" lon="22.4318834"></trkpt>
    <trkpt lat="61.0106422" lon="22.4318620"></trkpt>
    <trkpt lat="61.0110894" lon="22.4316903"></trkpt>
    <trkpt lat="61.0115527" lon="22.4315425"></trkpt>
    <trkpt lat="61.0123093" lon="22.4313002"></trkpt>
    <trkpt lat="61.0129612" lon="22.4310895"></trkpt>
    <trkpt lat="61.0131484" lon="22.4310037"></trkpt>
    <trkpt lat="61.0135274" lon="22.4307854"></trkpt>
    <trkpt lat="61.0135955" lon="22.4307462"></trkpt>
    <trkpt lat="61.0136873" lon="22.4306704"></trkpt>
    <trkpt lat="61.0137688" lon="22.4306031"></trkpt>
    <trkpt lat="61.0142194" lon="22.4302312"></trkpt>
    <trkpt lat="61.0143728" lon="22.4300729"></trkpt>
    <trkpt lat="61.0147809" lon="22.4296518"></trkpt>
    <trkpt lat="61.0152696" lon="22.4289437"></trkpt>
    <trkpt lat="61.0156959" lon="22.4284502"></trkpt>
    <trkpt lat="61.0160012" lon="22.4283084"></trkpt>
    <trkpt lat="61.0162584" lon="22.4284977"></trkpt>
    <trkpt lat="61.0164665" lon="22.4288022"></trkpt>
    <trkpt lat="61.0196384" lon="22.4199986"></trkpt>
    <trkpt lat="61.0199374" lon="22.4204702"></trkpt>
    <trkpt lat="61.0201203" lon="22.4206072"></trkpt>
    <trkpt lat="61.0202389" lon="22.4205882"></trkpt>
    <trkpt lat="61.0204000" lon="22.4205667"></trkpt>
    <trkpt lat="61.0207639" lon="22.4205024"></trkpt>
    <trkpt lat="61.0211797" lon="22.4205024"></trkpt>
    <trkpt lat="61.0215124" lon="22.4204594"></trkpt>
    <trkpt lat="61.0216787" lon="22.4203736"></trkpt>
    <trkpt lat="61.0218567" lon="22.4202588"></trkpt>
    <trkpt lat="61.0220449" lon="22.4201464"></trkpt>
    <trkpt lat="61.0224688" lon="22.4199874"></trkpt>
    <trkpt lat="61.0229054" lon="22.4200732"></trkpt>
    <trkpt lat="61.0233004" lon="22.4199874"></trkpt>
    <trkpt lat="61.0238760" lon="22.4199741"></trkpt>
    <trkpt lat="61.0240858" lon="22.4199586"></trkpt>
    <trkpt lat="61.0242467" lon="22.4199468"></trkpt>
    <trkpt lat="61.0246467" lon="22.4199080"></trkpt>
    <trkpt lat="61.0247141" lon="22.4199015"></trkpt>
    <trkpt lat="61.0252547" lon="22.4196441"></trkpt>
    <trkpt lat="61.0254361" lon="22.4195301"></trkpt>
    <trkpt lat="61.0259719" lon="22.4191934"></trkpt>
    <trkpt lat="61.0261226" lon="22.4191076"></trkpt>
    <trkpt lat="61.0262006" lon="22.4190111"></trkpt>
    <trkpt lat="61.0263028" lon="22.4188482"></trkpt>
    <trkpt lat="61.0263579" lon="22.4184585"></trkpt>
    <trkpt lat="61.0263952" lon="22.4180484"></trkpt>
    <trkpt lat="61.0268215" lon="22.4182718"></trkpt>
    <trkpt lat="61.0268484" lon="22.4185856"></trkpt>
    <trkpt lat="61.0269342" lon="22.4190523"></trkpt>
    <trkpt lat="61.0270126" lon="22.4194407"></trkpt>
    <trkpt lat="61.0270287" lon="22.4195476"></trkpt>
    <trkpt lat="61.0270542" lon="22.4198414"></trkpt>
    <trkpt lat="61.0270556" lon="22.4200635"></trkpt>
    <trkpt lat="61.0270498" lon="22.4203419"></trkpt>
    <trkpt lat="61.0270057" lon="22.4207366"></trkpt>
    <trkpt lat="61.0269368" lon="22.4210259"></trkpt>
    <trkpt lat="61.0268599" lon="22.4212231"></trkpt>
    <trkpt lat="61.0268041" lon="22.4214219"></trkpt>
    <trkpt lat="61.0267872" lon="22.4215264"></trkpt>
    <trkpt lat="61.0267788" lon="22.4218300"></trkpt>
    <trkpt lat="61.0267889" lon="22.4219280"></trkpt>
    <trkpt lat="61.0268205" lon="22.4221239"></trkpt>
    <trkpt lat="61.0269158" lon="22.4226039"></trkpt>
    <trkpt lat="61.0269414" lon="22.4229281"></trkpt>
    <trkpt lat="61.0269851" lon="22.4232623"></trkpt>
    <trkpt lat="61.0270582" lon="22.4235150"></trkpt>
    <trkpt lat="61.0274086" lon="22.4243055"></trkpt>
    <trkpt lat="61.0274523" lon="22.4244854"></trkpt>
    <trkpt lat="61.0274646" lon="22.4245789"></trkpt>
    <trkpt lat="61.0274703" lon="22.4247691"></trkpt>
    <trkpt lat="61.0274696" lon="22.4251809"></trkpt>
    <trkpt lat="61.0274071" lon="22.4262143"></trkpt>
    <trkpt lat="61.0273914" lon="22.4267832"></trkpt>
    <trkpt lat="61.0274124" lon="22.4270220"></trkpt>
    <trkpt lat="61.0274771" lon="22.4274280"></trkpt>
    <trkpt lat="61.0275711" lon="22.4279781"></trkpt>
    <trkpt lat="61.0276157" lon="22.4281403"></trkpt>
    <trkpt lat="61.0276791" lon="22.4282714"></trkpt>
    <trkpt lat="61.0277631" lon="22.4283570"></trkpt>
    <trkpt lat="61.0279449" lon="22.4284260"></trkpt>
    <trkpt lat="61.0280864" lon="22.4284428"></trkpt>
    <trkpt lat="61.0281688" lon="22.4284817"></trkpt>
    <trkpt lat="61.0284041" lon="22.4285335"></trkpt>
    <trkpt lat="61.0285052" lon="22.4285964"></trkpt>
    <trkpt lat="61.0288992" lon="22.4289335"></trkpt>
    <trkpt lat="61.0290076" lon="22.4289750"></trkpt>
    <trkpt lat="61.0291240" lon="22.4289807"></trkpt>
    <trkpt lat="61.0292748" lon="22.4289466"></trkpt>
    <trkpt lat="61.0293365" lon="22.4286857"></trkpt>
    <trkpt lat="61.0293984" lon="22.4283790"></trkpt>
    <trkpt lat="61.0294656" lon="22.4281813"></trkpt>
    <trkpt lat="61.0295153" lon="22.4281070"></trkpt>
    <trkpt lat="61.0295650" lon="22.4280739"></trkpt>
    <trkpt lat="61.0299754" lon="22.4278747"></trkpt>
    <trkpt lat="61.0301247" lon="22.4277731"></trkpt>
    <trkpt lat="61.0302941" lon="22.4276394"></trkpt>
    <trkpt lat="61.0309347" lon="22.4271766"></trkpt>
    <trkpt lat="61.0309887" lon="22.4271246"></trkpt>
    <trkpt lat="61.0311444" lon="22.4269096"></trkpt>
    <trkpt lat="61.0313000" lon="22.4267313"></trkpt>
    <trkpt lat="61.0314038" lon="22.4266339"></trkpt>
    <trkpt lat="61.0317004" lon="22.4263874"></trkpt>
    <trkpt lat="61.0317986" lon="22.4263345"></trkpt>
    <trkpt lat="61.0318953" lon="22.4263227"></trkpt>
    <trkpt lat="61.0321305" lon="22.4263584"></trkpt>
    <trkpt lat="61.0322259" lon="22.4264068"></trkpt>
    <trkpt lat="61.0323909" lon="22.4264211"></trkpt>
    <trkpt lat="61.0324840" lon="22.4264135"></trkpt>
    <trkpt lat="61.0325333" lon="22.4263863"></trkpt>
    <trkpt lat="61.0325808" lon="22.4263372"></trkpt>
    <trkpt lat="61.0328145" lon="22.4260517"></trkpt>
    <trkpt lat="61.0329093" lon="22.4259680"></trkpt>
    <trkpt lat="61.0329560" lon="22.4259402"></trkpt>
    <trkpt lat="61.0330983" lon="22.4258963"></trkpt>
    <trkpt lat="61.0332400" lon="22.4257749"></trkpt>
    <trkpt lat="61.0334339" lon="22.4256451"></trkpt>
    <trkpt lat="61.0335842" lon="22.4255884"></trkpt>
    <trkpt lat="61.0336629" lon="22.4254963"></trkpt>
    <trkpt lat="61.0337149" lon="22.4253749"></trkpt>
    <trkpt lat="61.0337533" lon="22.4252423"></trkpt>
    <trkpt lat="61.0337715" lon="22.4251217"></trkpt>
    <trkpt lat="61.0337922" lon="22.4248644"></trkpt>
    <trkpt lat="61.0338011" lon="22.4244684"></trkpt>
    <trkpt lat="61.0338417" lon="22.4241836"></trkpt>
    <trkpt lat="61.0338613" lon="22.4241163"></trkpt>
    <trkpt lat="61.0338939" lon="22.4241020"></trkpt>
    <trkpt lat="61.0339229" lon="22.4241166"></trkpt>
    <trkpt lat="61.0338634" lon="22.4232095"></trkpt>
    <trkpt lat="61.0338637" lon="22.4223554"></trkpt>
    <trkpt lat="61.0338508" lon="22.4219068"></trkpt>
    <trkpt lat="61.0337435" lon="22.4211904"></trkpt>
    <trkpt lat="61.0336103" lon="22.4209255"></trkpt>
    <trkpt lat="61.0335732" lon="22.4208517"></trkpt>
    <trkpt lat="61.0336370" lon="22.4191728"></trkpt>
    <trkpt lat="61.0336930" lon="22.4182072"></trkpt>
    <trkpt lat="61.0336615" lon="22.4177773"></trkpt>
    <trkpt lat="61.0332136" lon="22.4169045"></trkpt>
    <trkpt lat="61.0330558" lon="22.4157582"></trkpt>
    <trkpt lat="61.0327656" lon="22.4151068"></trkpt>
    <trkpt lat="61.0325259" lon="22.4137129"></trkpt>
    <trkpt lat="61.0324341" lon="22.4134138"></trkpt>
    <trkpt lat="61.0327467" lon="22.4128401"></trkpt>
    <trkpt lat="61.0334154" lon="22.4128271"></trkpt>
    <trkpt lat="61.0337561" lon="22.4123712"></trkpt>
    <trkpt lat="61.0337666" lon="22.4121966"></trkpt>
    <trkpt lat="61.0337701" lon="22.4121387"></trkpt>
    <trkpt lat="61.0338782" lon="22.4103445"></trkpt>
    <trkpt lat="61.0339406" lon="22.4093087"></trkpt>
    <trkpt lat="61.0376704" lon="22.4044472"></trkpt>
    <trkpt lat="61.0373362" lon="22.4044039"></trkpt>
    <trkpt lat="61.0372783" lon="22.4043956"></trkpt>
    <trkpt lat="61.0372126" lon="22.4043743"></trkpt>
    <trkpt lat="61.0371553" lon="22.4043495"></trkpt>
    <trkpt lat="61.0370633" lon="22.4042631"></trkpt>
    <trkpt lat="61.0367971" lon="22.4039024"></trkpt>
    <trkpt lat="61.0367871" lon="22.4037416"></trkpt>
    <trkpt lat="61.0367828" lon="22.4036858"></trkpt>
    <trkpt lat="61.0366823" lon="22.4037124"></trkpt>
    <trkpt lat="61.0365193" lon="22.4035985"></trkpt>
    <trkpt lat="61.0365011" lon="22.4052662"></trkpt>
    <trkpt lat="61.0364855" lon="22.4054594"></trkpt>
    <trkpt lat="61.0349994" lon="22.4054534"></trkpt>
    <trkpt lat="61.0349886" lon="22.4063702"></trkpt>
    <trkpt lat="61.0349702" lon="22.4068071"></trkpt>
    <trkpt lat="61.0349275" lon="22.4073955"></trkpt>
    <trkpt lat="61.0348476" lon="22.4078249"></trkpt>
    <trkpt lat="61.0347684" lon="22.4080885"></trkpt>
    <trkpt lat="61.0346759" lon="22.4083966"></trkpt>
    <trkpt lat="61.0346105" lon="22.4086602"></trkpt>
    <trkpt lat="61.0345822" lon="22.4089622"></trkpt>
    <trkpt lat="61.0344144" lon="22.4089798"></trkpt>
    <trkpt lat="61.0383939" lon="22.4063909"></trkpt>
    <trkpt lat="61.0380473" lon="22.4063506"></trkpt>
    <trkpt lat="61.0379942" lon="22.4062408"></trkpt>
    <trkpt lat="61.0378653" lon="22.4049221"></trkpt>
    <trkpt lat="61.0378640" lon="22.4044696"></trkpt>
    <trkpt lat="61.0383939" lon="22.4063909"></trkpt>
    <trkpt lat="61.0383489" lon="22.4060475"></trkpt>
    <trkpt lat="61.0383612" lon="22.4059060"></trkpt>
    <trkpt lat="61.0384099" lon="22.4057860"></trkpt>
    <trkpt lat="61.0387463" lon="22.4053528"></trkpt>
    <trkpt lat="61.0388034" lon="22.4053233"></trkpt>
    <trkpt lat="61.0388663" lon="22.4054118"></trkpt>
    <trkpt lat="61.0393032" lon="22.4073456"></trkpt>
    <trkpt lat="61.0401021" lon="22.4062805"></trkpt>
    <trkpt lat="61.0399302" lon="22.4054157"></trkpt>
    <trkpt lat="61.0400316" lon="22.4052777"></trkpt>
    <trkpt lat="61.0408110" lon="22.4042177"></trkpt>
    <trkpt lat="61.0407621" lon="22.4040791"></trkpt>
    <trkpt lat="61.0408110" lon="22.4042177"></trkpt>
    <trkpt lat="61.0412600" lon="22.4054217"></trkpt>
    <trkpt lat="61.0444147" lon="22.4128824"></trkpt>
    <trkpt lat="61.0452476" lon="22.4118531"></trkpt>
    <trkpt lat="61.0459322" lon="22.4110244"></trkpt>
    <trkpt lat="61.0463689" lon="22.4105283"></trkpt>
    <trkpt lat="61.0469215" lon="22.4099005"></trkpt>
    <trkpt lat="61.0474280" lon="22.4093722"></trkpt>
    <trkpt lat="61.0475942" lon="22.4092649"></trkpt>
    <trkpt lat="61.0482279" lon="22.4089645"></trkpt>
    <trkpt lat="61.0486018" lon="22.4087285"></trkpt>
    <trkpt lat="61.0487637" lon="22.4084777"></trkpt>
    <trkpt lat="61.0489342" lon="22.4082135"></trkpt>
    <trkpt lat="61.0490196" lon="22.4080559"></trkpt>
    <trkpt lat="61.0494356" lon="22.4074397"></trkpt>
    <trkpt lat="61.0497859" lon="22.4070119"></trkpt>
    <trkpt lat="61.0502221" lon="22.4065827"></trkpt>
    <trkpt lat="61.0505564" lon="22.4063044"></trkpt>
    <trkpt lat="61.0507490" lon="22.4061366"></trkpt>
    <trkpt lat="61.0511197" lon="22.4058227"></trkpt>
    <trkpt lat="61.0517241" lon="22.4052564"></trkpt>
    <trkpt lat="61.0520812" lon="22.4048875"></trkpt>
    <trkpt lat="61.0526213" lon="22.4042224"></trkpt>
    <trkpt lat="61.0527978" lon="22.4040936"></trkpt>
    <trkpt lat="61.0531821" lon="22.4039005"></trkpt>
    <trkpt lat="61.0536183" lon="22.4037288"></trkpt>
    <trkpt lat="61.0540553" lon="22.4034211"></trkpt>
    <trkpt lat="61.0542482" lon="22.4031568"></trkpt>
    <trkpt lat="61.0549138" lon="22.4023593"></trkpt>
    <trkpt lat="61.0559315" lon="22.4010504"></trkpt>
    <trkpt lat="61.0561101" lon="22.4008760"></trkpt>
    <trkpt lat="61.0562944" lon="22.4007510"></trkpt>
    <trkpt lat="61.0564001" lon="22.4007483"></trkpt>
    <trkpt lat="61.0566714" lon="22.4005960"></trkpt>
    <trkpt lat="61.0569207" lon="22.4004458"></trkpt>
    <trkpt lat="61.0572841" lon="22.4004243"></trkpt>
    <trkpt lat="61.0575333" lon="22.4003171"></trkpt>
    <trkpt lat="61.0577825" lon="22.4001025"></trkpt>
    <trkpt lat="61.0581252" lon="22.3997162"></trkpt>
    <trkpt lat="61.0583744" lon="22.3995231"></trkpt>
    <trkpt lat="61.0586963" lon="22.3990725"></trkpt>
    <trkpt lat="61.0588417" lon="22.3989652"></trkpt>
    <trkpt lat="61.0591117" lon="22.3989009"></trkpt>
    <trkpt lat="61.0596101" lon="22.3985361"></trkpt>
    <trkpt lat="61.0601060" lon="22.3981838"></trkpt>
    <trkpt lat="61.0602746" lon="22.3980640"></trkpt>
    <trkpt lat="61.0608353" lon="22.3976992"></trkpt>
    <trkpt lat="61.0611987" lon="22.3975276"></trkpt>
    <trkpt lat="61.0614790" lon="22.3974632"></trkpt>
    <trkpt lat="61.0618113" lon="22.3972272"></trkpt>
    <trkpt lat="61.0620604" lon="22.3970126"></trkpt>
    <trkpt lat="61.0626754" lon="22.3964602"></trkpt>
    <trkpt lat="61.0629326" lon="22.3962830"></trkpt>
    <trkpt lat="61.0629911" lon="22.3962528"></trkpt>
    <trkpt lat="61.0635140" lon="22.3959826"></trkpt>
    <trkpt lat="61.0643811" lon="22.3956359"></trkpt>
    <trkpt lat="61.0645887" lon="22.3955735"></trkpt>
    <trkpt lat="61.0648482" lon="22.3955306"></trkpt>
    <trkpt lat="61.0650766" lon="22.3953374"></trkpt>
    <trkpt lat="61.0653777" lon="22.3950799"></trkpt>
    <trkpt lat="61.0657203" lon="22.3947581"></trkpt>
    <trkpt lat="61.0660213" lon="22.3943504"></trkpt>
    <trkpt lat="61.0663847" lon="22.3941358"></trkpt>
    <trkpt lat="61.0666857" lon="22.3938354"></trkpt>
    <trkpt lat="61.0668933" lon="22.3936208"></trkpt>
    <trkpt lat="61.0671529" lon="22.3934062"></trkpt>
    <trkpt lat="61.0676200" lon="22.3932560"></trkpt>
    <trkpt lat="61.0679197" lon="22.3931758"></trkpt>
    <trkpt lat="61.0685439" lon="22.3930200"></trkpt>
    <trkpt lat="61.0690421" lon="22.3929771"></trkpt>
    <trkpt lat="61.0695092" lon="22.3929342"></trkpt>
    <trkpt lat="61.0699610" lon="22.3929752"></trkpt>
    <trkpt lat="61.0707237" lon="22.3930629"></trkpt>
    <trkpt lat="61.0711908" lon="22.3931058"></trkpt>
    <trkpt lat="61.0724052" lon="22.3932775"></trkpt>
    <trkpt lat="61.0732459" lon="22.3934492"></trkpt>
    <trkpt lat="61.0739620" lon="22.3937281"></trkpt>
    <trkpt lat="61.0748649" lon="22.3940500"></trkpt>
    <trkpt lat="61.0751970" lon="22.3941358"></trkpt>
    <trkpt lat="61.0769371" lon="22.3946719"></trkpt>
    <trkpt lat="61.0771585" lon="22.3952883"></trkpt>
    <trkpt lat="61.0772284" lon="22.3955008"></trkpt>
    <trkpt lat="61.0775113" lon="22.3960670"></trkpt>
    <trkpt lat="61.0775836" lon="22.3961768"></trkpt>
    <trkpt lat="61.0776436" lon="22.3962679"></trkpt>
    <trkpt lat="61.0807996" lon="22.3915299"></trkpt>
    <trkpt lat="61.0809212" lon="22.3916290"></trkpt>
    <trkpt lat="61.0810429" lon="22.3917212"></trkpt>
    <trkpt lat="61.0811703" lon="22.3918088"></trkpt>
    <trkpt lat="61.0813035" lon="22.3918611"></trkpt>
    <trkpt lat="61.0814869" lon="22.3918294"></trkpt>
    <trkpt lat="61.0815372" lon="22.3918091"></trkpt>
    <trkpt lat="61.0816489" lon="22.3917521"></trkpt>
    <trkpt lat="61.0822276" lon="22.3914835"></trkpt>
    <trkpt lat="61.0823411" lon="22.3914254"></trkpt>
    <trkpt lat="61.0830083" lon="22.3910269"></trkpt>
    <trkpt lat="61.0832493" lon="22.3908484"></trkpt>
    <trkpt lat="61.0834499" lon="22.3907158"></trkpt>
    <trkpt lat="61.0836949" lon="22.3905524"></trkpt>
    <trkpt lat="61.0841123" lon="22.3901957"></trkpt>
    <trkpt lat="61.0841947" lon="22.3901029"></trkpt>
    <trkpt lat="61.0842793" lon="22.3900125"></trkpt>
    <trkpt lat="61.0844281" lon="22.3898582"></trkpt>
    <trkpt lat="61.0845254" lon="22.3897705"></trkpt>
    <trkpt lat="61.0846227" lon="22.3896503"></trkpt>
    <trkpt lat="61.0847076" lon="22.3895293"></trkpt>
    <trkpt lat="61.0848003" lon="22.3893719"></trkpt>
    <trkpt lat="61.0849906" lon="22.3890318"></trkpt>
    <trkpt lat="61.0851366" lon="22.3887613"></trkpt>
    <trkpt lat="61.0851720" lon="22.3886957"></trkpt>
    <trkpt lat="61.0853365" lon="22.3883911"></trkpt>
    <trkpt lat="61.0855205" lon="22.3881363"></trkpt>
    <trkpt lat="61.0856616" lon="22.3879971"></trkpt>
    <trkpt lat="61.0858296" lon="22.3878418"></trkpt>
    <trkpt lat="61.0860093" lon="22.3876883"></trkpt>
    <trkpt lat="61.0860285" lon="22.3876719"></trkpt>
    <trkpt lat="61.0863025" lon="22.3873533"></trkpt>
    <trkpt lat="61.0866113" lon="22.3869527"></trkpt>
    <trkpt lat="61.0869085" lon="22.3865535"></trkpt>
    <trkpt lat="61.0870291" lon="22.3863956"></trkpt>
    <trkpt lat="61.0871463" lon="22.3862021"></trkpt>
    <trkpt lat="61.0873145" lon="22.3857938"></trkpt>
    <trkpt lat="61.0873699" lon="22.3856805"></trkpt>
    <trkpt lat="61.0874261" lon="22.3855653"></trkpt>
    <trkpt lat="61.0874930" lon="22.3854283"></trkpt>
    <trkpt lat="61.0876198" lon="22.3851892"></trkpt>
    <trkpt lat="61.0877406" lon="22.3849614"></trkpt>
    <trkpt lat="61.0878923" lon="22.3847305"></trkpt>
    <trkpt lat="61.0880749" lon="22.3844783"></trkpt>
    <trkpt lat="61.0882894" lon="22.3842608"></trkpt>
    <trkpt lat="61.0884386" lon="22.3841511"></trkpt>
    <trkpt lat="61.0885104" lon="22.3840982"></trkpt>
    <trkpt lat="61.0886744" lon="22.3840164"></trkpt>
    <trkpt lat="61.0887988" lon="22.3839894"></trkpt>
    <trkpt lat="61.0888757" lon="22.3839743"></trkpt>
    <trkpt lat="61.0889639" lon="22.3839710"></trkpt>
    <trkpt lat="61.0890477" lon="22.3839636"></trkpt>
    <trkpt lat="61.0894422" lon="22.3840065"></trkpt>
    <trkpt lat="61.0896007" lon="22.3840097"></trkpt>
    <trkpt lat="61.0897592" lon="22.3839773"></trkpt>
    <trkpt lat="61.0898722" lon="22.3839366"></trkpt>
    <trkpt lat="61.0899818" lon="22.3838817"></trkpt>
    <trkpt lat="61.0904176" lon="22.3835155"></trkpt>
    <trkpt lat="61.0907978" lon="22.3832203"></trkpt>
    <trkpt lat="61.0912013" lon="22.3828672"></trkpt>
    <trkpt lat="61.0920712" lon="22.3821436"></trkpt>
    <trkpt lat="61.0944630" lon="22.3807367"></trkpt>
    <trkpt lat="61.0957703" lon="22.3799571"></trkpt>
    <trkpt lat="61.0961340" lon="22.3795853"></trkpt>
    <trkpt lat="61.0972072" lon="22.3784829"></trkpt>
    <trkpt lat="61.0988075" lon="22.3768391"></trkpt>
    <trkpt lat="61.1003542" lon="22.3752501"></trkpt>
    <trkpt lat="61.1006068" lon="22.3750033"></trkpt>
    <trkpt lat="61.1007274" lon="22.3748949"></trkpt>
    <trkpt lat="61.1010522" lon="22.3746099"></trkpt>
    <trkpt lat="61.1012778" lon="22.3745906"></trkpt>
    <trkpt lat="61.1014624" lon="22.3746475"></trkpt>
    <trkpt lat="61.1016176" lon="22.3747469"></trkpt>
    <trkpt lat="61.1019702" lon="22.3751380"></trkpt>
    <trkpt lat="61.1024204" lon="22.3757761"></trkpt>
    <trkpt lat="61.1027008" lon="22.3758578"></trkpt>
    <trkpt lat="61.1028400" lon="22.3758984"></trkpt>
    <trkpt lat="61.1030176" lon="22.3758930"></trkpt>
    <trkpt lat="61.1033356" lon="22.3758833"></trkpt>
    <trkpt lat="61.1037551" lon="22.3757749"></trkpt>
    <trkpt lat="61.1041577" lon="22.3755480"></trkpt>
    <trkpt lat="61.1049036" lon="22.3750188"></trkpt>
    <trkpt lat="61.1054178" lon="22.3746595"></trkpt>
    <trkpt lat="61.1058567" lon="22.3743546"></trkpt>
    <trkpt lat="61.1060969" lon="22.3741531"></trkpt>
    <trkpt lat="61.1066852" lon="22.3734726"></trkpt>
    <trkpt lat="61.1074472" lon="22.3729016"></trkpt>
    <trkpt lat="61.1075413" lon="22.3727961"></trkpt>
    <trkpt lat="61.1078703" lon="22.3724274"></trkpt>
    <trkpt lat="61.1080858" lon="22.3722373"></trkpt>
    <trkpt lat="61.1081992" lon="22.3721788"></trkpt>
    <trkpt lat="61.1083661" lon="22.3721423"></trkpt>
    <trkpt lat="61.1085330" lon="22.3721614"></trkpt>
    <trkpt lat="61.1086633" lon="22.3723006"></trkpt>
    <trkpt lat="61.1087498" lon="22.3724130"></trkpt>
    <trkpt lat="61.1087774" lon="22.3724488"></trkpt>
    <trkpt lat="61.1090674" lon="22.3728470"></trkpt>
    <trkpt lat="61.1097128" lon="22.3737198"></trkpt>
    <trkpt lat="61.1098360" lon="22.3739166"></trkpt>
    <trkpt lat="61.1100529" lon="22.3742631"></trkpt>
    <trkpt lat="61.1102666" lon="22.3747304"></trkpt>
    <trkpt lat="61.1105024" lon="22.3754959"></trkpt>
    <trkpt lat="61.1106325" lon="22.3758755"></trkpt>
    <trkpt lat="61.1107625" lon="22.3762175"></trkpt>
    <trkpt lat="61.1109244" lon="22.3765323"></trkpt>
    <trkpt lat="61.1111709" lon="22.3767995"></trkpt>
    <trkpt lat="61.1116533" lon="22.3771519"></trkpt>
    <trkpt lat="61.1117344" lon="22.3772111"></trkpt>
    <trkpt lat="61.1120576" lon="22.3774391"></trkpt>
    <trkpt lat="61.1122533" lon="22.3775583"></trkpt>
    <trkpt lat="61.1124501" lon="22.3776781"></trkpt>
    <trkpt lat="61.1128308" lon="22.3777829"></trkpt>
    <trkpt lat="61.1129511" lon="22.3777757"></trkpt>
    <trkpt lat="61.1130267" lon="22.3777649"></trkpt>
    <trkpt lat="61.1131033" lon="22.3777379"></trkpt>
    <trkpt lat="61.1131679" lon="22.3777217"></trkpt>
    <trkpt lat="61.1132678" lon="22.3776678"></trkpt>
    <trkpt lat="61.1134681" lon="22.3775636"></trkpt>
    <trkpt lat="61.1136580" lon="22.3774595"></trkpt>
    <trkpt lat="61.1137863" lon="22.3773704"></trkpt>
    <trkpt lat="61.1141642" lon="22.3771581"></trkpt>
    <trkpt lat="61.1143538" lon="22.3770516"></trkpt>
    <trkpt lat="61.1149205" lon="22.3763929"></trkpt>
    <trkpt lat="61.1153275" lon="22.3761517"></trkpt>
    <trkpt lat="61.1155083" lon="22.3760446"></trkpt>
    <trkpt lat="61.1157749" lon="22.3757324"></trkpt>
    <trkpt lat="61.1159768" lon="22.3754960"></trkpt>
    <trkpt lat="61.1174021" lon="22.3736549"></trkpt>
    <trkpt lat="61.1176579" lon="22.3734830"></trkpt>
    <trkpt lat="61.1178368" lon="22.3734081"></trkpt>
    <trkpt lat="61.1178989" lon="22.3734030"></trkpt>
    <trkpt lat="61.1181034" lon="22.3733861"></trkpt>
    <trkpt lat="61.1182869" lon="22.3734206"></trkpt>
    <trkpt lat="61.1186429" lon="22.3735412"></trkpt>
    <trkpt lat="61.1188230" lon="22.3736052"></trkpt>
    <trkpt lat="61.1189134" lon="22.3736374"></trkpt>
    <trkpt lat="61.1190227" lon="22.3736763"></trkpt>
    <trkpt lat="61.1196751" lon="22.3739083"></trkpt>
    <trkpt lat="61.1201615" lon="22.3740813"></trkpt>
    <trkpt lat="61.1202692" lon="22.3741037"></trkpt>
    <trkpt lat="61.1203875" lon="22.3741284"></trkpt>
    <trkpt lat="61.1206844" lon="22.3741813"></trkpt>
    <trkpt lat="61.1209614" lon="22.3742106"></trkpt>
    <trkpt lat="61.1211676" lon="22.3742402"></trkpt>
    <trkpt lat="61.1212699" lon="22.3742843"></trkpt>
    <trkpt lat="61.1213075" lon="22.3743039"></trkpt>
    <trkpt lat="61.1215973" lon="22.3744706"></trkpt>
    <trkpt lat="61.1217930" lon="22.3745831"></trkpt>
    <trkpt lat="61.1221607" lon="22.3747741"></trkpt>
    <trkpt lat="61.1225152" lon="22.3749338"></trkpt>
    <trkpt lat="61.1226594" lon="22.3749987"></trkpt>
    <trkpt lat="61.1229010" lon="22.3750936"></trkpt>
    <trkpt lat="61.1231054" lon="22.3751739"></trkpt>
    <trkpt lat="61.1234059" lon="22.3752527"></trkpt>
    <trkpt lat="61.1235203" lon="22.3752627"></trkpt>
    <trkpt lat="61.1237550" lon="22.3752832"></trkpt>
    <trkpt lat="61.1240050" lon="22.3752184"></trkpt>
    <trkpt lat="61.1244786" lon="22.3749714"></trkpt>
    <trkpt lat="61.1246501" lon="22.3748418"></trkpt>
    <trkpt lat="61.1247799" lon="22.3746805"></trkpt>
    <trkpt lat="61.1251587" lon="22.3741710"></trkpt>
    <trkpt lat="61.1252563" lon="22.3740314"></trkpt>
    <trkpt lat="61.1254713" lon="22.3737238"></trkpt>
    <trkpt lat="61.1256000" lon="22.3736069"></trkpt>
    <trkpt lat="61.1257216" lon="22.3735351"></trkpt>
    <trkpt lat="61.1258404" lon="22.3734884"></trkpt>
    <trkpt lat="61.1259386" lon="22.3734498"></trkpt>
    <trkpt lat="61.1261757" lon="22.3734332"></trkpt>
    <trkpt lat="61.1265353" lon="22.3734665"></trkpt>
    <trkpt lat="61.1269204" lon="22.3735505"></trkpt>
    <trkpt lat="61.1273125" lon="22.3736393"></trkpt>
    <trkpt lat="61.1279638" lon="22.3737869"></trkpt>
    <trkpt lat="61.1282427" lon="22.3739113"></trkpt>
    <trkpt lat="61.1285762" lon="22.3741878"></trkpt>
    <trkpt lat="61.1288979" lon="22.3744594"></trkpt>
    <trkpt lat="61.1290826" lon="22.3745064"></trkpt>
    <trkpt lat="61.1292246" lon="22.3744770"></trkpt>
    <trkpt lat="61.1293582" lon="22.3744064"></trkpt>
    <trkpt lat="61.1295230" lon="22.3742593"></trkpt>
    <trkpt lat="61.1296679" lon="22.3740703"></trkpt>
    <trkpt lat="61.1298298" lon="22.3738592"></trkpt>
    <trkpt lat="61.1300344" lon="22.3735414"></trkpt>
    <trkpt lat="61.1301906" lon="22.3732060"></trkpt>
    <trkpt lat="61.1303270" lon="22.3728059"></trkpt>
    <trkpt lat="61.1306350" lon="22.3715821"></trkpt>
    <trkpt lat="61.1308497" lon="22.3712112"></trkpt>
    <trkpt lat="61.1311395" lon="22.3709111"></trkpt>
    <trkpt lat="61.1314747" lon="22.3707699"></trkpt>
    <trkpt lat="61.1321139" lon="22.3706934"></trkpt>
    <trkpt lat="61.1324264" lon="22.3707287"></trkpt>
    <trkpt lat="61.1326338" lon="22.3708111"></trkpt>
    <trkpt lat="61.1328350" lon="22.3709637"></trkpt>
    <trkpt lat="61.1329473" lon="22.3710489"></trkpt>
    <trkpt lat="61.1331623" lon="22.3712120"></trkpt>
    <trkpt lat="61.1332783" lon="22.3713136"></trkpt>
    <trkpt lat="61.1342022" lon="22.3721232"></trkpt>
    <trkpt lat="61.1346025" lon="22.3724740"></trkpt>
    <trkpt lat="61.1350286" lon="22.3728474"></trkpt>
    <trkpt lat="61.1351216" lon="22.3729289"></trkpt>
    <trkpt lat="61.1356681" lon="22.3733765"></trkpt>
    <trkpt lat="61.1360958" lon="22.3737591"></trkpt>
    <trkpt lat="61.1365277" lon="22.3741537"></trkpt>
    <trkpt lat="61.1366224" lon="22.3742226"></trkpt>
    <trkpt lat="61.1367270" lon="22.3742452"></trkpt>
    <trkpt lat="61.1368736" lon="22.3742161"></trkpt>
    <trkpt lat="61.1369961" lon="22.3741786"></trkpt>
    <trkpt lat="61.1372111" lon="22.3740419"></trkpt>
    <trkpt lat="61.1376683" lon="22.3736065"></trkpt>
    <trkpt lat="61.1380383" lon="22.3729535"></trkpt>
    <trkpt lat="61.1394315" lon="22.3704066"></trkpt>
    <trkpt lat="61.1398451" lon="22.3697971"></trkpt>
    <trkpt lat="61.1405634" lon="22.3689699"></trkpt>
    <trkpt lat="61.1408897" lon="22.3683985"></trkpt>
    <trkpt lat="61.1422949" lon="22.3659374"></trkpt>
    <trkpt lat="61.1434550" lon="22.3639055"></trkpt>
    <trkpt lat="61.1441447" lon="22.3626181"></trkpt>
    <trkpt lat="61.1445944" lon="22.3617477"></trkpt>
    <trkpt lat="61.1449826" lon="22.3608642"></trkpt>
    <trkpt lat="61.1451130" lon="22.3605674"></trkpt>
    <trkpt lat="61.1455266" lon="22.3597402"></trkpt>
    <trkpt lat="61.1460708" lon="22.3588913"></trkpt>
    <trkpt lat="61.1463945" lon="22.3579354"></trkpt>
    <trkpt lat="61.1465279" lon="22.3575416"></trkpt>
    <trkpt lat="61.1466523" lon="22.3569348"></trkpt>
    <trkpt lat="61.1468027" lon="22.3562014"></trkpt>
    <trkpt lat="61.1471858" lon="22.3549998"></trkpt>
    <trkpt lat="61.1472602" lon="22.3547732"></trkpt>
    <trkpt lat="61.1476543" lon="22.3535728"></trkpt>
    <trkpt lat="61.1480299" lon="22.3528615"></trkpt>
    <trkpt lat="61.1485741" lon="22.3517948"></trkpt>
    <trkpt lat="61.1489490" lon="22.3510919"></trkpt>
    <trkpt lat="61.1489790" lon="22.3510356"></trkpt>
    <trkpt lat="61.1492707" lon="22.3504888"></trkpt>
    <trkpt lat="61.1504811" lon="22.3484193"></trkpt>
    <trkpt lat="61.1506203" lon="22.3481813"></trkpt>
    <trkpt lat="61.1507293" lon="22.3477349"></trkpt>
    <trkpt lat="61.1509505" lon="22.3468291"></trkpt>
    <trkpt lat="61.1509988" lon="22.3466315"></trkpt>
    <trkpt lat="61.1510775" lon="22.3463093"></trkpt>
    <trkpt lat="61.1511534" lon="22.3449808"></trkpt>
    <trkpt lat="61.1511639" lon="22.3447977"></trkpt>
    <trkpt lat="61.1512081" lon="22.3440236"></trkpt>
    <trkpt lat="61.1512738" lon="22.3427572"></trkpt>
    <trkpt lat="61.1512951" lon="22.3423475"></trkpt>
    <trkpt lat="61.1514258" lon="22.3413026"></trkpt>
    <trkpt lat="61.1517713" lon="22.3403375"></trkpt>
    <trkpt lat="61.1520570" lon="22.3395394"></trkpt>
    <trkpt lat="61.1521725" lon="22.3391776"></trkpt>
    <trkpt lat="61.1522732" lon="22.3388621"></trkpt>
    <trkpt lat="61.1523836" lon="22.3385163"></trkpt>
    <trkpt lat="61.1524846" lon="22.3379103"></trkpt>
    <trkpt lat="61.1526448" lon="22.3369489"></trkpt>
    <trkpt lat="61.1529745" lon="22.3353367"></trkpt>
    <trkpt lat="61.1530366" lon="22.3350333"></trkpt>
    <trkpt lat="61.1532978" lon="22.3341626"></trkpt>
    <trkpt lat="61.1537549" lon="22.3331177"></trkpt>
    <trkpt lat="61.1543090" lon="22.3320079"></trkpt>
    <trkpt lat="61.1545168" lon="22.3315069"></trkpt>
    <trkpt lat="61.1546377" lon="22.3309886"></trkpt>
    <trkpt lat="61.1546946" lon="22.3303449"></trkpt>
    <trkpt lat="61.1547050" lon="22.3294169"></trkpt>
    <trkpt lat="61.1547334" lon="22.3287249"></trkpt>
    <trkpt lat="61.1547362" lon="22.3287041"></trkpt>
    <trkpt lat="61.1548836" lon="22.3276306"></trkpt>
    <trkpt lat="61.1549829" lon="22.3267360"></trkpt>
    <trkpt lat="61.1549845" lon="22.3265201"></trkpt>
    <trkpt lat="61.1548809" lon="22.3260051"></trkpt>
    <trkpt lat="61.1546273" lon="22.3251736"></trkpt>
    <trkpt lat="61.1545688" lon="22.3249009"></trkpt>
    <trkpt lat="61.1544649" lon="22.3244169"></trkpt>
    <trkpt lat="61.1544951" lon="22.3237574"></trkpt>
    <trkpt lat="61.1547292" lon="22.3233588"></trkpt>
    <trkpt lat="61.1568886" lon="22.3219512"></trkpt>
    <trkpt lat="61.1573902" lon="22.3216242"></trkpt>
    <trkpt lat="61.1577385" lon="22.3213629"></trkpt>
    <trkpt lat="61.1578459" lon="22.3212239"></trkpt>
    <trkpt lat="61.1581086" lon="22.3208840"></trkpt>
    <trkpt lat="61.1587834" lon="22.3197739"></trkpt>
    <trkpt lat="61.1593340" lon="22.3190740"></trkpt>
    <trkpt lat="61.1600242" lon="22.3184242"></trkpt>
    <trkpt lat="61.1605599" lon="22.3179151"></trkpt>
    <trkpt lat="61.1608948" lon="22.3176507"></trkpt>
    <trkpt lat="61.1610740" lon="22.3175093"></trkpt>
    <trkpt lat="61.1615328" lon="22.3172168"></trkpt>
    <trkpt lat="61.1617220" lon="22.3170961"></trkpt>
    <trkpt lat="61.1620930" lon="22.3167866"></trkpt>
    <trkpt lat="61.1624669" lon="22.3164747"></trkpt>
    <trkpt lat="61.1625751" lon="22.3163658"></trkpt>
    <trkpt lat="61.1627207" lon="22.3162193"></trkpt>
    <trkpt lat="61.1628439" lon="22.3160865"></trkpt>
    <trkpt lat="61.1630607" lon="22.3158683"></trkpt>
    <trkpt lat="61.1633361" lon="22.3155300"></trkpt>
    <trkpt lat="61.1635606" lon="22.3152730"></trkpt>
    <trkpt lat="61.1636830" lon="22.3151182"></trkpt>
    <trkpt lat="61.1637454" lon="22.3149743"></trkpt>
    <trkpt lat="61.1638757" lon="22.3146736"></trkpt>
    <trkpt lat="61.1640043" lon="22.3140644"></trkpt>
    <trkpt lat="61.1640768" lon="22.3136880"></trkpt>
    <trkpt lat="61.1641780" lon="22.3132664"></trkpt>
    <trkpt lat="61.1642867" lon="22.3129006"></trkpt>
    <trkpt lat="61.1643379" lon="22.3127282"></trkpt>
    <trkpt lat="61.1646690" lon="22.3118980"></trkpt>
    <trkpt lat="61.1647678" lon="22.3116500"></trkpt>
    <trkpt lat="61.1653106" lon="22.3103745"></trkpt>
    <trkpt lat="61.1655492" lon="22.3099068"></trkpt>
    <trkpt lat="61.1656883" lon="22.3096342"></trkpt>
    <trkpt lat="61.1659487" lon="22.3091852"></trkpt>
    <trkpt lat="61.1663648" lon="22.3084755"></trkpt>
    <trkpt lat="61.1664735" lon="22.3082609"></trkpt>
    <trkpt lat="61.1665614" lon="22.3079820"></trkpt>
    <trkpt lat="61.1667138" lon="22.3072350"></trkpt>
    <trkpt lat="61.1669828" lon="22.3058510"></trkpt>
    <trkpt lat="61.1671510" lon="22.3047003"></trkpt>
    <trkpt lat="61.1672053" lon="22.3037669"></trkpt>
    <trkpt lat="61.1672907" lon="22.3027208"></trkpt>
    <trkpt lat="61.1673113" lon="22.3025936"></trkpt>
    <trkpt lat="61.1674450" lon="22.3017694"></trkpt>
    <trkpt lat="61.1674707" lon="22.3015673"></trkpt>
    <trkpt lat="61.1675458" lon="22.3009761"></trkpt>
    <trkpt lat="61.1675717" lon="22.3007508"></trkpt>
    <trkpt lat="61.1675769" lon="22.3005576"></trkpt>
    <trkpt lat="61.1675717" lon="22.3003216"></trkpt>
    <trkpt lat="61.1675148" lon="22.2984441"></trkpt>
    <trkpt lat="61.1674941" lon="22.2973819"></trkpt>
    <trkpt lat="61.1675200" lon="22.2968669"></trkpt>
    <trkpt lat="61.1675276" lon="22.2967604"></trkpt>
    <trkpt lat="61.1676719" lon="22.2947327"></trkpt>
    <trkpt lat="61.1678128" lon="22.2936987"></trkpt>
    <trkpt lat="61.1680568" lon="22.2926563"></trkpt>
    <trkpt lat="61.1683557" lon="22.2919259"></trkpt>
    <trkpt lat="61.1688134" lon="22.2910734"></trkpt>
    <trkpt lat="61.1689104" lon="22.2908981"></trkpt>
    <trkpt lat="61.1694964" lon="22.2898395"></trkpt>
    <trkpt lat="61.1701172" lon="22.2887023"></trkpt>
    <trkpt lat="61.1703138" lon="22.2883268"></trkpt>
    <trkpt lat="61.1708777" lon="22.2871251"></trkpt>
    <trkpt lat="61.1715451" lon="22.2855480"></trkpt>
    <trkpt lat="61.1716589" lon="22.2851940"></trkpt>
    <trkpt lat="61.1717261" lon="22.2848935"></trkpt>
    <trkpt lat="61.1718407" lon="22.2838818"></trkpt>
    <trkpt lat="61.1544649" lon="22.3244169"></trkpt>
    <trkpt lat="61.1542517" lon="22.3239398"></trkpt>
    <trkpt lat="61.1541876" lon="22.3239163"></trkpt>
    <trkpt lat="61.1540916" lon="22.3238098"></trkpt>
    <trkpt lat="61.1540243" lon="22.3239480"></trkpt>
    <trkpt lat="61.1539823" lon="22.3241973"></trkpt>
    <trkpt lat="61.1539406" lon="22.3242939"></trkpt>
    <trkpt lat="61.1539111" lon="22.3243736"></trkpt>
    <trkpt lat="61.1538842" lon="22.3244708"></trkpt>
    <trkpt lat="61.1532516" lon="22.3247943"></trkpt>
    <trkpt lat="61.1519409" lon="22.3254115"></trkpt>
    <trkpt lat="61.1517919" lon="22.3254896"></trkpt>
    <trkpt lat="61.1517091" lon="22.3255349"></trkpt>
    <trkpt lat="61.1516461" lon="22.3255222"></trkpt>
    <trkpt lat="61.1515979" lon="22.3254547"></trkpt>
    <trkpt lat="61.1514013" lon="22.3247252"></trkpt>
    <trkpt lat="61.1504084" lon="22.3253021"></trkpt>
    <trkpt lat="61.1501745" lon="22.3253735"></trkpt>
    <trkpt lat="61.1499449" lon="22.3258549"></trkpt>
  </trkseg></trk>
</gpx>
