<?xml version='1.0' encoding='UTF-8'?>
<osm version='0.6' generator='pilegrimsleden-osm-extractor 1.0'>
  <node id='-1' version='0' action='modify' visible='true' lat='59.0140034' lon='11.4509889'>
    <tag k='name' v='Bakke Camping'/>
    <tag k='source' v='pilegrimsleden.no'/>
    <tag k='url' v='https://www.pilegrimsleden.no/interessepunkter/bakke-camping'/>
    <tag k='network' v='Pilegrimsleden'/>
    <tag k='note:trail' v='Borgleden'/>
    <tag k='pilegrimsleden:poi_type' v='Rasteplass'/>
    <tag k='pilegrimsleden:id' v='9121'/>
    <tag k='amenity' v='shelter'/>
    <tag k='shelter_type' v='lean_to'/>
    <tag k='note:osm_mapping' v='uncertain OSM equivalent for category Rasteplass'/>
      <tag k='note:osm_route_relation' v='5672944'/>
      <tag k='note:proposed' v='Proposed: add as member of relation 5672944 (Borgleden). Do not modify existing members of relation 5672944 (Borgleden). Research aid only. Existing OSM object: node/3663314251.'/>
    <tag k='note' v='Proposed: add as member of relation 5672944 (Borgleden). Do not modify existing members of relation 5672944 (Borgleden). Research aid only. Existing OSM object: node/3663314251.'/>
  </node>
  <node id='-2' version='0' action='modify' visible='true' lat='59.6802386' lon='10.7225305'>
    <tag k='name' v='Bakkelund Backpackers'/>
    <tag k='source' v='pilegrimsleden.no'/>
    <tag k='url' v='https://www.pilegrimsleden.no/interessepunkter/bakkelund-backpackers'/>
    <tag k='network' v='Pilegrimsleden'/>
    <tag k='note:trail' v='Borgleden'/>
    <tag k='pilegrimsleden:poi_type' v='Rom og hytter;Teltplass'/>
    <tag k='pilegrimsleden:id' v='351610'/>
    <tag k='tourism' v='chalet'/>
      <tag k='note:osm_route_relation' v='5672944'/>
      <tag k='note:proposed' v='Proposed: create OSM object and add as member of relation 5672944 (Borgleden). Do not modify existing members of relation 5672944 (Borgleden). Research aid only.'/>
    <tag k='note' v='Proposed: create OSM object and add as member of relation 5672944 (Borgleden). Do not modify existing members of relation 5672944 (Borgleden). Research aid only.'/>
  </node>
  <node id='-3' version='0' action='modify' visible='true' lat='59.1369926' lon='11.3298869'>
    <tag k='name' v='Berg pilegrimsherberge'/>
    <tag k='source' v='pilegrimsleden.no'/>
    <tag k='url' v='https://www.pilegrimsleden.no/interessepunkter/berg-pilegrimsherberge'/>
    <tag k='network' v='Pilegrimsleden'/>
    <tag k='note:trail' v='Borgleden'/>
    <tag k='pilegrimsleden:poi_type' v='Pilegrimsherberge'/>
    <tag k='pilegrimsleden:id' v='455805'/>
    <tag k='tourism' v='hostel'/>
    <tag k='hostel:type' v='pilgrim'/>
    <tag k='note:osm_mapping' v='uncertain OSM equivalent for category Pilegrimsherberge'/>
      <tag k='note:osm_route_relation' v='5672944'/>
      <tag k='note:proposed' v='Proposed: create OSM object and add as member of relation 5672944 (Borgleden). Do not modify existing members of relation 5672944 (Borgleden). Research aid only.'/>
    <tag k='note' v='Proposed: create OSM object and add as member of relation 5672944 (Borgleden). Do not modify existing members of relation 5672944 (Borgleden). Research aid only.'/>
  </node>
  <node id='-4' version='0' action='modify' visible='true' lat='58.9113625' lon='11.5237426'>
    <tag k='name' v='Bråtorp Camping'/>
    <tag k='source' v='pilegrimsleden.no'/>
    <tag k='url' v='https://www.pilegrimsleden.no/interessepunkter/bratorp-camping'/>
    <tag k='network' v='Pilegrimsleden'/>
    <tag k='note:trail' v='Borgleden'/>
    <tag k='pilegrimsleden:poi_type' v='Campingplass;Rom og hytter;Teltplass'/>
    <tag k='pilegrimsleden:id' v='9126'/>
    <tag k='tourism' v='chalet'/>
      <tag k='note:osm_route_relation' v='5672944'/>
      <tag k='note:proposed' v='Proposed: add as member of relation 5672944 (Borgleden). Do not modify existing members of relation 5672944 (Borgleden). Research aid only. Existing OSM object: node/3663317138.'/>
    <tag k='note' v='Proposed: add as member of relation 5672944 (Borgleden). Do not modify existing members of relation 5672944 (Borgleden). Research aid only. Existing OSM object: node/3663317138.'/>
  </node>
  <node id='-5' version='0' action='modify' visible='true' lat='59.9273939' lon='10.7668296'>
    <tag k='name' v='Bunks at Rode'/>
    <tag k='source' v='pilegrimsleden.no'/>
    <tag k='url' v='https://www.pilegrimsleden.no/interessepunkter/bunks-at-rode'/>
    <tag k='network' v='Pilegrimsleden'/>
    <tag k='note:trail' v='Borgleden'/>
    <tag k='pilegrimsleden:poi_type' v='Pilegrimsherberge;Vandrerhjem'/>
    <tag k='pilegrimsleden:id' v='502061'/>
    <tag k='tourism' v='hostel'/>
    <tag k='hostel:type' v='pilgrim'/>
    <tag k='note:osm_mapping' v='uncertain OSM equivalent for category Pilegrimsherberge'/>
      <tag k='note:osm_route_relation' v='5672944'/>
      <tag k='note:proposed' v='Proposed: add as member of relation 5672944 (Borgleden). Do not modify existing members of relation 5672944 (Borgleden). Research aid only. Existing OSM object: node/2790244101.'/>
    <tag k='note' v='Proposed: add as member of relation 5672944 (Borgleden). Do not modify existing members of relation 5672944 (Borgleden). Research aid only. Existing OSM object: node/2790244101.'/>
  </node>
  <node id='-6' version='0' action='modify' visible='true' lat='59.1159429' lon='11.3986499'>
    <tag k='name' v='Fredriksten Camping'/>
    <tag k='source' v='pilegrimsleden.no'/>
    <tag k='url' v='https://www.pilegrimsleden.no/interessepunkter/fredriksten-camping'/>
    <tag k='network' v='Pilegrimsleden'/>
    <tag k='note:trail' v='Borgleden'/>
    <tag k='pilegrimsleden:poi_type' v='Campingplass;Rom og hytter;Teltplass'/>
    <tag k='pilegrimsleden:id' v='9115'/>
    <tag k='tourism' v='chalet'/>
      <tag k='note:osm_route_relation' v='5672944'/>
      <tag k='note:proposed' v='Proposed: add as member of relation 5672944 (Borgleden). Do not modify existing members of relation 5672944 (Borgleden). Research aid only. Existing OSM object: way/608090452.'/>
    <tag k='note' v='Proposed: add as member of relation 5672944 (Borgleden). Do not modify existing members of relation 5672944 (Borgleden). Research aid only. Existing OSM object: way/608090452.'/>
  </node>
  <node id='-7' version='0' action='modify' visible='true' lat='59.1545253' lon='11.2919712'>
    <tag k='name' v='Gapahuk med grillplass Tobru, Halden'/>
    <tag k='source' v='pilegrimsleden.no'/>
    <tag k='url' v='https://www.pilegrimsleden.no/interessepunkter/gapahuk-med-grillplass-tobru-halden'/>
    <tag k='network' v='Pilegrimsleden'/>
    <tag k='note:trail' v='Borgleden'/>
    <tag k='pilegrimsleden:poi_type' v='Gapahuk;Rasteplass'/>
    <tag k='pilegrimsleden:id' v='270673'/>
    <tag k='amenity' v='shelter'/>
    <tag k='shelter_type' v='lean_to'/>
      <tag k='note:osm_route_relation' v='5672944'/>
      <tag k='note:proposed' v='Proposed: create OSM object and add as member of relation 5672944 (Borgleden). Do not modify existing members of relation 5672944 (Borgleden). Research aid only.'/>
    <tag k='note' v='Proposed: create OSM object and add as member of relation 5672944 (Borgleden). Do not modify existing members of relation 5672944 (Borgleden). Research aid only.'/>
  </node>
  <node id='-8' version='0' action='modify' visible='true' lat='59.2213893' lon='11.1974888'>
    <tag k='name' v='Gapahuk med grillplass, Skjeberg/Guslundåsen-Heia'/>
    <tag k='source' v='pilegrimsleden.no'/>
    <tag k='url' v='https://www.pilegrimsleden.no/interessepunkter/gapahuk-med-grillplass-skjeberg-guslundasen-heia-2'/>
    <tag k='network' v='Pilegrimsleden'/>
    <tag k='note:trail' v='Borgleden'/>
    <tag k='pilegrimsleden:poi_type' v='Gapahuk;Rasteplass'/>
    <tag k='pilegrimsleden:id' v='282112'/>
    <tag k='amenity' v='shelter'/>
    <tag k='shelter_type' v='lean_to'/>
      <tag k='note:osm_route_relation' v='5672944'/>
      <tag k='note:proposed' v='Proposed: add as member of relation 5672944 (Borgleden). Do not modify existing members of relation 5672944 (Borgleden). Research aid only. Existing OSM object: node/13021533679.'/>
    <tag k='note' v='Proposed: add as member of relation 5672944 (Borgleden). Do not modify existing members of relation 5672944 (Borgleden). Research aid only. Existing OSM object: node/13021533679.'/>
  </node>
  <node id='-9' version='0' action='modify' visible='true' lat='59.1187617' lon='11.3935733'>
    <tag k='name' v='Haldenhytta'/>
    <tag k='source' v='pilegrimsleden.no'/>
    <tag k='url' v='https://www.pilegrimsleden.no/interessepunkter/overnatting-haldenhytta'/>
    <tag k='network' v='Pilegrimsleden'/>
    <tag k='note:trail' v='Borgleden'/>
    <tag k='pilegrimsleden:poi_type' v='Pilegrimsherberge'/>
    <tag k='pilegrimsleden:id' v='373638'/>
    <tag k='tourism' v='hostel'/>
    <tag k='hostel:type' v='pilgrim'/>
    <tag k='note:osm_mapping' v='uncertain OSM equivalent for category Pilegrimsherberge'/>
      <tag k='note:osm_route_relation' v='5672944'/>
      <tag k='note:proposed' v='Proposed: create OSM object and add as member of relation 5672944 (Borgleden). Do not modify existing members of relation 5672944 (Borgleden). Research aid only.'/>
    <tag k='note' v='Proposed: create OSM object and add as member of relation 5672944 (Borgleden). Do not modify existing members of relation 5672944 (Borgleden). Research aid only.'/>
  </node>
  <node id='-10' version='0' action='modify' visible='true' lat='59.8712779' lon='10.7156181'>
    <tag k='name' v='Langøyene camping'/>
    <tag k='source' v='pilegrimsleden.no'/>
    <tag k='url' v='https://www.pilegrimsleden.no/interessepunkter/langoyene-camping'/>
    <tag k='network' v='Pilegrimsleden'/>
    <tag k='note:trail' v='Borgleden'/>
    <tag k='pilegrimsleden:poi_type' v='Teltplass'/>
    <tag k='pilegrimsleden:id' v='340516'/>
    <tag k='tourism' v='camp_site'/>
    <tag k='tents' v='yes'/>
      <tag k='note:osm_route_relation' v='5672944'/>
      <tag k='note:proposed' v='Proposed: add as member of relation 5672944 (Borgleden). Do not modify existing members of relation 5672944 (Borgleden). Research aid only. Existing OSM object: way/1547711866.'/>
    <tag k='note' v='Proposed: add as member of relation 5672944 (Borgleden). Do not modify existing members of relation 5672944 (Borgleden). Research aid only. Existing OSM object: way/1547711866.'/>
  </node>
  <node id='-11' version='0' action='modify' visible='true' lat='59.4136357' lon='10.6629665'>
    <tag k='name' v='Pilegrimsovernatting i Moss'/>
    <tag k='source' v='pilegrimsleden.no'/>
    <tag k='url' v='https://www.pilegrimsleden.no/interessepunkter/pilegrimsovernatting-i-moss'/>
    <tag k='network' v='Pilegrimsleden'/>
    <tag k='note:trail' v='Borgleden'/>
    <tag k='pilegrimsleden:poi_type' v='Pilegrimsherberge'/>
    <tag k='pilegrimsleden:id' v='448178'/>
    <tag k='tourism' v='hostel'/>
    <tag k='hostel:type' v='pilgrim'/>
    <tag k='note:osm_mapping' v='uncertain OSM equivalent for category Pilegrimsherberge'/>
      <tag k='note:osm_route_relation' v='5672944'/>
      <tag k='note:proposed' v='Proposed: create OSM object and add as member of relation 5672944 (Borgleden). Do not modify existing members of relation 5672944 (Borgleden). Research aid only.'/>
    <tag k='note' v='Proposed: create OSM object and add as member of relation 5672944 (Borgleden). Do not modify existing members of relation 5672944 (Borgleden). Research aid only.'/>
  </node>
  <node id='-12' version='0' action='modify' visible='true' lat='59.1907989' lon='11.1869016'>
    <tag k='name' v='Skjeberg camping'/>
    <tag k='source' v='pilegrimsleden.no'/>
    <tag k='url' v='https://www.pilegrimsleden.no/interessepunkter/skjeberg-camping'/>
    <tag k='network' v='Pilegrimsleden'/>
    <tag k='note:trail' v='Borgleden'/>
    <tag k='pilegrimsleden:poi_type' v='Campingplass'/>
    <tag k='pilegrimsleden:id' v='464854'/>
    <tag k='tourism' v='camp_site'/>
      <tag k='note:osm_route_relation' v='5672944'/>
      <tag k='note:proposed' v='Proposed: add as member of relation 5672944 (Borgleden). Do not modify existing members of relation 5672944 (Borgleden). Research aid only. Existing OSM object: node/3663315360.'/>
    <tag k='note' v='Proposed: add as member of relation 5672944 (Borgleden). Do not modify existing members of relation 5672944 (Borgleden). Research aid only. Existing OSM object: node/3663315360.'/>
  </node>
  <node id='-13' version='0' action='modify' visible='true' lat='59.5067271' lon='10.6886244'>
    <tag k='name' v='Solåsen pilegrimsgård'/>
    <tag k='source' v='pilegrimsleden.no'/>
    <tag k='url' v='https://www.pilegrimsleden.no/interessepunkter/solasen-pilegrimsgard'/>
    <tag k='network' v='Pilegrimsleden'/>
    <tag k='note:trail' v='Borgleden'/>
    <tag k='pilegrimsleden:poi_type' v='Pilegrimsherberge'/>
    <tag k='pilegrimsleden:id' v='10559'/>
    <tag k='tourism' v='hostel'/>
    <tag k='hostel:type' v='pilgrim'/>
    <tag k='note:osm_mapping' v='uncertain OSM equivalent for category Pilegrimsherberge'/>
      <tag k='note:osm_route_relation' v='5672944'/>
      <tag k='note:proposed' v='Proposed: create OSM object and add as member of relation 5672944 (Borgleden). Do not modify existing members of relation 5672944 (Borgleden). Research aid only.'/>
    <tag k='note' v='Proposed: create OSM object and add as member of relation 5672944 (Borgleden). Do not modify existing members of relation 5672944 (Borgleden). Research aid only.'/>
  </node>
  <node id='-14' version='0' action='modify' visible='true' lat='59.5489309' lon='10.6979168'>
    <tag k='name' v='Urtegården Nordre Mørk'/>
    <tag k='source' v='pilegrimsleden.no'/>
    <tag k='url' v='https://www.pilegrimsleden.no/interessepunkter/urtegarden-rasteplass-og-overnatting'/>
    <tag k='network' v='Pilegrimsleden'/>
    <tag k='note:trail' v='Borgleden'/>
    <tag k='pilegrimsleden:poi_type' v='Rasteplass'/>
    <tag k='pilegrimsleden:id' v='9380'/>
    <tag k='amenity' v='shelter'/>
    <tag k='shelter_type' v='lean_to'/>
    <tag k='note:osm_mapping' v='uncertain OSM equivalent for category Rasteplass'/>
      <tag k='note:osm_route_relation' v='5672944'/>
      <tag k='note:proposed' v='Proposed: create OSM object and add as member of relation 5672944 (Borgleden). Do not modify existing members of relation 5672944 (Borgleden). Research aid only.'/>
    <tag k='note' v='Proposed: create OSM object and add as member of relation 5672944 (Borgleden). Do not modify existing members of relation 5672944 (Borgleden). Research aid only.'/>
  </node>
  <node id='-15' version='0' action='modify' visible='true' lat='59.3180143' lon='10.9809503'>
    <tag k='name' v='Utne Camping'/>
    <tag k='source' v='pilegrimsleden.no'/>
    <tag k='url' v='https://www.pilegrimsleden.no/interessepunkter/utne-camping'/>
    <tag k='network' v='Pilegrimsleden'/>
    <tag k='note:trail' v='Borgleden'/>
    <tag k='pilegrimsleden:poi_type' v='Campingplass'/>
    <tag k='pilegrimsleden:id' v='149912'/>
    <tag k='tourism' v='camp_site'/>
      <tag k='note:osm_route_relation' v='5672944'/>
      <tag k='note:proposed' v='Proposed: add as member of relation 5672944 (Borgleden). Do not modify existing members of relation 5672944 (Borgleden). Research aid only. Existing OSM object: node/3663317730.'/>
    <tag k='note' v='Proposed: add as member of relation 5672944 (Borgleden). Do not modify existing members of relation 5672944 (Borgleden). Research aid only. Existing OSM object: node/3663317730.'/>
  </node>
  <node id='-16' version='0' action='modify' visible='true' lat='59.9221295' lon='10.8198166'>
    <tag k='name' v='Østre Aker pilegrimsherberge'/>
    <tag k='source' v='pilegrimsleden.no'/>
    <tag k='url' v='https://www.pilegrimsleden.no/interessepunkter/ostre-aker-herberge'/>
    <tag k='network' v='Pilegrimsleden'/>
    <tag k='note:trail' v='Borgleden'/>
    <tag k='pilegrimsleden:poi_type' v='Pilegrimsherberge'/>
    <tag k='pilegrimsleden:id' v='437879'/>
    <tag k='tourism' v='hostel'/>
    <tag k='hostel:type' v='pilgrim'/>
    <tag k='note:osm_mapping' v='uncertain OSM equivalent for category Pilegrimsherberge'/>
      <tag k='note:osm_route_relation' v='5672944'/>
      <tag k='note:proposed' v='Proposed: create OSM object and add as member of relation 5672944 (Borgleden). Do not modify existing members of relation 5672944 (Borgleden). Research aid only.'/>
    <tag k='note' v='Proposed: create OSM object and add as member of relation 5672944 (Borgleden). Do not modify existing members of relation 5672944 (Borgleden). Research aid only.'/>
  </node>
  <relation id='-17' version='0' action='modify' visible='true'>
    <member type='node' ref='-1' role='shelter'/>
    <member type='node' ref='-2' role='shelter'/>
    <member type='node' ref='-3' role='shelter'/>
    <member type='node' ref='-4' role='shelter'/>
    <member type='node' ref='-5' role='shelter'/>
    <member type='node' ref='-6' role='shelter'/>
    <member type='node' ref='-7' role='shelter'/>
    <member type='node' ref='-8' role='shelter'/>
    <member type='node' ref='-9' role='shelter'/>
    <member type='node' ref='-10' role='shelter'/>
    <member type='node' ref='-11' role='shelter'/>
    <member type='node' ref='-12' role='shelter'/>
    <member type='node' ref='-13' role='shelter'/>
    <member type='node' ref='-14' role='shelter'/>
    <member type='node' ref='-15' role='shelter'/>
    <member type='node' ref='-16' role='shelter'/>
    <tag k='type' v='site'/>
    <tag k='name' v='Borgleden overnight POIs'/>
    <tag k='network' v='Pilegrimsleden'/>
    <tag k='note:trail' v='Borgleden'/>
    <tag k='note' v='Local JOSM research relation grouping overnight POIs for this trail; not an OSM import'/>
    <tag k='note:osm_route_relation' v='5672944'/>
    <tag k='source' v='openstreetmap.org/relation/5672944'/>
  </relation>
</osm>
