<?xml version='1.0' encoding='UTF-8'?>
<osm version='0.6' generator='pilegrimsleden-osm-extractor 1.0'>
  <node id='-1' version='0' action='modify' visible='true' lat='59.8645815' lon='10.4729558'>
    <tag k='name' v='Berger Gård'/>
    <tag k='source' v='pilegrimsleden.no'/>
    <tag k='url' v='https://www.pilegrimsleden.no/interessepunkter/berger-gard'/>
    <tag k='network' v='Pilegrimsleden'/>
    <tag k='note:trail' v='Tunsbergleden'/>
    <tag k='pilegrimsleden:poi_type' v='Pilegrimsherberge'/>
    <tag k='pilegrimsleden:id' v='438871'/>
    <tag k='tourism' v='hostel'/>
    <tag k='hostel:type' v='pilgrim'/>
    <tag k='note:osm_mapping' v='uncertain OSM equivalent for category Pilegrimsherberge'/>
      <tag k='note:osm_route_relation' v='5661086'/>
      <tag k='note:proposed' v='Proposed: create OSM object and add as member of relation 5661086 (Tunsbergleden / Vestfoldveien). Do not modify existing members of relation 5661086 (Tunsbergleden / Vestfoldveien). Research aid only.'/>
    <tag k='note' v='Proposed: create OSM object and add as member of relation 5661086 (Tunsbergleden / Vestfoldveien). Do not modify existing members of relation 5661086 (Tunsbergleden / Vestfoldveien). Research aid only.'/>
  </node>
  <node id='-2' version='0' action='modify' visible='true' lat='59.3783077' lon='10.4655385'>
    <tag k='name' v='Borre Familie Camping'/>
    <tag k='source' v='pilegrimsleden.no'/>
    <tag k='url' v='https://www.pilegrimsleden.no/interessepunkter/borre-familie-camping'/>
    <tag k='network' v='Pilegrimsleden'/>
    <tag k='note:trail' v='Tunsbergleden'/>
    <tag k='pilegrimsleden:poi_type' v='Campingplass;Teltplass'/>
    <tag k='pilegrimsleden:id' v='450765'/>
    <tag k='tourism' v='camp_site'/>
      <tag k='note:osm_route_relation' v='5661086'/>
      <tag k='note:proposed' v='Proposed: add as member of relation 5661086 (Tunsbergleden / Vestfoldveien). Do not modify existing members of relation 5661086 (Tunsbergleden / Vestfoldveien). Research aid only. Existing OSM object: way/561884725.'/>
    <tag k='note' v='Proposed: add as member of relation 5661086 (Tunsbergleden / Vestfoldveien). Do not modify existing members of relation 5661086 (Tunsbergleden / Vestfoldveien). Research aid only. Existing OSM object: way/561884725.'/>
  </node>
  <node id='-3' version='0' action='modify' visible='true' lat='59.5329700' lon='10.2393100'>
    <tag k='name' v='Brannåsen'/>
    <tag k='source' v='pilegrimsleden.no'/>
    <tag k='url' v='https://www.pilegrimsleden.no/interessepunkter/brannasen'/>
    <tag k='network' v='Pilegrimsleden'/>
    <tag k='note:trail' v='Tunsbergleden'/>
    <tag k='pilegrimsleden:poi_type' v='Rom og hytter;Teltplass'/>
    <tag k='pilegrimsleden:id' v='496948'/>
    <tag k='tourism' v='chalet'/>
      <tag k='note:osm_route_relation' v='5661086'/>
      <tag k='note:proposed' v='Proposed: create OSM object and add as member of relation 5661086 (Tunsbergleden / Vestfoldveien). Do not modify existing members of relation 5661086 (Tunsbergleden / Vestfoldveien). Research aid only.'/>
    <tag k='note' v='Proposed: create OSM object and add as member of relation 5661086 (Tunsbergleden / Vestfoldveien). Do not modify existing members of relation 5661086 (Tunsbergleden / Vestfoldveien). Research aid only.'/>
  </node>
  <node id='-4' version='0' action='modify' visible='true' lat='59.9273939' lon='10.7668296'>
    <tag k='name' v='Bunks at Rode'/>
    <tag k='source' v='pilegrimsleden.no'/>
    <tag k='url' v='https://www.pilegrimsleden.no/interessepunkter/bunks-at-rode'/>
    <tag k='network' v='Pilegrimsleden'/>
    <tag k='note:trail' v='Tunsbergleden'/>
    <tag k='pilegrimsleden:poi_type' v='Pilegrimsherberge;Vandrerhjem'/>
    <tag k='pilegrimsleden:id' v='502061'/>
    <tag k='tourism' v='hostel'/>
    <tag k='hostel:type' v='pilgrim'/>
    <tag k='note:osm_mapping' v='uncertain OSM equivalent for category Pilegrimsherberge'/>
      <tag k='note:osm_route_relation' v='5661086'/>
      <tag k='note:proposed' v='Proposed: add as member of relation 5661086 (Tunsbergleden / Vestfoldveien). Do not modify existing members of relation 5661086 (Tunsbergleden / Vestfoldveien). Research aid only. Existing OSM object: node/2790244101.'/>
    <tag k='note' v='Proposed: add as member of relation 5661086 (Tunsbergleden / Vestfoldveien). Do not modify existing members of relation 5661086 (Tunsbergleden / Vestfoldveien). Research aid only. Existing OSM object: node/2790244101.'/>
  </node>
  <node id='-5' version='0' action='modify' visible='true' lat='59.1458796' lon='10.3125662'>
    <tag k='name' v='Engøy gjestegård'/>
    <tag k='source' v='pilegrimsleden.no'/>
    <tag k='url' v='https://www.pilegrimsleden.no/interessepunkter/engoy-gjestegard'/>
    <tag k='network' v='Pilegrimsleden'/>
    <tag k='note:trail' v='Tunsbergleden'/>
    <tag k='pilegrimsleden:poi_type' v='Pilegrimsherberge;Teltplass'/>
    <tag k='pilegrimsleden:id' v='150759'/>
    <tag k='tourism' v='hostel'/>
    <tag k='hostel:type' v='pilgrim'/>
    <tag k='note:osm_mapping' v='uncertain OSM equivalent for category Pilegrimsherberge'/>
      <tag k='note:osm_route_relation' v='5661086'/>
      <tag k='note:proposed' v='Proposed: create OSM object and add as member of relation 5661086 (Tunsbergleden / Vestfoldveien). Do not modify existing members of relation 5661086 (Tunsbergleden / Vestfoldveien). Research aid only.'/>
    <tag k='note' v='Proposed: create OSM object and add as member of relation 5661086 (Tunsbergleden / Vestfoldveien). Do not modify existing members of relation 5661086 (Tunsbergleden / Vestfoldveien). Research aid only.'/>
  </node>
  <node id='-6' version='0' action='modify' visible='true' lat='59.9238617' lon='10.6365279'>
    <tag k='name' v='Fuglesang herberge'/>
    <tag k='source' v='pilegrimsleden.no'/>
    <tag k='url' v='https://www.pilegrimsleden.no/interessepunkter/fuglesang-herberge-2'/>
    <tag k='network' v='Pilegrimsleden'/>
    <tag k='note:trail' v='Tunsbergleden'/>
    <tag k='pilegrimsleden:poi_type' v='Pilegrimsherberge'/>
    <tag k='pilegrimsleden:id' v='437859'/>
    <tag k='tourism' v='hostel'/>
    <tag k='hostel:type' v='pilgrim'/>
    <tag k='note:osm_mapping' v='uncertain OSM equivalent for category Pilegrimsherberge'/>
      <tag k='note:osm_route_relation' v='5661086'/>
      <tag k='note:proposed' v='Proposed: create OSM object and add as member of relation 5661086 (Tunsbergleden / Vestfoldveien). Do not modify existing members of relation 5661086 (Tunsbergleden / Vestfoldveien). Research aid only.'/>
    <tag k='note' v='Proposed: create OSM object and add as member of relation 5661086 (Tunsbergleden / Vestfoldveien). Do not modify existing members of relation 5661086 (Tunsbergleden / Vestfoldveien). Research aid only.'/>
  </node>
  <node id='-7' version='0' action='modify' visible='true' lat='59.8486197' lon='10.4462707'>
    <tag k='name' v='Gapahuk ved Solgården'/>
    <tag k='source' v='pilegrimsleden.no'/>
    <tag k='url' v='https://www.pilegrimsleden.no/interessepunkter/outdoor-shelter-by-solgarden'/>
    <tag k='network' v='Pilegrimsleden'/>
    <tag k='note:trail' v='Tunsbergleden'/>
    <tag k='pilegrimsleden:poi_type' v='Gapahuk'/>
    <tag k='pilegrimsleden:id' v='452355'/>
    <tag k='amenity' v='shelter'/>
    <tag k='shelter_type' v='lean_to'/>
      <tag k='note:osm_route_relation' v='5661086'/>
      <tag k='note:proposed' v='Proposed: add as member of relation 5661086 (Tunsbergleden / Vestfoldveien). Do not modify existing members of relation 5661086 (Tunsbergleden / Vestfoldveien). Research aid only. Existing OSM object: way/960805989.'/>
    <tag k='note' v='Proposed: add as member of relation 5661086 (Tunsbergleden / Vestfoldveien). Do not modify existing members of relation 5661086 (Tunsbergleden / Vestfoldveien). Research aid only. Existing OSM object: way/960805989.'/>
  </node>
  <node id='-8' version='0' action='modify' visible='true' lat='59.7649537' lon='10.3759217'>
    <tag k='name' v='Gapahuk ved Stordammen'/>
    <tag k='source' v='pilegrimsleden.no'/>
    <tag k='url' v='https://www.pilegrimsleden.no/interessepunkter/gapahuk-ved-stordammen'/>
    <tag k='network' v='Pilegrimsleden'/>
    <tag k='note:trail' v='Tunsbergleden'/>
    <tag k='pilegrimsleden:poi_type' v='Gapahuk'/>
    <tag k='pilegrimsleden:id' v='452369'/>
    <tag k='amenity' v='shelter'/>
    <tag k='shelter_type' v='lean_to'/>
      <tag k='note:osm_route_relation' v='5661086'/>
      <tag k='note:proposed' v='Proposed: create OSM object and add as member of relation 5661086 (Tunsbergleden / Vestfoldveien). Do not modify existing members of relation 5661086 (Tunsbergleden / Vestfoldveien). Research aid only.'/>
    <tag k='note' v='Proposed: create OSM object and add as member of relation 5661086 (Tunsbergleden / Vestfoldveien). Do not modify existing members of relation 5661086 (Tunsbergleden / Vestfoldveien). Research aid only.'/>
  </node>
  <node id='-9' version='0' action='modify' visible='true' lat='59.9338221' lon='10.5539131'>
    <tag k='name' v='Gardlaus Markastue og pilegrimsherberge'/>
    <tag k='source' v='pilegrimsleden.no'/>
    <tag k='url' v='https://www.pilegrimsleden.no/interessepunkter/garlaus-markastue-og-pilegrimsherberge'/>
    <tag k='network' v='Pilegrimsleden'/>
    <tag k='note:trail' v='Tunsbergleden'/>
    <tag k='pilegrimsleden:poi_type' v='Rom og hytter'/>
    <tag k='pilegrimsleden:id' v='8964'/>
    <tag k='tourism' v='chalet'/>
      <tag k='note:osm_route_relation' v='5661086'/>
      <tag k='note:proposed' v='Proposed: create OSM object and add as member of relation 5661086 (Tunsbergleden / Vestfoldveien). Do not modify existing members of relation 5661086 (Tunsbergleden / Vestfoldveien). Research aid only.'/>
    <tag k='note' v='Proposed: create OSM object and add as member of relation 5661086 (Tunsbergleden / Vestfoldveien). Do not modify existing members of relation 5661086 (Tunsbergleden / Vestfoldveien). Research aid only.'/>
  </node>
  <node id='-10' version='0' action='modify' visible='true' lat='59.0214358' lon='10.0719031'>
    <tag k='name' v='Gon Camping'/>
    <tag k='source' v='pilegrimsleden.no'/>
    <tag k='url' v='https://www.pilegrimsleden.no/interessepunkter/gon-camping'/>
    <tag k='network' v='Pilegrimsleden'/>
    <tag k='note:trail' v='Tunsbergleden'/>
    <tag k='pilegrimsleden:poi_type' v='Campingplass;Teltplass'/>
    <tag k='pilegrimsleden:id' v='522174'/>
    <tag k='tourism' v='camp_site'/>
      <tag k='note:osm_route_relation' v='5661086'/>
      <tag k='note:proposed' v='Proposed: add as member of relation 5661086 (Tunsbergleden / Vestfoldveien). Do not modify existing members of relation 5661086 (Tunsbergleden / Vestfoldveien). Research aid only. Existing OSM object: node/3663315018.'/>
    <tag k='note' v='Proposed: add as member of relation 5661086 (Tunsbergleden / Vestfoldveien). Do not modify existing members of relation 5661086 (Tunsbergleden / Vestfoldveien). Research aid only. Existing OSM object: node/3663315018.'/>
  </node>
  <node id='-11' version='0' action='modify' visible='true' lat='59.2378550' lon='10.3995218'>
    <tag k='name' v='Grillhytta på Labakken'/>
    <tag k='source' v='pilegrimsleden.no'/>
    <tag k='url' v='https://www.pilegrimsleden.no/interessepunkter/grillhytta-pa-labakken'/>
    <tag k='network' v='Pilegrimsleden'/>
    <tag k='note:trail' v='Tunsbergleden'/>
    <tag k='pilegrimsleden:poi_type' v='Gapahuk;Rasteplass'/>
    <tag k='pilegrimsleden:id' v='562970'/>
    <tag k='amenity' v='shelter'/>
    <tag k='shelter_type' v='lean_to'/>
      <tag k='note:osm_route_relation' v='5661086'/>
      <tag k='note:proposed' v='Proposed: add as member of relation 5661086 (Tunsbergleden / Vestfoldveien). Do not modify existing members of relation 5661086 (Tunsbergleden / Vestfoldveien). Research aid only. Existing OSM object: node/12204728472.'/>
    <tag k='note' v='Proposed: add as member of relation 5661086 (Tunsbergleden / Vestfoldveien). Do not modify existing members of relation 5661086 (Tunsbergleden / Vestfoldveien). Research aid only. Existing OSM object: node/12204728472.'/>
  </node>
  <node id='-12' version='0' action='modify' visible='true' lat='59.7542118' lon='10.1912597'>
    <tag k='name' v='Hamborgstrømpaviljongen'/>
    <tag k='source' v='pilegrimsleden.no'/>
    <tag k='url' v='https://www.pilegrimsleden.no/interessepunkter/hamborgstrompaviljongen'/>
    <tag k='network' v='Pilegrimsleden'/>
    <tag k='note:trail' v='Tunsbergleden'/>
    <tag k='pilegrimsleden:poi_type' v='Rom og hytter;Teltplass'/>
    <tag k='pilegrimsleden:id' v='498084'/>
    <tag k='tourism' v='chalet'/>
      <tag k='note:osm_route_relation' v='5661086'/>
      <tag k='note:proposed' v='Proposed: add as member of relation 5661086 (Tunsbergleden / Vestfoldveien). Do not modify existing members of relation 5661086 (Tunsbergleden / Vestfoldveien). Research aid only. Existing OSM object: node/9797299419.'/>
    <tag k='note' v='Proposed: add as member of relation 5661086 (Tunsbergleden / Vestfoldveien). Do not modify existing members of relation 5661086 (Tunsbergleden / Vestfoldveien). Research aid only. Existing OSM object: node/9797299419.'/>
  </node>
  <node id='-13' version='0' action='modify' visible='true' lat='59.4545863' lon='10.2478324'>
    <tag k='name' v='Kaupang gård'/>
    <tag k='source' v='pilegrimsleden.no'/>
    <tag k='url' v='https://www.pilegrimsleden.no/interessepunkter/kaupang-gard'/>
    <tag k='network' v='Pilegrimsleden'/>
    <tag k='note:trail' v='Tunsbergleden'/>
    <tag k='pilegrimsleden:poi_type' v='Pilegrimsherberge;Teltplass'/>
    <tag k='pilegrimsleden:id' v='358597'/>
    <tag k='tourism' v='hostel'/>
    <tag k='hostel:type' v='pilgrim'/>
    <tag k='note:osm_mapping' v='uncertain OSM equivalent for category Pilegrimsherberge'/>
      <tag k='note:osm_route_relation' v='5661086'/>
      <tag k='note:proposed' v='Proposed: create OSM object and add as member of relation 5661086 (Tunsbergleden / Vestfoldveien). Do not modify existing members of relation 5661086 (Tunsbergleden / Vestfoldveien). Research aid only.'/>
    <tag k='note' v='Proposed: create OSM object and add as member of relation 5661086 (Tunsbergleden / Vestfoldveien). Do not modify existing members of relation 5661086 (Tunsbergleden / Vestfoldveien). Research aid only.'/>
  </node>
  <node id='-14' version='0' action='modify' visible='true' lat='59.3830525' lon='10.4599826'>
    <tag k='name' v='Kirkebakken Borre - midlertidig stengt'/>
    <tag k='source' v='pilegrimsleden.no'/>
    <tag k='url' v='https://www.pilegrimsleden.no/interessepunkter/kirkebakken-borre'/>
    <tag k='network' v='Pilegrimsleden'/>
    <tag k='note:trail' v='Tunsbergleden'/>
    <tag k='pilegrimsleden:poi_type' v='Pilegrimsherberge'/>
    <tag k='pilegrimsleden:id' v='167342'/>
    <tag k='tourism' v='hostel'/>
    <tag k='hostel:type' v='pilgrim'/>
    <tag k='note:osm_mapping' v='uncertain OSM equivalent for category Pilegrimsherberge'/>
      <tag k='note:osm_route_relation' v='5661086'/>
      <tag k='note:proposed' v='Proposed: create OSM object and add as member of relation 5661086 (Tunsbergleden / Vestfoldveien). Do not modify existing members of relation 5661086 (Tunsbergleden / Vestfoldveien). Research aid only.'/>
    <tag k='note' v='Proposed: create OSM object and add as member of relation 5661086 (Tunsbergleden / Vestfoldveien). Do not modify existing members of relation 5661086 (Tunsbergleden / Vestfoldveien). Research aid only.'/>
  </node>
  <node id='-15' version='0' action='modify' visible='true' lat='59.1647995' lon='10.3601503'>
    <tag k='name' v='Kjølholmen på Veierland'/>
    <tag k='source' v='pilegrimsleden.no'/>
    <tag k='url' v='https://www.pilegrimsleden.no/interessepunkter/kjolholmen-pa-veierland'/>
    <tag k='network' v='Pilegrimsleden'/>
    <tag k='note:trail' v='Tunsbergleden'/>
    <tag k='pilegrimsleden:poi_type' v='Teltplass'/>
    <tag k='pilegrimsleden:id' v='451355'/>
    <tag k='tourism' v='camp_site'/>
    <tag k='tents' v='yes'/>
      <tag k='note:osm_route_relation' v='5661086'/>
      <tag k='note:proposed' v='Proposed: create OSM object and add as member of relation 5661086 (Tunsbergleden / Vestfoldveien). Do not modify existing members of relation 5661086 (Tunsbergleden / Vestfoldveien). Research aid only.'/>
    <tag k='note' v='Proposed: create OSM object and add as member of relation 5661086 (Tunsbergleden / Vestfoldveien). Do not modify existing members of relation 5661086 (Tunsbergleden / Vestfoldveien). Research aid only.'/>
  </node>
  <node id='-16' version='0' action='modify' visible='true' lat='59.4189000' lon='10.4392000'>
    <tag k='name' v='Knutserød ved Borrevannet'/>
    <tag k='source' v='pilegrimsleden.no'/>
    <tag k='url' v='https://www.pilegrimsleden.no/interessepunkter/knutserod-ved-borrevannet'/>
    <tag k='network' v='Pilegrimsleden'/>
    <tag k='note:trail' v='Tunsbergleden'/>
    <tag k='pilegrimsleden:poi_type' v='Gapahuk;Rasteplass'/>
    <tag k='pilegrimsleden:id' v='212641'/>
    <tag k='amenity' v='shelter'/>
    <tag k='shelter_type' v='lean_to'/>
      <tag k='note:osm_route_relation' v='5661086'/>
      <tag k='note:proposed' v='Proposed: add as member of relation 5661086 (Tunsbergleden / Vestfoldveien). Do not modify existing members of relation 5661086 (Tunsbergleden / Vestfoldveien). Research aid only. Existing OSM object: node/4341903601.'/>
    <tag k='note' v='Proposed: add as member of relation 5661086 (Tunsbergleden / Vestfoldveien). Do not modify existing members of relation 5661086 (Tunsbergleden / Vestfoldveien). Research aid only. Existing OSM object: node/4341903601.'/>
  </node>
  <node id='-17' version='0' action='modify' visible='true' lat='59.0200560' lon='10.0705830'>
    <tag k='name' v='Kystledhytta Gon'/>
    <tag k='source' v='pilegrimsleden.no'/>
    <tag k='url' v='https://www.pilegrimsleden.no/interessepunkter/kystledhytta-gon'/>
    <tag k='network' v='Pilegrimsleden'/>
    <tag k='note:trail' v='Tunsbergleden'/>
    <tag k='pilegrimsleden:poi_type' v='Rom og hytter'/>
    <tag k='pilegrimsleden:id' v='527325'/>
    <tag k='tourism' v='chalet'/>
      <tag k='note:osm_route_relation' v='5661086'/>
      <tag k='note:proposed' v='Proposed: add as member of relation 5661086 (Tunsbergleden / Vestfoldveien). Do not modify existing members of relation 5661086 (Tunsbergleden / Vestfoldveien). Research aid only. Existing OSM object: node/3663315018.'/>
    <tag k='note' v='Proposed: add as member of relation 5661086 (Tunsbergleden / Vestfoldveien). Do not modify existing members of relation 5661086 (Tunsbergleden / Vestfoldveien). Research aid only. Existing OSM object: node/3663315018.'/>
  </node>
  <node id='-18' version='0' action='modify' visible='true' lat='59.4454720' lon='10.4550560'>
    <tag k='name' v='Kystledhytta Løvøysund'/>
    <tag k='source' v='pilegrimsleden.no'/>
    <tag k='url' v='https://www.pilegrimsleden.no/interessepunkter/kystledhytta-lovoysund'/>
    <tag k='network' v='Pilegrimsleden'/>
    <tag k='note:trail' v='Tunsbergleden'/>
    <tag k='pilegrimsleden:poi_type' v='Rom og hytter'/>
    <tag k='pilegrimsleden:id' v='527413'/>
    <tag k='tourism' v='chalet'/>
      <tag k='note:osm_route_relation' v='5661086'/>
      <tag k='note:proposed' v='Proposed: add as member of relation 5661086 (Tunsbergleden / Vestfoldveien). Do not modify existing members of relation 5661086 (Tunsbergleden / Vestfoldveien). Research aid only. Existing OSM object: node/1356458508.'/>
    <tag k='note' v='Proposed: add as member of relation 5661086 (Tunsbergleden / Vestfoldveien). Do not modify existing members of relation 5661086 (Tunsbergleden / Vestfoldveien). Research aid only. Existing OSM object: node/1356458508.'/>
  </node>
  <node id='-19' version='0' action='modify' visible='true' lat='59.3891670' lon='10.4767220'>
    <tag k='name' v='Kystledhytta på Langgrunn'/>
    <tag k='source' v='pilegrimsleden.no'/>
    <tag k='url' v='https://www.pilegrimsleden.no/interessepunkter/kystledhytta-pa-langgrunn'/>
    <tag k='network' v='Pilegrimsleden'/>
    <tag k='note:trail' v='Tunsbergleden'/>
    <tag k='pilegrimsleden:poi_type' v='Rom og hytter'/>
    <tag k='pilegrimsleden:id' v='527491'/>
    <tag k='tourism' v='chalet'/>
      <tag k='note:osm_route_relation' v='5661086'/>
      <tag k='note:proposed' v='Proposed: add as member of relation 5661086 (Tunsbergleden / Vestfoldveien). Do not modify existing members of relation 5661086 (Tunsbergleden / Vestfoldveien). Research aid only. Existing OSM object: node/9833704334.'/>
    <tag k='note' v='Proposed: add as member of relation 5661086 (Tunsbergleden / Vestfoldveien). Do not modify existing members of relation 5661086 (Tunsbergleden / Vestfoldveien). Research aid only. Existing OSM object: node/9833704334.'/>
  </node>
  <node id='-20' version='0' action='modify' visible='true' lat='59.1733211' lon='10.3677163'>
    <tag k='name' v='Kystledhytta Søndre Tenvik'/>
    <tag k='source' v='pilegrimsleden.no'/>
    <tag k='url' v='https://www.pilegrimsleden.no/interessepunkter/kystledhytta-sondre-tenvik'/>
    <tag k='network' v='Pilegrimsleden'/>
    <tag k='note:trail' v='Tunsbergleden'/>
    <tag k='pilegrimsleden:poi_type' v='Rom og hytter'/>
    <tag k='pilegrimsleden:id' v='527381'/>
    <tag k='tourism' v='chalet'/>
      <tag k='note:osm_route_relation' v='5661086'/>
      <tag k='note:proposed' v='Proposed: add as member of relation 5661086 (Tunsbergleden / Vestfoldveien). Do not modify existing members of relation 5661086 (Tunsbergleden / Vestfoldveien). Research aid only. Existing OSM object: node/1356459151.'/>
    <tag k='note' v='Proposed: add as member of relation 5661086 (Tunsbergleden / Vestfoldveien). Do not modify existing members of relation 5661086 (Tunsbergleden / Vestfoldveien). Research aid only. Existing OSM object: node/1356459151.'/>
  </node>
  <node id='-21' version='0' action='modify' visible='true' lat='59.8712779' lon='10.7156181'>
    <tag k='name' v='Langøyene camping'/>
    <tag k='source' v='pilegrimsleden.no'/>
    <tag k='url' v='https://www.pilegrimsleden.no/interessepunkter/langoyene-camping'/>
    <tag k='network' v='Pilegrimsleden'/>
    <tag k='note:trail' v='Tunsbergleden'/>
    <tag k='pilegrimsleden:poi_type' v='Teltplass'/>
    <tag k='pilegrimsleden:id' v='340516'/>
    <tag k='tourism' v='camp_site'/>
    <tag k='tents' v='yes'/>
      <tag k='note:osm_route_relation' v='5661086'/>
      <tag k='note:proposed' v='Proposed: add as member of relation 5661086 (Tunsbergleden / Vestfoldveien). Do not modify existing members of relation 5661086 (Tunsbergleden / Vestfoldveien). Research aid only. Existing OSM object: way/1547711866.'/>
    <tag k='note' v='Proposed: add as member of relation 5661086 (Tunsbergleden / Vestfoldveien). Do not modify existing members of relation 5661086 (Tunsbergleden / Vestfoldveien). Research aid only. Existing OSM object: way/1547711866.'/>
  </node>
  <node id='-22' version='0' action='modify' visible='true' lat='59.8094600' lon='10.3752500'>
    <tag k='name' v='Lavvoen Biggen'/>
    <tag k='source' v='pilegrimsleden.no'/>
    <tag k='url' v='https://www.pilegrimsleden.no/interessepunkter/lavvoen-biggen'/>
    <tag k='network' v='Pilegrimsleden'/>
    <tag k='note:trail' v='Tunsbergleden'/>
    <tag k='pilegrimsleden:poi_type' v='Rasteplass'/>
    <tag k='pilegrimsleden:id' v='364931'/>
    <tag k='amenity' v='shelter'/>
    <tag k='shelter_type' v='lean_to'/>
    <tag k='note:osm_mapping' v='uncertain OSM equivalent for category Rasteplass'/>
      <tag k='note:osm_route_relation' v='5661086'/>
      <tag k='note:proposed' v='Proposed: create OSM object and add as member of relation 5661086 (Tunsbergleden / Vestfoldveien). Do not modify existing members of relation 5661086 (Tunsbergleden / Vestfoldveien). Research aid only.'/>
    <tag k='note' v='Proposed: create OSM object and add as member of relation 5661086 (Tunsbergleden / Vestfoldveien). Do not modify existing members of relation 5661086 (Tunsbergleden / Vestfoldveien). Research aid only.'/>
  </node>
  <node id='-23' version='0' action='modify' visible='true' lat='59.5465987' lon='10.2130151'>
    <tag k='name' v='Orebergvannet lavvo ved Veseterstulen'/>
    <tag k='source' v='pilegrimsleden.no'/>
    <tag k='url' v='https://www.pilegrimsleden.no/interessepunkter/orebergvannet-lavvo-ved-veseterstulen'/>
    <tag k='network' v='Pilegrimsleden'/>
    <tag k='note:trail' v='Tunsbergleden'/>
    <tag k='pilegrimsleden:poi_type' v='Rasteplass'/>
    <tag k='pilegrimsleden:id' v='205431'/>
    <tag k='amenity' v='shelter'/>
    <tag k='shelter_type' v='lean_to'/>
    <tag k='note:osm_mapping' v='uncertain OSM equivalent for category Rasteplass'/>
      <tag k='note:osm_route_relation' v='5661086'/>
      <tag k='note:proposed' v='Proposed: add as member of relation 5661086 (Tunsbergleden / Vestfoldveien). Do not modify existing members of relation 5661086 (Tunsbergleden / Vestfoldveien). Research aid only. Existing OSM object: way/896193087.'/>
    <tag k='note' v='Proposed: add as member of relation 5661086 (Tunsbergleden / Vestfoldveien). Do not modify existing members of relation 5661086 (Tunsbergleden / Vestfoldveien). Research aid only. Existing OSM object: way/896193087.'/>
  </node>
  <node id='-24' version='0' action='modify' visible='true' lat='59.4289637' lon='10.4461367'>
    <tag k='name' v='Orrfuglstua pilegrimsherberge'/>
    <tag k='source' v='pilegrimsleden.no'/>
    <tag k='url' v='https://www.pilegrimsleden.no/interessepunkter/orrfuglstua-pilegrimsherberge'/>
    <tag k='network' v='Pilegrimsleden'/>
    <tag k='note:trail' v='Tunsbergleden'/>
    <tag k='pilegrimsleden:poi_type' v='Pilegrimsherberge'/>
    <tag k='pilegrimsleden:id' v='470185'/>
    <tag k='tourism' v='hostel'/>
    <tag k='hostel:type' v='pilgrim'/>
    <tag k='note:osm_mapping' v='uncertain OSM equivalent for category Pilegrimsherberge'/>
      <tag k='note:osm_route_relation' v='5661086'/>
      <tag k='note:proposed' v='Proposed: create OSM object and add as member of relation 5661086 (Tunsbergleden / Vestfoldveien). Do not modify existing members of relation 5661086 (Tunsbergleden / Vestfoldveien). Research aid only.'/>
    <tag k='note' v='Proposed: create OSM object and add as member of relation 5661086 (Tunsbergleden / Vestfoldveien). Do not modify existing members of relation 5661086 (Tunsbergleden / Vestfoldveien). Research aid only.'/>
  </node>
  <node id='-25' version='0' action='modify' visible='true' lat='59.2778261' lon='10.4416313'>
    <tag k='name' v='Poppel pilegrimsherberge'/>
    <tag k='source' v='pilegrimsleden.no'/>
    <tag k='url' v='https://www.pilegrimsleden.no/interessepunkter/poppel-pilegrimsherberge'/>
    <tag k='network' v='Pilegrimsleden'/>
    <tag k='note:trail' v='Tunsbergleden'/>
    <tag k='pilegrimsleden:poi_type' v='Pilegrimsherberge'/>
    <tag k='pilegrimsleden:id' v='467654'/>
    <tag k='tourism' v='hostel'/>
    <tag k='hostel:type' v='pilgrim'/>
    <tag k='note:osm_mapping' v='uncertain OSM equivalent for category Pilegrimsherberge'/>
      <tag k='note:osm_route_relation' v='5661086'/>
      <tag k='note:proposed' v='Proposed: create OSM object and add as member of relation 5661086 (Tunsbergleden / Vestfoldveien). Do not modify existing members of relation 5661086 (Tunsbergleden / Vestfoldveien). Research aid only.'/>
    <tag k='note' v='Proposed: create OSM object and add as member of relation 5661086 (Tunsbergleden / Vestfoldveien). Do not modify existing members of relation 5661086 (Tunsbergleden / Vestfoldveien). Research aid only.'/>
  </node>
  <node id='-26' version='0' action='modify' visible='true' lat='59.1341390' lon='10.2393160'>
    <tag k='name' v='Preståsen pilegrimsherberge'/>
    <tag k='source' v='pilegrimsleden.no'/>
    <tag k='url' v='https://www.pilegrimsleden.no/interessepunkter/sunny-place'/>
    <tag k='network' v='Pilegrimsleden'/>
    <tag k='note:trail' v='Tunsbergleden'/>
    <tag k='pilegrimsleden:poi_type' v='Pilegrimsherberge'/>
    <tag k='pilegrimsleden:id' v='193096'/>
    <tag k='tourism' v='hostel'/>
    <tag k='hostel:type' v='pilgrim'/>
    <tag k='note:osm_mapping' v='uncertain OSM equivalent for category Pilegrimsherberge'/>
      <tag k='note:osm_route_relation' v='5661086'/>
      <tag k='note:proposed' v='Proposed: create OSM object and add as member of relation 5661086 (Tunsbergleden / Vestfoldveien). Do not modify existing members of relation 5661086 (Tunsbergleden / Vestfoldveien). Research aid only.'/>
    <tag k='note' v='Proposed: create OSM object and add as member of relation 5661086 (Tunsbergleden / Vestfoldveien). Do not modify existing members of relation 5661086 (Tunsbergleden / Vestfoldveien). Research aid only.'/>
  </node>
  <node id='-27' version='0' action='modify' visible='true' lat='59.7465420' lon='10.3882478'>
    <tag k='name' v='Røyken Menighetshus'/>
    <tag k='source' v='pilegrimsleden.no'/>
    <tag k='url' v='https://www.pilegrimsleden.no/interessepunkter/royken-menighetshus'/>
    <tag k='network' v='Pilegrimsleden'/>
    <tag k='note:trail' v='Tunsbergleden'/>
    <tag k='pilegrimsleden:poi_type' v='Pilegrimsherberge'/>
    <tag k='pilegrimsleden:id' v='366094'/>
    <tag k='tourism' v='hostel'/>
    <tag k='hostel:type' v='pilgrim'/>
    <tag k='note:osm_mapping' v='uncertain OSM equivalent for category Pilegrimsherberge'/>
      <tag k='note:osm_route_relation' v='5661086'/>
      <tag k='note:proposed' v='Proposed: create OSM object and add as member of relation 5661086 (Tunsbergleden / Vestfoldveien). Do not modify existing members of relation 5661086 (Tunsbergleden / Vestfoldveien). Research aid only.'/>
    <tag k='note' v='Proposed: create OSM object and add as member of relation 5661086 (Tunsbergleden / Vestfoldveien). Do not modify existing members of relation 5661086 (Tunsbergleden / Vestfoldveien). Research aid only.'/>
  </node>
  <node id='-28' version='0' action='modify' visible='true' lat='59.5907643' lon='10.2088204'>
    <tag k='name' v='Sande overnatting'/>
    <tag k='source' v='pilegrimsleden.no'/>
    <tag k='url' v='https://www.pilegrimsleden.no/interessepunkter/sande-overnatting'/>
    <tag k='network' v='Pilegrimsleden'/>
    <tag k='note:trail' v='Tunsbergleden'/>
    <tag k='pilegrimsleden:poi_type' v='Pilegrimsherberge'/>
    <tag k='pilegrimsleden:id' v='526551'/>
    <tag k='tourism' v='hostel'/>
    <tag k='hostel:type' v='pilgrim'/>
    <tag k='note:osm_mapping' v='uncertain OSM equivalent for category Pilegrimsherberge'/>
      <tag k='note:osm_route_relation' v='5661086'/>
      <tag k='note:proposed' v='Proposed: create OSM object and add as member of relation 5661086 (Tunsbergleden / Vestfoldveien). Do not modify existing members of relation 5661086 (Tunsbergleden / Vestfoldveien). Research aid only.'/>
    <tag k='note' v='Proposed: create OSM object and add as member of relation 5661086 (Tunsbergleden / Vestfoldveien). Do not modify existing members of relation 5661086 (Tunsbergleden / Vestfoldveien). Research aid only.'/>
  </node>
  <node id='-29' version='0' action='modify' visible='true' lat='59.7862200' lon='10.3764400'>
    <tag k='name' v='Småvannsbu'/>
    <tag k='source' v='pilegrimsleden.no'/>
    <tag k='url' v='https://www.pilegrimsleden.no/interessepunkter/smavannsbu'/>
    <tag k='network' v='Pilegrimsleden'/>
    <tag k='note:trail' v='Tunsbergleden'/>
    <tag k='pilegrimsleden:poi_type' v='Rom og hytter;Teltplass'/>
    <tag k='pilegrimsleden:id' v='365350'/>
    <tag k='tourism' v='chalet'/>
      <tag k='note:osm_route_relation' v='5661086'/>
      <tag k='note:proposed' v='Proposed: add as member of relation 5661086 (Tunsbergleden / Vestfoldveien). Do not modify existing members of relation 5661086 (Tunsbergleden / Vestfoldveien). Research aid only. Existing OSM object: node/343508885.'/>
    <tag k='note' v='Proposed: add as member of relation 5661086 (Tunsbergleden / Vestfoldveien). Do not modify existing members of relation 5661086 (Tunsbergleden / Vestfoldveien). Research aid only. Existing OSM object: node/343508885.'/>
  </node>
  <node id='-30' version='0' action='modify' visible='true' lat='59.5351110' lon='10.2255638'>
    <tag k='name' v='Tyristua'/>
    <tag k='source' v='pilegrimsleden.no'/>
    <tag k='url' v='https://www.pilegrimsleden.no/interessepunkter/tyristua'/>
    <tag k='network' v='Pilegrimsleden'/>
    <tag k='note:trail' v='Tunsbergleden'/>
    <tag k='pilegrimsleden:poi_type' v='Rom og hytter;Teltplass'/>
    <tag k='pilegrimsleden:id' v='496874'/>
    <tag k='tourism' v='chalet'/>
      <tag k='note:osm_route_relation' v='5661086'/>
      <tag k='note:proposed' v='Proposed: create OSM object and add as member of relation 5661086 (Tunsbergleden / Vestfoldveien). Do not modify existing members of relation 5661086 (Tunsbergleden / Vestfoldveien). Research aid only.'/>
    <tag k='note' v='Proposed: create OSM object and add as member of relation 5661086 (Tunsbergleden / Vestfoldveien). Do not modify existing members of relation 5661086 (Tunsbergleden / Vestfoldveien). Research aid only.'/>
  </node>
  <node id='-31' version='0' action='modify' visible='true' lat='59.1574859' lon='10.3536489'>
    <tag k='name' v='Veierland skole'/>
    <tag k='source' v='pilegrimsleden.no'/>
    <tag k='url' v='https://www.pilegrimsleden.no/interessepunkter/veierland-skole'/>
    <tag k='network' v='Pilegrimsleden'/>
    <tag k='note:trail' v='Tunsbergleden'/>
    <tag k='pilegrimsleden:poi_type' v='Rom og hytter'/>
    <tag k='pilegrimsleden:id' v='527447'/>
    <tag k='tourism' v='chalet'/>
      <tag k='note:osm_route_relation' v='5661086'/>
      <tag k='note:proposed' v='Proposed: create OSM object and add as member of relation 5661086 (Tunsbergleden / Vestfoldveien). Do not modify existing members of relation 5661086 (Tunsbergleden / Vestfoldveien). Research aid only.'/>
    <tag k='note' v='Proposed: create OSM object and add as member of relation 5661086 (Tunsbergleden / Vestfoldveien). Do not modify existing members of relation 5661086 (Tunsbergleden / Vestfoldveien). Research aid only.'/>
  </node>
  <node id='-32' version='0' action='modify' visible='true' lat='59.8094466' lon='10.4196783'>
    <tag k='name' v='Wentzelhytta'/>
    <tag k='source' v='pilegrimsleden.no'/>
    <tag k='url' v='https://www.pilegrimsleden.no/interessepunkter/wentzelhytta'/>
    <tag k='network' v='Pilegrimsleden'/>
    <tag k='note:trail' v='Tunsbergleden'/>
    <tag k='pilegrimsleden:poi_type' v='Rom og hytter'/>
    <tag k='pilegrimsleden:id' v='382291'/>
    <tag k='tourism' v='chalet'/>
      <tag k='note:osm_route_relation' v='5661086'/>
      <tag k='note:proposed' v='Proposed: add as member of relation 5661086 (Tunsbergleden / Vestfoldveien). Do not modify existing members of relation 5661086 (Tunsbergleden / Vestfoldveien). Research aid only. Existing OSM object: node/9810716523.'/>
    <tag k='note' v='Proposed: add as member of relation 5661086 (Tunsbergleden / Vestfoldveien). Do not modify existing members of relation 5661086 (Tunsbergleden / Vestfoldveien). Research aid only. Existing OSM object: node/9810716523.'/>
  </node>
  <node id='-33' version='0' action='modify' visible='true' lat='59.9221295' lon='10.8198166'>
    <tag k='name' v='Østre Aker pilegrimsherberge'/>
    <tag k='source' v='pilegrimsleden.no'/>
    <tag k='url' v='https://www.pilegrimsleden.no/interessepunkter/ostre-aker-herberge'/>
    <tag k='network' v='Pilegrimsleden'/>
    <tag k='note:trail' v='Tunsbergleden'/>
    <tag k='pilegrimsleden:poi_type' v='Pilegrimsherberge'/>
    <tag k='pilegrimsleden:id' v='437879'/>
    <tag k='tourism' v='hostel'/>
    <tag k='hostel:type' v='pilgrim'/>
    <tag k='note:osm_mapping' v='uncertain OSM equivalent for category Pilegrimsherberge'/>
      <tag k='note:osm_route_relation' v='5661086'/>
      <tag k='note:proposed' v='Proposed: create OSM object and add as member of relation 5661086 (Tunsbergleden / Vestfoldveien). Do not modify existing members of relation 5661086 (Tunsbergleden / Vestfoldveien). Research aid only.'/>
    <tag k='note' v='Proposed: create OSM object and add as member of relation 5661086 (Tunsbergleden / Vestfoldveien). Do not modify existing members of relation 5661086 (Tunsbergleden / Vestfoldveien). Research aid only.'/>
  </node>
  <relation id='-34' version='0' action='modify' visible='true'>
    <member type='node' ref='-1' role='shelter'/>
    <member type='node' ref='-2' role='shelter'/>
    <member type='node' ref='-3' role='shelter'/>
    <member type='node' ref='-4' role='shelter'/>
    <member type='node' ref='-5' role='shelter'/>
    <member type='node' ref='-6' role='shelter'/>
    <member type='node' ref='-7' role='shelter'/>
    <member type='node' ref='-8' role='shelter'/>
    <member type='node' ref='-9' role='shelter'/>
    <member type='node' ref='-10' role='shelter'/>
    <member type='node' ref='-11' role='shelter'/>
    <member type='node' ref='-12' role='shelter'/>
    <member type='node' ref='-13' role='shelter'/>
    <member type='node' ref='-14' role='shelter'/>
    <member type='node' ref='-15' role='shelter'/>
    <member type='node' ref='-16' role='shelter'/>
    <member type='node' ref='-17' role='shelter'/>
    <member type='node' ref='-18' role='shelter'/>
    <member type='node' ref='-19' role='shelter'/>
    <member type='node' ref='-20' role='shelter'/>
    <member type='node' ref='-21' role='shelter'/>
    <member type='node' ref='-22' role='shelter'/>
    <member type='node' ref='-23' role='shelter'/>
    <member type='node' ref='-24' role='shelter'/>
    <member type='node' ref='-25' role='shelter'/>
    <member type='node' ref='-26' role='shelter'/>
    <member type='node' ref='-27' role='shelter'/>
    <member type='node' ref='-28' role='shelter'/>
    <member type='node' ref='-29' role='shelter'/>
    <member type='node' ref='-30' role='shelter'/>
    <member type='node' ref='-31' role='shelter'/>
    <member type='node' ref='-32' role='shelter'/>
    <member type='node' ref='-33' role='shelter'/>
    <tag k='type' v='site'/>
    <tag k='name' v='Tunsbergleden overnight POIs'/>
    <tag k='network' v='Pilegrimsleden'/>
    <tag k='note:trail' v='Tunsbergleden'/>
    <tag k='note' v='Local JOSM research relation grouping overnight POIs for this trail; not an OSM import'/>
    <tag k='note:osm_route_relation' v='5661086'/>
    <tag k='source' v='openstreetmap.org/relation/5661086'/>
  </relation>
</osm>
