<?xml version="1.0" encoding="UTF-8"?>
<gpx version="1.1" creator="pilegrimsleden-osm-extractor 1.0" xmlns="http://www.topografix.com/GPX/1/1">
  <trk><name>Laestadiusleden</name><trkseg>
    <trkpt lat="67.7655640" lon="22.3432580"></trkpt>
    <trkpt lat="67.7656360" lon="22.3431660"></trkpt>
    <trkpt lat="67.7660255" lon="22.3425635"></trkpt>
    <trkpt lat="67.7664150" lon="22.3419610"></trkpt>
    <trkpt lat="67.7660557" lon="22.3405983"></trkpt>
    <trkpt lat="67.7656963" lon="22.3392357"></trkpt>
    <trkpt lat="67.7653370" lon="22.3378730"></trkpt>
    <trkpt lat="67.7649855" lon="22.3365415"></trkpt>
    <trkpt lat="67.7646340" lon="22.3352100"></trkpt>
    <trkpt lat="67.7642420" lon="22.3336500"></trkpt>
    <trkpt lat="67.7637893" lon="22.3319191"></trkpt>
    <trkpt lat="67.7633366" lon="22.3301883"></trkpt>
    <trkpt lat="67.7628839" lon="22.3284574"></trkpt>
    <trkpt lat="67.7624311" lon="22.3267266"></trkpt>
    <trkpt lat="67.7619784" lon="22.3249957"></trkpt>
    <trkpt lat="67.7615257" lon="22.3232649"></trkpt>
    <trkpt lat="67.7610730" lon="22.3215340"></trkpt>
    <trkpt lat="67.7608960" lon="22.3208540"></trkpt>
    <trkpt lat="67.7604245" lon="22.3190655"></trkpt>
    <trkpt lat="67.7599530" lon="22.3172770"></trkpt>
    <trkpt lat="67.7594815" lon="22.3154885"></trkpt>
    <trkpt lat="67.7590100" lon="22.3137000"></trkpt>
    <trkpt lat="67.7585244" lon="22.3118578"></trkpt>
    <trkpt lat="67.7580387" lon="22.3100156"></trkpt>
    <trkpt lat="67.7575531" lon="22.3081734"></trkpt>
    <trkpt lat="67.7570675" lon="22.3063312"></trkpt>
    <trkpt lat="67.7565819" lon="22.3044891"></trkpt>
    <trkpt lat="67.7560962" lon="22.3026469"></trkpt>
    <trkpt lat="67.7556106" lon="22.3008047"></trkpt>
    <trkpt lat="67.7551250" lon="22.2989625"></trkpt>
    <trkpt lat="67.7546394" lon="22.2971203"></trkpt>
    <trkpt lat="67.7541538" lon="22.2952781"></trkpt>
    <trkpt lat="67.7536681" lon="22.2934359"></trkpt>
    <trkpt lat="67.7531825" lon="22.2915938"></trkpt>
    <trkpt lat="67.7526969" lon="22.2897516"></trkpt>
    <trkpt lat="67.7522113" lon="22.2879094"></trkpt>
    <trkpt lat="67.7517256" lon="22.2860672"></trkpt>
    <trkpt lat="67.7512400" lon="22.2842250"></trkpt>
    <trkpt lat="67.7507005" lon="22.2823297"></trkpt>
    <trkpt lat="67.7501610" lon="22.2804345"></trkpt>
    <trkpt lat="67.7496215" lon="22.2785393"></trkpt>
    <trkpt lat="67.7490820" lon="22.2766440"></trkpt>
    <trkpt lat="67.7486567" lon="22.2754867"></trkpt>
    <trkpt lat="67.7482313" lon="22.2743293"></trkpt>
    <trkpt lat="67.7478060" lon="22.2731720"></trkpt>
    <trkpt lat="67.7471825" lon="22.2714760"></trkpt>
    <trkpt lat="67.7465590" lon="22.2697800"></trkpt>
    <trkpt lat="67.7460033" lon="22.2685073"></trkpt>
    <trkpt lat="67.7454477" lon="22.2672347"></trkpt>
    <trkpt lat="67.7448920" lon="22.2659620"></trkpt>
    <trkpt lat="67.7441863" lon="22.2648727"></trkpt>
    <trkpt lat="67.7434807" lon="22.2637833"></trkpt>
    <trkpt lat="67.7427750" lon="22.2626940"></trkpt>
    <trkpt lat="67.7420467" lon="22.2618933"></trkpt>
    <trkpt lat="67.7413183" lon="22.2610927"></trkpt>
    <trkpt lat="67.7405900" lon="22.2602920"></trkpt>
    <trkpt lat="67.7398093" lon="22.2599287"></trkpt>
    <trkpt lat="67.7390287" lon="22.2595653"></trkpt>
    <trkpt lat="67.7382480" lon="22.2592020"></trkpt>
    <trkpt lat="67.7375058" lon="22.2591868"></trkpt>
    <trkpt lat="67.7367636" lon="22.2591716"></trkpt>
    <trkpt lat="67.7360214" lon="22.2591564"></trkpt>
    <trkpt lat="67.7352792" lon="22.2591412"></trkpt>
    <trkpt lat="67.7345370" lon="22.2591260"></trkpt>
    <trkpt lat="67.7341190" lon="22.2589530"></trkpt>
    <trkpt lat="67.7334908" lon="22.2582358"></trkpt>
    <trkpt lat="67.7328625" lon="22.2575185"></trkpt>
    <trkpt lat="67.7322343" lon="22.2568013"></trkpt>
    <trkpt lat="67.7316060" lon="22.2560840"></trkpt>
    <trkpt lat="67.7307673" lon="22.2553430"></trkpt>
    <trkpt lat="67.7299287" lon="22.2546020"></trkpt>
    <trkpt lat="67.7290900" lon="22.2538610"></trkpt>
    <trkpt lat="67.7284713" lon="22.2532277"></trkpt>
    <trkpt lat="67.7278527" lon="22.2525943"></trkpt>
    <trkpt lat="67.7272340" lon="22.2519610"></trkpt>
    <trkpt lat="67.7268090" lon="22.2510750"></trkpt>
    <trkpt lat="67.7263840" lon="22.2501890"></trkpt>
    <trkpt lat="67.7262780" lon="22.2498520"></trkpt>
    <trkpt lat="67.7258910" lon="22.2477830"></trkpt>
    <trkpt lat="67.7255040" lon="22.2457140"></trkpt>
    <trkpt lat="67.7251170" lon="22.2436450"></trkpt>
    <trkpt lat="67.7249185" lon="22.2421855"></trkpt>
    <trkpt lat="67.7247200" lon="22.2407260"></trkpt>
    <trkpt lat="67.7247110" lon="22.2402370"></trkpt>
    <trkpt lat="67.7247395" lon="22.2382890"></trkpt>
    <trkpt lat="67.7247680" lon="22.2363410"></trkpt>
    <trkpt lat="67.7245280" lon="22.2342157"></trkpt>
    <trkpt lat="67.7242880" lon="22.2320903"></trkpt>
    <trkpt lat="67.7240480" lon="22.2299650"></trkpt>
    <trkpt lat="67.7240240" lon="22.2295240"></trkpt>
    <trkpt lat="67.7240800" lon="22.2286850"></trkpt>
    <trkpt lat="67.7241190" lon="22.2283970"></trkpt>
    <trkpt lat="67.7241900" lon="22.2278700"></trkpt>
    <trkpt lat="67.7243965" lon="22.2260405"></trkpt>
    <trkpt lat="67.7246030" lon="22.2242110"></trkpt>
    <trkpt lat="67.7247775" lon="22.2219935"></trkpt>
    <trkpt lat="67.7249520" lon="22.2197760"></trkpt>
    <trkpt lat="67.7250455" lon="22.2178610"></trkpt>
    <trkpt lat="67.7251390" lon="22.2159460"></trkpt>
    <trkpt lat="67.7252210" lon="22.2142790"></trkpt>
    <trkpt lat="67.7251577" lon="22.2119886"></trkpt>
    <trkpt lat="67.7250944" lon="22.2096981"></trkpt>
    <trkpt lat="67.7250311" lon="22.2074077"></trkpt>
    <trkpt lat="67.7249679" lon="22.2051173"></trkpt>
    <trkpt lat="67.7249046" lon="22.2028269"></trkpt>
    <trkpt lat="67.7248413" lon="22.2005364"></trkpt>
    <trkpt lat="67.7247780" lon="22.1982460"></trkpt>
    <trkpt lat="67.7247120" lon="22.1960698"></trkpt>
    <trkpt lat="67.7246460" lon="22.1938936"></trkpt>
    <trkpt lat="67.7245800" lon="22.1917174"></trkpt>
    <trkpt lat="67.7245140" lon="22.1895412"></trkpt>
    <trkpt lat="67.7244480" lon="22.1873650"></trkpt>
    <trkpt lat="67.7244662" lon="22.1850543"></trkpt>
    <trkpt lat="67.7244845" lon="22.1827435"></trkpt>
    <trkpt lat="67.7245027" lon="22.1804327"></trkpt>
    <trkpt lat="67.7245210" lon="22.1781220"></trkpt>
    <trkpt lat="67.7245913" lon="22.1757680"></trkpt>
    <trkpt lat="67.7246617" lon="22.1734140"></trkpt>
    <trkpt lat="67.7247320" lon="22.1710600"></trkpt>
    <trkpt lat="67.7247420" lon="22.1707330"></trkpt>
    <trkpt lat="67.7246637" lon="22.1691553"></trkpt>
    <trkpt lat="67.7245853" lon="22.1675777"></trkpt>
    <trkpt lat="67.7245070" lon="22.1660000"></trkpt>
    <trkpt lat="67.7244153" lon="22.1638210"></trkpt>
    <trkpt lat="67.7243237" lon="22.1616420"></trkpt>
    <trkpt lat="67.7242320" lon="22.1594630"></trkpt>
    <trkpt lat="67.7244237" lon="22.1574008"></trkpt>
    <trkpt lat="67.7246155" lon="22.1553385"></trkpt>
    <trkpt lat="67.7248072" lon="22.1532762"></trkpt>
    <trkpt lat="67.7249990" lon="22.1512140"></trkpt>
    <trkpt lat="67.7251100" lon="22.1495120"></trkpt>
    <trkpt lat="67.7252210" lon="22.1478100"></trkpt>
    <trkpt lat="67.7250910" lon="22.1459157"></trkpt>
    <trkpt lat="67.7249610" lon="22.1440213"></trkpt>
    <trkpt lat="67.7248310" lon="22.1421270"></trkpt>
    <trkpt lat="67.7248233" lon="22.1399357"></trkpt>
    <trkpt lat="67.7248155" lon="22.1377445"></trkpt>
    <trkpt lat="67.7248078" lon="22.1355532"></trkpt>
    <trkpt lat="67.7248001" lon="22.1333619"></trkpt>
    <trkpt lat="67.7247924" lon="22.1311706"></trkpt>
    <trkpt lat="67.7247846" lon="22.1289794"></trkpt>
    <trkpt lat="67.7247769" lon="22.1267881"></trkpt>
    <trkpt lat="67.7247692" lon="22.1245968"></trkpt>
    <trkpt lat="67.7247615" lon="22.1224055"></trkpt>
    <trkpt lat="67.7247537" lon="22.1202143"></trkpt>
    <trkpt lat="67.7247460" lon="22.1180230"></trkpt>
    <trkpt lat="67.7247400" lon="22.1162635"></trkpt>
    <trkpt lat="67.7247340" lon="22.1145040"></trkpt>
    <trkpt lat="67.7246680" lon="22.1124570"></trkpt>
    <trkpt lat="67.7246655" lon="22.1109525"></trkpt>
    <trkpt lat="67.7246630" lon="22.1094480"></trkpt>
    <trkpt lat="67.7247270" lon="22.1071885"></trkpt>
    <trkpt lat="67.7247910" lon="22.1049290"></trkpt>
    <trkpt lat="67.7247360" lon="22.1040660"></trkpt>
    <trkpt lat="67.7243390" lon="22.1027680"></trkpt>
    <trkpt lat="67.7238720" lon="22.1016325"></trkpt>
    <trkpt lat="67.7234050" lon="22.1004970"></trkpt>
    <trkpt lat="67.7228440" lon="22.0994760"></trkpt>
    <trkpt lat="67.7222830" lon="22.0984550"></trkpt>
    <trkpt lat="67.7217220" lon="22.0974340"></trkpt>
    <trkpt lat="67.7211610" lon="22.0964130"></trkpt>
    <trkpt lat="67.7206985" lon="22.0952715"></trkpt>
    <trkpt lat="67.7202360" lon="22.0941300"></trkpt>
    <trkpt lat="67.7197400" lon="22.0925110"></trkpt>
    <trkpt lat="67.7189452" lon="22.0914886"></trkpt>
    <trkpt lat="67.7181504" lon="22.0904662"></trkpt>
    <trkpt lat="67.7173556" lon="22.0894438"></trkpt>
    <trkpt lat="67.7165608" lon="22.0884214"></trkpt>
    <trkpt lat="67.7157660" lon="22.0873990"></trkpt>
    <trkpt lat="67.7149765" lon="22.0864189"></trkpt>
    <trkpt lat="67.7141870" lon="22.0854388"></trkpt>
    <trkpt lat="67.7133975" lon="22.0844586"></trkpt>
    <trkpt lat="67.7126080" lon="22.0834785"></trkpt>
    <trkpt lat="67.7118185" lon="22.0824984"></trkpt>
    <trkpt lat="67.7110290" lon="22.0815182"></trkpt>
    <trkpt lat="67.7102395" lon="22.0805381"></trkpt>
    <trkpt lat="67.7094500" lon="22.0795580"></trkpt>
    <trkpt lat="67.7087843" lon="22.0787437"></trkpt>
    <trkpt lat="67.7081187" lon="22.0779293"></trkpt>
    <trkpt lat="67.7074530" lon="22.0771150"></trkpt>
    <trkpt lat="67.7066860" lon="22.0761767"></trkpt>
    <trkpt lat="67.7059190" lon="22.0752383"></trkpt>
    <trkpt lat="67.7051520" lon="22.0743000"></trkpt>
    <trkpt lat="67.7043850" lon="22.0733617"></trkpt>
    <trkpt lat="67.7036180" lon="22.0724233"></trkpt>
    <trkpt lat="67.7028510" lon="22.0714850"></trkpt>
    <trkpt lat="67.7022224" lon="22.0705500"></trkpt>
    <trkpt lat="67.7015938" lon="22.0696150"></trkpt>
    <trkpt lat="67.7009652" lon="22.0686800"></trkpt>
    <trkpt lat="67.7003366" lon="22.0677450"></trkpt>
    <trkpt lat="67.6997080" lon="22.0668100"></trkpt>
    <trkpt lat="67.6991995" lon="22.0663035"></trkpt>
    <trkpt lat="67.6986910" lon="22.0657970"></trkpt>
    <trkpt lat="67.6982570" lon="22.0653085"></trkpt>
    <trkpt lat="67.6978230" lon="22.0648200"></trkpt>
    <trkpt lat="67.6973115" lon="22.0642745"></trkpt>
    <trkpt lat="67.6968000" lon="22.0637290"></trkpt>
    <trkpt lat="67.6962620" lon="22.0631430"></trkpt>
    <trkpt lat="67.6957240" lon="22.0625570"></trkpt>
    <trkpt lat="67.6955670" lon="22.0623720"></trkpt>
    <trkpt lat="67.6948790" lon="22.0613070"></trkpt>
    <trkpt lat="67.6944330" lon="22.0599580"></trkpt>
    <trkpt lat="67.6940340" lon="22.0585028"></trkpt>
    <trkpt lat="67.6936350" lon="22.0570475"></trkpt>
    <trkpt lat="67.6932360" lon="22.0555923"></trkpt>
    <trkpt lat="67.6928370" lon="22.0541370"></trkpt>
    <trkpt lat="67.6923970" lon="22.0533570"></trkpt>
    <trkpt lat="67.6916812" lon="22.0520490"></trkpt>
    <trkpt lat="67.6909654" lon="22.0507410"></trkpt>
    <trkpt lat="67.6902497" lon="22.0494330"></trkpt>
    <trkpt lat="67.6895339" lon="22.0481250"></trkpt>
    <trkpt lat="67.6888181" lon="22.0468170"></trkpt>
    <trkpt lat="67.6881023" lon="22.0455090"></trkpt>
    <trkpt lat="67.6873866" lon="22.0442010"></trkpt>
    <trkpt lat="67.6866708" lon="22.0428930"></trkpt>
    <trkpt lat="67.6859550" lon="22.0415850"></trkpt>
    <trkpt lat="67.6853650" lon="22.0405070"></trkpt>
    <trkpt lat="67.6847750" lon="22.0394290"></trkpt>
    <trkpt lat="67.6841000" lon="22.0383653"></trkpt>
    <trkpt lat="67.6834250" lon="22.0373017"></trkpt>
    <trkpt lat="67.6827500" lon="22.0362380"></trkpt>
    <trkpt lat="67.6821747" lon="22.0355570"></trkpt>
    <trkpt lat="67.6815993" lon="22.0348760"></trkpt>
    <trkpt lat="67.6810240" lon="22.0341950"></trkpt>
    <trkpt lat="67.6806890" lon="22.0337990"></trkpt>
    <trkpt lat="67.6799026" lon="22.0330518"></trkpt>
    <trkpt lat="67.6791162" lon="22.0323046"></trkpt>
    <trkpt lat="67.6783298" lon="22.0315574"></trkpt>
    <trkpt lat="67.6775434" lon="22.0308102"></trkpt>
    <trkpt lat="67.6767570" lon="22.0300630"></trkpt>
    <trkpt lat="67.6760686" lon="22.0294760"></trkpt>
    <trkpt lat="67.6753802" lon="22.0288890"></trkpt>
    <trkpt lat="67.6746918" lon="22.0283020"></trkpt>
    <trkpt lat="67.6740034" lon="22.0277150"></trkpt>
    <trkpt lat="67.6733150" lon="22.0271280"></trkpt>
    <trkpt lat="67.6725807" lon="22.0266007"></trkpt>
    <trkpt lat="67.6718463" lon="22.0260733"></trkpt>
    <trkpt lat="67.6711120" lon="22.0255460"></trkpt>
    <trkpt lat="67.6707690" lon="22.0248930"></trkpt>
    <trkpt lat="67.6702907" lon="22.0239250"></trkpt>
    <trkpt lat="67.6698123" lon="22.0229570"></trkpt>
    <trkpt lat="67.6693340" lon="22.0219890"></trkpt>
    <trkpt lat="67.6691140" lon="22.0213990"></trkpt>
    <trkpt lat="67.6689760" lon="22.0206530"></trkpt>
    <trkpt lat="67.6686940" lon="22.0185735"></trkpt>
    <trkpt lat="67.6684120" lon="22.0164940"></trkpt>
    <trkpt lat="67.6682000" lon="22.0147910"></trkpt>
    <trkpt lat="67.6679880" lon="22.0130880"></trkpt>
    <trkpt lat="67.6676910" lon="22.0115280"></trkpt>
    <trkpt lat="67.6673940" lon="22.0099680"></trkpt>
    <trkpt lat="67.6670463" lon="22.0081073"></trkpt>
    <trkpt lat="67.6666987" lon="22.0062467"></trkpt>
    <trkpt lat="67.6663510" lon="22.0043860"></trkpt>
    <trkpt lat="67.6660120" lon="22.0029680"></trkpt>
    <trkpt lat="67.6655100" lon="22.0017640"></trkpt>
    <trkpt lat="67.6648810" lon="22.0002233"></trkpt>
    <trkpt lat="67.6642520" lon="21.9986827"></trkpt>
    <trkpt lat="67.6636230" lon="21.9971420"></trkpt>
    <trkpt lat="67.6631930" lon="21.9954765"></trkpt>
    <trkpt lat="67.6627630" lon="21.9938110"></trkpt>
    <trkpt lat="67.6623710" lon="21.9918374"></trkpt>
    <trkpt lat="67.6619790" lon="21.9898638"></trkpt>
    <trkpt lat="67.6615870" lon="21.9878902"></trkpt>
    <trkpt lat="67.6611950" lon="21.9859166"></trkpt>
    <trkpt lat="67.6608030" lon="21.9839430"></trkpt>
    <trkpt lat="67.6605280" lon="21.9828180"></trkpt>
    <trkpt lat="67.6601710" lon="21.9817640"></trkpt>
    <trkpt lat="67.6596460" lon="21.9802627"></trkpt>
    <trkpt lat="67.6591210" lon="21.9787613"></trkpt>
    <trkpt lat="67.6585960" lon="21.9772600"></trkpt>
    <trkpt lat="67.6581480" lon="21.9760405"></trkpt>
    <trkpt lat="67.6577000" lon="21.9748210"></trkpt>
    <trkpt lat="67.6573930" lon="21.9744610"></trkpt>
    <trkpt lat="67.6570620" lon="21.9742520"></trkpt>
    <trkpt lat="67.6563435" lon="21.9736975"></trkpt>
    <trkpt lat="67.6556250" lon="21.9731430"></trkpt>
    <trkpt lat="67.6548974" lon="21.9719624"></trkpt>
    <trkpt lat="67.6541699" lon="21.9707818"></trkpt>
    <trkpt lat="67.6534423" lon="21.9696011"></trkpt>
    <trkpt lat="67.6527148" lon="21.9684205"></trkpt>
    <trkpt lat="67.6519872" lon="21.9672399"></trkpt>
    <trkpt lat="67.6512596" lon="21.9660593"></trkpt>
    <trkpt lat="67.6505321" lon="21.9648786"></trkpt>
    <trkpt lat="67.6498045" lon="21.9636980"></trkpt>
    <trkpt lat="67.6490769" lon="21.9625174"></trkpt>
    <trkpt lat="67.6483494" lon="21.9613368"></trkpt>
    <trkpt lat="67.6476218" lon="21.9601561"></trkpt>
    <trkpt lat="67.6468943" lon="21.9589755"></trkpt>
    <trkpt lat="67.6461667" lon="21.9577949"></trkpt>
    <trkpt lat="67.6454391" lon="21.9566143"></trkpt>
    <trkpt lat="67.6447116" lon="21.9554336"></trkpt>
    <trkpt lat="67.6439840" lon="21.9542530"></trkpt>
    <trkpt lat="67.6432700" lon="21.9528605"></trkpt>
    <trkpt lat="67.6425560" lon="21.9514680"></trkpt>
    <trkpt lat="67.6421670" lon="21.9504630"></trkpt>
    <trkpt lat="67.6417780" lon="21.9494580"></trkpt>
    <trkpt lat="67.6417090" lon="21.9491350"></trkpt>
    <trkpt lat="67.6412877" lon="21.9472060"></trkpt>
    <trkpt lat="67.6408663" lon="21.9452770"></trkpt>
    <trkpt lat="67.6404450" lon="21.9433480"></trkpt>
    <trkpt lat="67.6401010" lon="21.9417910"></trkpt>
    <trkpt lat="67.6398120" lon="21.9401860"></trkpt>
    <trkpt lat="67.6395780" lon="21.9386400"></trkpt>
    <trkpt lat="67.6393355" lon="21.9365750"></trkpt>
    <trkpt lat="67.6390930" lon="21.9345100"></trkpt>
    <trkpt lat="67.6390580" lon="21.9338040"></trkpt>
    <trkpt lat="67.6391640" lon="21.9316437"></trkpt>
    <trkpt lat="67.6392700" lon="21.9294833"></trkpt>
    <trkpt lat="67.6393760" lon="21.9273230"></trkpt>
    <trkpt lat="67.6393500" lon="21.9262630"></trkpt>
    <trkpt lat="67.6392330" lon="21.9254140"></trkpt>
    <trkpt lat="67.6389460" lon="21.9237862"></trkpt>
    <trkpt lat="67.6386590" lon="21.9221585"></trkpt>
    <trkpt lat="67.6383720" lon="21.9205308"></trkpt>
    <trkpt lat="67.6380850" lon="21.9189030"></trkpt>
    <trkpt lat="67.6379560" lon="21.9174730"></trkpt>
    <trkpt lat="67.6379820" lon="21.9164000"></trkpt>
    <trkpt lat="67.6381160" lon="21.9149310"></trkpt>
    <trkpt lat="67.6382600" lon="21.9140090"></trkpt>
    <trkpt lat="67.6384410" lon="21.9121960"></trkpt>
    <trkpt lat="67.6383950" lon="21.9108050"></trkpt>
    <trkpt lat="67.6383240" lon="21.9098730"></trkpt>
    <trkpt lat="67.6381770" lon="21.9090180"></trkpt>
    <trkpt lat="67.6379033" lon="21.9076010"></trkpt>
    <trkpt lat="67.6376297" lon="21.9061840"></trkpt>
    <trkpt lat="67.6373560" lon="21.9047670"></trkpt>
    <trkpt lat="67.6371935" lon="21.9026925"></trkpt>
    <trkpt lat="67.6370310" lon="21.9006180"></trkpt>
    <trkpt lat="67.6367683" lon="21.8984183"></trkpt>
    <trkpt lat="67.6365057" lon="21.8962187"></trkpt>
    <trkpt lat="67.6362430" lon="21.8940190"></trkpt>
    <trkpt lat="67.6360180" lon="21.8922317"></trkpt>
    <trkpt lat="67.6357930" lon="21.8904443"></trkpt>
    <trkpt lat="67.6355680" lon="21.8886570"></trkpt>
    <trkpt lat="67.6354810" lon="21.8869950"></trkpt>
    <trkpt lat="67.6353940" lon="21.8853330"></trkpt>
    <trkpt lat="67.6353070" lon="21.8836710"></trkpt>
    <trkpt lat="67.6350700" lon="21.8819550"></trkpt>
    <trkpt lat="67.6348210" lon="21.8804463"></trkpt>
    <trkpt lat="67.6345720" lon="21.8789377"></trkpt>
    <trkpt lat="67.6343230" lon="21.8774290"></trkpt>
    <trkpt lat="67.6342830" lon="21.8769210"></trkpt>
    <trkpt lat="67.6342830" lon="21.8753550"></trkpt>
    <trkpt lat="67.6341735" lon="21.8732215"></trkpt>
    <trkpt lat="67.6340640" lon="21.8710880"></trkpt>
    <trkpt lat="67.6339080" lon="21.8691175"></trkpt>
    <trkpt lat="67.6337520" lon="21.8671470"></trkpt>
    <trkpt lat="67.6335960" lon="21.8651765"></trkpt>
    <trkpt lat="67.6334400" lon="21.8632060"></trkpt>
    <trkpt lat="67.6333395" lon="21.8612380"></trkpt>
    <trkpt lat="67.6332390" lon="21.8592700"></trkpt>
    <trkpt lat="67.6332910" lon="21.8574290"></trkpt>
    <trkpt lat="67.6333430" lon="21.8555880"></trkpt>
    <trkpt lat="67.6335210" lon="21.8536668"></trkpt>
    <trkpt lat="67.6336990" lon="21.8517455"></trkpt>
    <trkpt lat="67.6338770" lon="21.8498242"></trkpt>
    <trkpt lat="67.6340550" lon="21.8479030"></trkpt>
    <trkpt lat="67.6340720" lon="21.8465210"></trkpt>
    <trkpt lat="67.6339990" lon="21.8456150"></trkpt>
    <trkpt lat="67.6338970" lon="21.8447260"></trkpt>
    <trkpt lat="67.6334940" lon="21.8430730"></trkpt>
    <trkpt lat="67.6328814" lon="21.8414408"></trkpt>
    <trkpt lat="67.6322688" lon="21.8398086"></trkpt>
    <trkpt lat="67.6316562" lon="21.8381764"></trkpt>
    <trkpt lat="67.6310436" lon="21.8365442"></trkpt>
    <trkpt lat="67.6304310" lon="21.8349120"></trkpt>
    <trkpt lat="67.6300850" lon="21.8339980"></trkpt>
    <trkpt lat="67.6298430" lon="21.8333300"></trkpt>
    <trkpt lat="67.6297310" lon="21.8329050"></trkpt>
    <trkpt lat="67.6296450" lon="21.8324360"></trkpt>
    <trkpt lat="67.6294990" lon="21.8314810"></trkpt>
    <trkpt lat="67.6297380" lon="21.8312180"></trkpt>
    <trkpt lat="67.6301420" lon="21.8306490"></trkpt>
    <trkpt lat="67.6304590" lon="21.8301340"></trkpt>
    <trkpt lat="67.6307200" lon="21.8296460"></trkpt>
    <trkpt lat="67.6309770" lon="21.8291100"></trkpt>
    <trkpt lat="67.6312390" lon="21.8284640"></trkpt>
    <trkpt lat="67.6313470" lon="21.8281980"></trkpt>
    <trkpt lat="67.6315830" lon="21.8275110"></trkpt>
    <trkpt lat="67.6320480" lon="21.8260860"></trkpt>
    <trkpt lat="67.6325130" lon="21.8246610"></trkpt>
    <trkpt lat="67.6329780" lon="21.8232360"></trkpt>
    <trkpt lat="67.6334110" lon="21.8219430"></trkpt>
    <trkpt lat="67.6337170" lon="21.8211650"></trkpt>
    <trkpt lat="67.6341620" lon="21.8201570"></trkpt>
    <trkpt lat="67.6347410" lon="21.8188320"></trkpt>
    <trkpt lat="67.6351935" lon="21.8178475"></trkpt>
    <trkpt lat="67.6356460" lon="21.8168630"></trkpt>
    <trkpt lat="67.6361910" lon="21.8156507"></trkpt>
    <trkpt lat="67.6367360" lon="21.8144383"></trkpt>
    <trkpt lat="67.6372810" lon="21.8132260"></trkpt>
    <trkpt lat="67.6379560" lon="21.8116700"></trkpt>
    <trkpt lat="67.6382360" lon="21.8109030"></trkpt>
    <trkpt lat="67.6384950" lon="21.8100450"></trkpt>
    <trkpt lat="67.6387210" lon="21.8091920"></trkpt>
    <trkpt lat="67.6389970" lon="21.8080330"></trkpt>
    <trkpt lat="67.6392170" lon="21.8068080"></trkpt>
    <trkpt lat="67.6392520" lon="21.8066110"></trkpt>
    <trkpt lat="67.6395376" lon="21.8047906"></trkpt>
    <trkpt lat="67.6398232" lon="21.8029702"></trkpt>
    <trkpt lat="67.6401088" lon="21.8011498"></trkpt>
    <trkpt lat="67.6403944" lon="21.7993294"></trkpt>
    <trkpt lat="67.6406800" lon="21.7975090"></trkpt>
    <trkpt lat="67.6410085" lon="21.7954378"></trkpt>
    <trkpt lat="67.6413370" lon="21.7933665"></trkpt>
    <trkpt lat="67.6416655" lon="21.7912953"></trkpt>
    <trkpt lat="67.6419940" lon="21.7892240"></trkpt>
    <trkpt lat="67.6422215" lon="21.7878350"></trkpt>
    <trkpt lat="67.6424490" lon="21.7864460"></trkpt>
    <trkpt lat="67.6426310" lon="21.7855720"></trkpt>
    <trkpt lat="67.6428580" lon="21.7846550"></trkpt>
    <trkpt lat="67.6431010" lon="21.7838450"></trkpt>
    <trkpt lat="67.6434840" lon="21.7828310"></trkpt>
    <trkpt lat="67.6438460" lon="21.7820420"></trkpt>
    <trkpt lat="67.6444520" lon="21.7809950"></trkpt>
    <trkpt lat="67.6446020" lon="21.7807950"></trkpt>
    <trkpt lat="67.6448150" lon="21.7805140"></trkpt>
    <trkpt lat="67.6452090" lon="21.7800790"></trkpt>
    <trkpt lat="67.6454780" lon="21.7798580"></trkpt>
    <trkpt lat="67.6459290" lon="21.7796250"></trkpt>
    <trkpt lat="67.6463800" lon="21.7793920"></trkpt>
    <trkpt lat="67.6468280" lon="21.7792270"></trkpt>
    <trkpt lat="67.6471140" lon="21.7790710"></trkpt>
    <trkpt lat="67.6474920" lon="21.7788510"></trkpt>
    <trkpt lat="67.6479380" lon="21.7785180"></trkpt>
    <trkpt lat="67.6482790" lon="21.7782180"></trkpt>
    <trkpt lat="67.6483240" lon="21.7781640"></trkpt>
    <trkpt lat="67.6487810" lon="21.7776170"></trkpt>
    <trkpt lat="67.6491420" lon="21.7770050"></trkpt>
    <trkpt lat="67.6494540" lon="21.7764100"></trkpt>
    <trkpt lat="67.6498030" lon="21.7756530"></trkpt>
    <trkpt lat="67.6500440" lon="21.7749720"></trkpt>
    <trkpt lat="67.6503690" lon="21.7739780"></trkpt>
    <trkpt lat="67.6507393" lon="21.7727180"></trkpt>
    <trkpt lat="67.6511097" lon="21.7714580"></trkpt>
    <trkpt lat="67.6514800" lon="21.7701980"></trkpt>
    <trkpt lat="67.6518850" lon="21.7687760"></trkpt>
    <trkpt lat="67.6522730" lon="21.7673330"></trkpt>
    <trkpt lat="67.6524760" lon="21.7663760"></trkpt>
    <trkpt lat="67.6525930" lon="21.7658230"></trkpt>
    <trkpt lat="67.6528810" lon="21.7643610"></trkpt>
    <trkpt lat="67.6531030" lon="21.7630580"></trkpt>
    <trkpt lat="67.6534745" lon="21.7609925"></trkpt>
    <trkpt lat="67.6538460" lon="21.7589270"></trkpt>
    <trkpt lat="67.6541390" lon="21.7573205"></trkpt>
    <trkpt lat="67.6544320" lon="21.7557140"></trkpt>
    <trkpt lat="67.6547250" lon="21.7541075"></trkpt>
    <trkpt lat="67.6550180" lon="21.7525010"></trkpt>
    <trkpt lat="67.6553030" lon="21.7510200"></trkpt>
    <trkpt lat="67.6554980" lon="21.7498720"></trkpt>
    <trkpt lat="67.6556930" lon="21.7487240"></trkpt>
    <trkpt lat="67.6560030" lon="21.7472320"></trkpt>
    <trkpt lat="67.6563130" lon="21.7457400"></trkpt>
    <trkpt lat="67.6565500" lon="21.7445130"></trkpt>
    <trkpt lat="67.6567760" lon="21.7431490"></trkpt>
    <trkpt lat="67.6569290" lon="21.7421100"></trkpt>
    <trkpt lat="67.6571400" lon="21.7409140"></trkpt>
    <trkpt lat="67.6574700" lon="21.7393090"></trkpt>
    <trkpt lat="67.6577630" lon="21.7381990"></trkpt>
    <trkpt lat="67.6580760" lon="21.7371760"></trkpt>
    <trkpt lat="67.6581310" lon="21.7370170"></trkpt>
    <trkpt lat="67.6582710" lon="21.7366170"></trkpt>
    <trkpt lat="67.6586030" lon="21.7356880"></trkpt>
    <trkpt lat="67.6589810" lon="21.7348090"></trkpt>
    <trkpt lat="67.6593190" lon="21.7340530"></trkpt>
    <trkpt lat="67.6593720" lon="21.7339340"></trkpt>
    <trkpt lat="67.6596060" lon="21.7335250"></trkpt>
    <trkpt lat="67.6597800" lon="21.7332200"></trkpt>
    <trkpt lat="67.6602020" lon="21.7326080"></trkpt>
    <trkpt lat="67.6604170" lon="21.7322710"></trkpt>
    <trkpt lat="67.6605520" lon="21.7320410"></trkpt>
    <trkpt lat="67.6607060" lon="21.7317810"></trkpt>
    <trkpt lat="67.6612400" lon="21.7307610"></trkpt>
    <trkpt lat="67.6616830" lon="21.7297110"></trkpt>
    <trkpt lat="67.6620730" lon="21.7285810"></trkpt>
    <trkpt lat="67.6622440" lon="21.7280160"></trkpt>
    <trkpt lat="67.6625855" lon="21.7269465"></trkpt>
    <trkpt lat="67.6629270" lon="21.7258770"></trkpt>
    <trkpt lat="67.6631630" lon="21.7264040"></trkpt>
    <trkpt lat="67.6633360" lon="21.7266930"></trkpt>
    <trkpt lat="67.6635440" lon="21.7268970"></trkpt>
    <trkpt lat="67.6637700" lon="21.7269710"></trkpt>
    <trkpt lat="67.6639940" lon="21.7269250"></trkpt>
    <trkpt lat="67.6642140" lon="21.7267670"></trkpt>
    <trkpt lat="67.6643610" lon="21.7265490"></trkpt>
    <trkpt lat="67.6644970" lon="21.7263010"></trkpt>
    <trkpt lat="67.6648020" lon="21.7255480"></trkpt>
    <trkpt lat="67.6650980" lon="21.7244010"></trkpt>
    <trkpt lat="67.6651100" lon="21.7243210"></trkpt>
    <trkpt lat="67.6653310" lon="21.7231900"></trkpt>
    <trkpt lat="67.6653950" lon="21.7228910"></trkpt>
    <trkpt lat="67.6658370" lon="21.7209680"></trkpt>
    <trkpt lat="67.6663060" lon="21.7193310"></trkpt>
    <trkpt lat="67.6666865" lon="21.7179765"></trkpt>
    <trkpt lat="67.6670670" lon="21.7166220"></trkpt>
    <trkpt lat="67.6674350" lon="21.7153105"></trkpt>
    <trkpt lat="67.6678030" lon="21.7139990"></trkpt>
    <trkpt lat="67.6678340" lon="21.7138920"></trkpt>
    <trkpt lat="67.6682750" lon="21.7123830"></trkpt>
    <trkpt lat="67.6686750" lon="21.7110030"></trkpt>
    <trkpt lat="67.6688110" lon="21.7105040"></trkpt>
    <trkpt lat="67.6688890" lon="21.7101530"></trkpt>
    <trkpt lat="67.6690240" lon="21.7094120"></trkpt>
    <trkpt lat="67.6691270" lon="21.7088510"></trkpt>
    <trkpt lat="67.6692530" lon="21.7080690"></trkpt>
    <trkpt lat="67.6695210" lon="21.7064090"></trkpt>
    <trkpt lat="67.6698210" lon="21.7045320"></trkpt>
    <trkpt lat="67.6701210" lon="21.7026550"></trkpt>
    <trkpt lat="67.6703330" lon="21.7017210"></trkpt>
    <trkpt lat="67.6705500" lon="21.7008900"></trkpt>
    <trkpt lat="67.6705640" lon="21.7008440"></trkpt>
    <trkpt lat="67.6707940" lon="21.7001050"></trkpt>
    <trkpt lat="67.6709210" lon="21.6997220"></trkpt>
    <trkpt lat="67.6713670" lon="21.6982630"></trkpt>
    <trkpt lat="67.6718745" lon="21.6967460"></trkpt>
    <trkpt lat="67.6723820" lon="21.6952290"></trkpt>
    <trkpt lat="67.6725510" lon="21.6946630"></trkpt>
    <trkpt lat="67.6726890" lon="21.6940200"></trkpt>
    <trkpt lat="67.6728430" lon="21.6930660"></trkpt>
    <trkpt lat="67.6730290" lon="21.6917500"></trkpt>
    <trkpt lat="67.6731720" lon="21.6906560"></trkpt>
    <trkpt lat="67.6733550" lon="21.6889190"></trkpt>
    <trkpt lat="67.6734400" lon="21.6879640"></trkpt>
    <trkpt lat="67.6736670" lon="21.6857500"></trkpt>
    <trkpt lat="67.6738360" lon="21.6843170"></trkpt>
    <trkpt lat="67.6739935" lon="21.6830285"></trkpt>
    <trkpt lat="67.6741510" lon="21.6817400"></trkpt>
    <trkpt lat="67.6743130" lon="21.6804760"></trkpt>
    <trkpt lat="67.6744750" lon="21.6792120"></trkpt>
    <trkpt lat="67.6746530" lon="21.6776810"></trkpt>
    <trkpt lat="67.6748280" lon="21.6756790"></trkpt>
    <trkpt lat="67.6748550" lon="21.6753280"></trkpt>
    <trkpt lat="67.6750020" lon="21.6736600"></trkpt>
    <trkpt lat="67.6750820" lon="21.6730750"></trkpt>
    <trkpt lat="67.6752820" lon="21.6716930"></trkpt>
    <trkpt lat="67.6754820" lon="21.6703110"></trkpt>
    <trkpt lat="67.6755620" lon="21.6697530"></trkpt>
    <trkpt lat="67.6758630" lon="21.6677240"></trkpt>
    <trkpt lat="67.6759580" lon="21.6671340"></trkpt>
    <trkpt lat="67.6762260" lon="21.6653060"></trkpt>
    <trkpt lat="67.6764940" lon="21.6634780"></trkpt>
    <trkpt lat="67.6765880" lon="21.6628060"></trkpt>
    <trkpt lat="67.6766780" lon="21.6620350"></trkpt>
    <trkpt lat="67.6767750" lon="21.6608960"></trkpt>
    <trkpt lat="67.6767950" lon="21.6605010"></trkpt>
    <trkpt lat="67.6768120" lon="21.6596430"></trkpt>
    <trkpt lat="67.6768130" lon="21.6585480"></trkpt>
    <trkpt lat="67.6767990" lon="21.6574830"></trkpt>
    <trkpt lat="67.6767410" lon="21.6555470"></trkpt>
    <trkpt lat="67.6766610" lon="21.6535990"></trkpt>
    <trkpt lat="67.6766170" lon="21.6524350"></trkpt>
    <trkpt lat="67.6765820" lon="21.6514970"></trkpt>
    <trkpt lat="67.6765770" lon="21.6508450"></trkpt>
    <trkpt lat="67.6766190" lon="21.6502810"></trkpt>
    <trkpt lat="67.6766610" lon="21.6499440"></trkpt>
    <trkpt lat="67.6767450" lon="21.6493750"></trkpt>
    <trkpt lat="67.6769300" lon="21.6483730"></trkpt>
    <trkpt lat="67.6772000" lon="21.6470230"></trkpt>
    <trkpt lat="67.6774120" lon="21.6458870"></trkpt>
    <trkpt lat="67.6776600" lon="21.6445600"></trkpt>
    <trkpt lat="67.6777340" lon="21.6442180"></trkpt>
    <trkpt lat="67.6777690" lon="21.6440590"></trkpt>
    <trkpt lat="67.6778490" lon="21.6437440"></trkpt>
    <trkpt lat="67.6779780" lon="21.6432830"></trkpt>
    <trkpt lat="67.6781750" lon="21.6426940"></trkpt>
    <trkpt lat="67.6786350" lon="21.6413600"></trkpt>
    <trkpt lat="67.6786560" lon="21.6413030"></trkpt>
    <trkpt lat="67.6791340" lon="21.6399920"></trkpt>
    <trkpt lat="67.6792140" lon="21.6397710"></trkpt>
    <trkpt lat="67.6794600" lon="21.6390870"></trkpt>
    <trkpt lat="67.6800250" lon="21.6376310"></trkpt>
    <trkpt lat="67.6806640" lon="21.6361480"></trkpt>
    <trkpt lat="67.6813200" lon="21.6348050"></trkpt>
    <trkpt lat="67.6813990" lon="21.6346430"></trkpt>
    <trkpt lat="67.6819037" lon="21.6335820"></trkpt>
    <trkpt lat="67.6824083" lon="21.6325210"></trkpt>
    <trkpt lat="67.6829130" lon="21.6314600"></trkpt>
    <trkpt lat="67.6831730" lon="21.6310550"></trkpt>
    <trkpt lat="67.6833870" lon="21.6308520"></trkpt>
    <trkpt lat="67.6834730" lon="21.6307980"></trkpt>
    <trkpt lat="67.6835530" lon="21.6307880"></trkpt>
    <trkpt lat="67.6836610" lon="21.6307830"></trkpt>
    <trkpt lat="67.6839600" lon="21.6308330"></trkpt>
    <trkpt lat="67.6841440" lon="21.6308610"></trkpt>
    <trkpt lat="67.6846460" lon="21.6309145"></trkpt>
    <trkpt lat="67.6851480" lon="21.6309680"></trkpt>
    <trkpt lat="67.6857520" lon="21.6310025"></trkpt>
    <trkpt lat="67.6863560" lon="21.6310370"></trkpt>
    <trkpt lat="67.6872150" lon="21.6310680"></trkpt>
    <trkpt lat="67.6878410" lon="21.6310160"></trkpt>
    <trkpt lat="67.6884280" lon="21.6308250"></trkpt>
    <trkpt lat="67.6889510" lon="21.6306340"></trkpt>
    <trkpt lat="67.6894890" lon="21.6302880"></trkpt>
    <trkpt lat="67.6901070" lon="21.6298840"></trkpt>
    <trkpt lat="67.6907250" lon="21.6294800"></trkpt>
    <trkpt lat="67.6912210" lon="21.6291805"></trkpt>
    <trkpt lat="67.6917170" lon="21.6288810"></trkpt>
    <trkpt lat="67.6921580" lon="21.6286130"></trkpt>
    <trkpt lat="67.6925860" lon="21.6283930"></trkpt>
    <trkpt lat="67.6933590" lon="21.6281210"></trkpt>
    <trkpt lat="67.6938150" lon="21.6280010"></trkpt>
    <trkpt lat="67.6945500" lon="21.6279440"></trkpt>
    <trkpt lat="67.6945900" lon="21.6279410"></trkpt>
    <trkpt lat="67.6949810" lon="21.6279010"></trkpt>
    <trkpt lat="67.6953750" lon="21.6279360"></trkpt>
    <trkpt lat="67.6962110" lon="21.6280830"></trkpt>
    <trkpt lat="67.6970320" lon="21.6283870"></trkpt>
    <trkpt lat="67.6975200" lon="21.6286360"></trkpt>
    <trkpt lat="67.6983225" lon="21.6290615"></trkpt>
    <trkpt lat="67.6991250" lon="21.6294870"></trkpt>
    <trkpt lat="67.6993430" lon="21.6296010"></trkpt>
    <trkpt lat="67.6998570" lon="21.6298820"></trkpt>
    <trkpt lat="67.7004610" lon="21.6301980"></trkpt>
    <trkpt lat="67.7010650" lon="21.6305140"></trkpt>
    <trkpt lat="67.7016690" lon="21.6308300"></trkpt>
    <trkpt lat="67.7024940" lon="21.6312610"></trkpt>
    <trkpt lat="67.7033190" lon="21.6316920"></trkpt>
    <trkpt lat="67.7041057" lon="21.6321147"></trkpt>
    <trkpt lat="67.7048923" lon="21.6325373"></trkpt>
    <trkpt lat="67.7056790" lon="21.6329600"></trkpt>
    <trkpt lat="67.7064008" lon="21.6333440"></trkpt>
    <trkpt lat="67.7071225" lon="21.6337280"></trkpt>
    <trkpt lat="67.7078443" lon="21.6341120"></trkpt>
    <trkpt lat="67.7085660" lon="21.6344960"></trkpt>
    <trkpt lat="67.7092600" lon="21.6347700"></trkpt>
    <trkpt lat="67.7099690" lon="21.6350320"></trkpt>
    <trkpt lat="67.7107720" lon="21.6352790"></trkpt>
    <trkpt lat="67.7113830" lon="21.6354850"></trkpt>
    <trkpt lat="67.7120760" lon="21.6357510"></trkpt>
    <trkpt lat="67.7127980" lon="21.6360230"></trkpt>
    <trkpt lat="67.7133940" lon="21.6362570"></trkpt>
    <trkpt lat="67.7139350" lon="21.6366090"></trkpt>
    <trkpt lat="67.7144460" lon="21.6370360"></trkpt>
    <trkpt lat="67.7148730" lon="21.6374250"></trkpt>
    <trkpt lat="67.7153790" lon="21.6380060"></trkpt>
    <trkpt lat="67.7158420" lon="21.6386060"></trkpt>
    <trkpt lat="67.7162565" lon="21.6391395"></trkpt>
    <trkpt lat="67.7166710" lon="21.6396730"></trkpt>
    <trkpt lat="67.7172520" lon="21.6404200"></trkpt>
    <trkpt lat="67.7176640" lon="21.6410875"></trkpt>
    <trkpt lat="67.7180760" lon="21.6417550"></trkpt>
    <trkpt lat="67.7184450" lon="21.6424720"></trkpt>
    <trkpt lat="67.7188120" lon="21.6432910"></trkpt>
    <trkpt lat="67.7191790" lon="21.6441100"></trkpt>
    <trkpt lat="67.7195435" lon="21.6448820"></trkpt>
    <trkpt lat="67.7199080" lon="21.6456540"></trkpt>
    <trkpt lat="67.7202960" lon="21.6463660"></trkpt>
    <trkpt lat="67.7206780" lon="21.6470120"></trkpt>
    <trkpt lat="67.7211090" lon="21.6476210"></trkpt>
    <trkpt lat="67.7215070" lon="21.6480970"></trkpt>
    <trkpt lat="67.7220970" lon="21.6486600"></trkpt>
    <trkpt lat="67.7223610" lon="21.6488810"></trkpt>
    <trkpt lat="67.7230530" lon="21.6493250"></trkpt>
    <trkpt lat="67.7234570" lon="21.6494940"></trkpt>
    <trkpt lat="67.7241190" lon="21.6495720"></trkpt>
    <trkpt lat="67.7245700" lon="21.6495490"></trkpt>
    <trkpt lat="67.7248450" lon="21.6494940"></trkpt>
    <trkpt lat="67.7253920" lon="21.6493670"></trkpt>
    <trkpt lat="67.7258630" lon="21.6490650"></trkpt>
    <trkpt lat="67.7263340" lon="21.6487630"></trkpt>
    <trkpt lat="67.7268170" lon="21.6483390"></trkpt>
    <trkpt lat="67.7272600" lon="21.6478680"></trkpt>
    <trkpt lat="67.7280020" lon="21.6468300"></trkpt>
    <trkpt lat="67.7285400" lon="21.6458080"></trkpt>
    <trkpt lat="67.7291030" lon="21.6446600"></trkpt>
    <trkpt lat="67.7295550" lon="21.6436950"></trkpt>
    <trkpt lat="67.7300070" lon="21.6427300"></trkpt>
    <trkpt lat="67.7303190" lon="21.6420490"></trkpt>
    <trkpt lat="67.7305600" lon="21.6416170"></trkpt>
    <trkpt lat="67.7312800" lon="21.6404700"></trkpt>
    <trkpt lat="67.7315320" lon="21.6401530"></trkpt>
    <trkpt lat="67.7319250" lon="21.6397490"></trkpt>
    <trkpt lat="67.7326930" lon="21.6390450"></trkpt>
    <trkpt lat="67.7335010" lon="21.6383370"></trkpt>
    <trkpt lat="67.7341370" lon="21.6377930"></trkpt>
    <trkpt lat="67.7347730" lon="21.6372490"></trkpt>
    <trkpt lat="67.7355603" lon="21.6365980"></trkpt>
    <trkpt lat="67.7363475" lon="21.6359470"></trkpt>
    <trkpt lat="67.7371347" lon="21.6352960"></trkpt>
    <trkpt lat="67.7379220" lon="21.6346450"></trkpt>
    <trkpt lat="67.7385200" lon="21.6342330"></trkpt>
    <trkpt lat="67.7390300" lon="21.6339590"></trkpt>
    <trkpt lat="67.7394510" lon="21.6337400"></trkpt>
    <trkpt lat="67.7400370" lon="21.6334790"></trkpt>
    <trkpt lat="67.7406290" lon="21.6333810"></trkpt>
    <trkpt lat="67.7410550" lon="21.6333360"></trkpt>
    <trkpt lat="67.7414110" lon="21.6333160"></trkpt>
    <trkpt lat="67.7423060" lon="21.6333910"></trkpt>
    <trkpt lat="67.7430010" lon="21.6335390"></trkpt>
    <trkpt lat="67.7433900" lon="21.6336360"></trkpt>
    <trkpt lat="67.7438640" lon="21.6338460"></trkpt>
    <trkpt lat="67.7441720" lon="21.6340080"></trkpt>
    <trkpt lat="67.7444770" lon="21.6341870"></trkpt>
    <trkpt lat="67.7450300" lon="21.6345720"></trkpt>
    <trkpt lat="67.7455750" lon="21.6350320"></trkpt>
    <trkpt lat="67.7457410" lon="21.6351620"></trkpt>
    <trkpt lat="67.7465695" lon="21.6360460"></trkpt>
    <trkpt lat="67.7473980" lon="21.6369300"></trkpt>
    <trkpt lat="67.7480953" lon="21.6376742"></trkpt>
    <trkpt lat="67.7487925" lon="21.6384185"></trkpt>
    <trkpt lat="67.7494897" lon="21.6391628"></trkpt>
    <trkpt lat="67.7501870" lon="21.6399070"></trkpt>
    <trkpt lat="67.7508640" lon="21.6406300"></trkpt>
    <trkpt lat="67.7515410" lon="21.6413530"></trkpt>
    <trkpt lat="67.7521643" lon="21.6420007"></trkpt>
    <trkpt lat="67.7527877" lon="21.6426483"></trkpt>
    <trkpt lat="67.7534110" lon="21.6432960"></trkpt>
    <trkpt lat="67.7540935" lon="21.6440055"></trkpt>
    <trkpt lat="67.7547760" lon="21.6447150"></trkpt>
    <trkpt lat="67.7552780" lon="21.6452380"></trkpt>
    <trkpt lat="67.7557480" lon="21.6456340"></trkpt>
    <trkpt lat="67.7562320" lon="21.6459840"></trkpt>
    <trkpt lat="67.7566960" lon="21.6463025"></trkpt>
    <trkpt lat="67.7571600" lon="21.6466210"></trkpt>
    <trkpt lat="67.7577703" lon="21.6470480"></trkpt>
    <trkpt lat="67.7583807" lon="21.6474750"></trkpt>
    <trkpt lat="67.7589910" lon="21.6479020"></trkpt>
    <trkpt lat="67.7597572" lon="21.6486260"></trkpt>
    <trkpt lat="67.7605234" lon="21.6493500"></trkpt>
    <trkpt lat="67.7612896" lon="21.6500740"></trkpt>
    <trkpt lat="67.7620558" lon="21.6507980"></trkpt>
    <trkpt lat="67.7628220" lon="21.6515220"></trkpt>
    <trkpt lat="67.7635560" lon="21.6520170"></trkpt>
    <trkpt lat="67.7642170" lon="21.6521680"></trkpt>
    <trkpt lat="67.7650610" lon="21.6523100"></trkpt>
    <trkpt lat="67.7655795" lon="21.6523305"></trkpt>
    <trkpt lat="67.7660980" lon="21.6523510"></trkpt>
    <trkpt lat="67.7665460" lon="21.6524840"></trkpt>
    <trkpt lat="67.7669480" lon="21.6526430"></trkpt>
    <trkpt lat="67.7677410" lon="21.6529160"></trkpt>
    <trkpt lat="67.7677930" lon="21.6529350"></trkpt>
    <trkpt lat="67.7682675" lon="21.6531265"></trkpt>
    <trkpt lat="67.7687420" lon="21.6533180"></trkpt>
    <trkpt lat="67.7696100" lon="21.6535450"></trkpt>
    <trkpt lat="67.7700230" lon="21.6535950"></trkpt>
    <trkpt lat="67.7703420" lon="21.6535750"></trkpt>
    <trkpt lat="67.7708960" lon="21.6535210"></trkpt>
    <trkpt lat="67.7714240" lon="21.6534440"></trkpt>
    <trkpt lat="67.7719990" lon="21.6533120"></trkpt>
    <trkpt lat="67.7726130" lon="21.6530880"></trkpt>
    <trkpt lat="67.7733340" lon="21.6528065"></trkpt>
    <trkpt lat="67.7740550" lon="21.6525250"></trkpt>
    <trkpt lat="67.7748670" lon="21.6521640"></trkpt>
    <trkpt lat="67.7757340" lon="21.6518170"></trkpt>
    <trkpt lat="67.7763407" lon="21.6515690"></trkpt>
    <trkpt lat="67.7769473" lon="21.6513210"></trkpt>
    <trkpt lat="67.7775540" lon="21.6510730"></trkpt>
    <trkpt lat="67.7784423" lon="21.6507333"></trkpt>
    <trkpt lat="67.7793307" lon="21.6503937"></trkpt>
    <trkpt lat="67.7802190" lon="21.6500540"></trkpt>
    <trkpt lat="67.7809268" lon="21.6497653"></trkpt>
    <trkpt lat="67.7816345" lon="21.6494765"></trkpt>
    <trkpt lat="67.7823422" lon="21.6491877"></trkpt>
    <trkpt lat="67.7830500" lon="21.6488990"></trkpt>
    <trkpt lat="67.7835850" lon="21.6486445"></trkpt>
    <trkpt lat="67.7841200" lon="21.6483900"></trkpt>
    <trkpt lat="67.7848480" lon="21.6479110"></trkpt>
    <trkpt lat="67.7853710" lon="21.6474700"></trkpt>
    <trkpt lat="67.7858430" lon="21.6469195"></trkpt>
    <trkpt lat="67.7863150" lon="21.6463690"></trkpt>
    <trkpt lat="67.7869670" lon="21.6454160"></trkpt>
    <trkpt lat="67.7873470" lon="21.6447405"></trkpt>
    <trkpt lat="67.7877270" lon="21.6440650"></trkpt>
    <trkpt lat="67.7882500" lon="21.6430617"></trkpt>
    <trkpt lat="67.7887730" lon="21.6420583"></trkpt>
    <trkpt lat="67.7892960" lon="21.6410550"></trkpt>
    <trkpt lat="67.7899665" lon="21.6398730"></trkpt>
    <trkpt lat="67.7906370" lon="21.6386910"></trkpt>
    <trkpt lat="67.7914155" lon="21.6375755"></trkpt>
    <trkpt lat="67.7921940" lon="21.6364600"></trkpt>
    <trkpt lat="67.7928555" lon="21.6356845"></trkpt>
    <trkpt lat="67.7935170" lon="21.6349090"></trkpt>
    <trkpt lat="67.7943165" lon="21.6342090"></trkpt>
    <trkpt lat="67.7951160" lon="21.6335090"></trkpt>
    <trkpt lat="67.7956590" lon="21.6331645"></trkpt>
    <trkpt lat="67.7962020" lon="21.6328200"></trkpt>
    <trkpt lat="67.7968810" lon="21.6323790"></trkpt>
    <trkpt lat="67.7972220" lon="21.6321920"></trkpt>
    <trkpt lat="67.7976935" lon="21.6319820"></trkpt>
    <trkpt lat="67.7981650" lon="21.6317720"></trkpt>
    <trkpt lat="67.7986525" lon="21.6315650"></trkpt>
    <trkpt lat="67.7991400" lon="21.6313580"></trkpt>
    <trkpt lat="67.7995945" lon="21.6312110"></trkpt>
    <trkpt lat="67.8000490" lon="21.6310640"></trkpt>
    <trkpt lat="67.8008030" lon="21.6308110"></trkpt>
    <trkpt lat="67.8015570" lon="21.6305580"></trkpt>
    <trkpt lat="67.8020210" lon="21.6303060"></trkpt>
    <trkpt lat="67.8025720" lon="21.6298440"></trkpt>
    <trkpt lat="67.8029970" lon="21.6293560"></trkpt>
    <trkpt lat="67.8034090" lon="21.6287870"></trkpt>
    <trkpt lat="67.8038180" lon="21.6280380"></trkpt>
    <trkpt lat="67.8042320" lon="21.6272010"></trkpt>
    <trkpt lat="67.8045640" lon="21.6263290"></trkpt>
    <trkpt lat="67.8048860" lon="21.6253510"></trkpt>
    <trkpt lat="67.8052900" lon="21.6239710"></trkpt>
    <trkpt lat="67.8056940" lon="21.6225910"></trkpt>
    <trkpt lat="67.8060490" lon="21.6214850"></trkpt>
    <trkpt lat="67.8064310" lon="21.6204300"></trkpt>
    <trkpt lat="67.8066050" lon="21.6200660"></trkpt>
    <trkpt lat="67.8067780" lon="21.6197410"></trkpt>
    <trkpt lat="67.8068920" lon="21.6195360"></trkpt>
    <trkpt lat="67.8070160" lon="21.6193420"></trkpt>
    <trkpt lat="67.8072360" lon="21.6189980"></trkpt>
    <trkpt lat="67.8074340" lon="21.6187090"></trkpt>
    <trkpt lat="67.8081020" lon="21.6179830"></trkpt>
    <trkpt lat="67.8085310" lon="21.6176750"></trkpt>
    <trkpt lat="67.8091345" lon="21.6172980"></trkpt>
    <trkpt lat="67.8097380" lon="21.6169210"></trkpt>
    <trkpt lat="67.8102910" lon="21.6166090"></trkpt>
    <trkpt lat="67.8108220" lon="21.6162640"></trkpt>
    <trkpt lat="67.8111120" lon="21.6160500"></trkpt>
    <trkpt lat="67.8115640" lon="21.6157320"></trkpt>
    <trkpt lat="67.8123530" lon="21.6150270"></trkpt>
    <trkpt lat="67.8131500" lon="21.6143030"></trkpt>
    <trkpt lat="67.8136805" lon="21.6137210"></trkpt>
    <trkpt lat="67.8142110" lon="21.6131390"></trkpt>
    <trkpt lat="67.8144970" lon="21.6128140"></trkpt>
    <trkpt lat="67.8151990" lon="21.6119955"></trkpt>
    <trkpt lat="67.8159010" lon="21.6111770"></trkpt>
    <trkpt lat="67.8165570" lon="21.6103800"></trkpt>
    <trkpt lat="67.8170490" lon="21.6096700"></trkpt>
    <trkpt lat="67.8173150" lon="21.6092790"></trkpt>
    <trkpt lat="67.8177840" lon="21.6086030"></trkpt>
    <trkpt lat="67.8181870" lon="21.6079670"></trkpt>
    <trkpt lat="67.8185270" lon="21.6073560"></trkpt>
    <trkpt lat="67.8189300" lon="21.6066315"></trkpt>
    <trkpt lat="67.8193330" lon="21.6059070"></trkpt>
    <trkpt lat="67.8196420" lon="21.6052740"></trkpt>
    <trkpt lat="67.8200335" lon="21.6044340"></trkpt>
    <trkpt lat="67.8204250" lon="21.6035940"></trkpt>
    <trkpt lat="67.8209910" lon="21.6021890"></trkpt>
    <trkpt lat="67.8215160" lon="21.6008460"></trkpt>
    <trkpt lat="67.8220350" lon="21.5994770"></trkpt>
    <trkpt lat="67.8226240" lon="21.5979780"></trkpt>
    <trkpt lat="67.8232360" lon="21.5967150"></trkpt>
    <trkpt lat="67.8238680" lon="21.5955790"></trkpt>
    <trkpt lat="67.8243140" lon="21.5948400"></trkpt>
    <trkpt lat="67.8247640" lon="21.5942210"></trkpt>
    <trkpt lat="67.8250240" lon="21.5939280"></trkpt>
    <trkpt lat="67.8255600" lon="21.5933670"></trkpt>
    <trkpt lat="67.8262675" lon="21.5927455"></trkpt>
    <trkpt lat="67.8269750" lon="21.5921240"></trkpt>
    <trkpt lat="67.8275620" lon="21.5918060"></trkpt>
    <trkpt lat="67.8281490" lon="21.5914880"></trkpt>
    <trkpt lat="67.8287120" lon="21.5913440"></trkpt>
    <trkpt lat="67.8292750" lon="21.5912000"></trkpt>
    <trkpt lat="67.8298350" lon="21.5911485"></trkpt>
    <trkpt lat="67.8303950" lon="21.5910970"></trkpt>
    <trkpt lat="67.8312190" lon="21.5911660"></trkpt>
    <trkpt lat="67.8319637" lon="21.5913060"></trkpt>
    <trkpt lat="67.8327083" lon="21.5914460"></trkpt>
    <trkpt lat="67.8334530" lon="21.5915860"></trkpt>
    <trkpt lat="67.8341720" lon="21.5917340"></trkpt>
    <trkpt lat="67.8348820" lon="21.5917920"></trkpt>
    <trkpt lat="67.8354530" lon="21.5917010"></trkpt>
    <trkpt lat="67.8357710" lon="21.5916280"></trkpt>
    <trkpt lat="67.8361320" lon="21.5915280"></trkpt>
    <trkpt lat="67.8368770" lon="21.5912030"></trkpt>
    <trkpt lat="67.8376155" lon="21.5907945"></trkpt>
    <trkpt lat="67.8383540" lon="21.5903860"></trkpt>
    <trkpt lat="67.8390925" lon="21.5899775"></trkpt>
    <trkpt lat="67.8398310" lon="21.5895690"></trkpt>
    <trkpt lat="67.8404470" lon="21.5892810"></trkpt>
    <trkpt lat="67.8408230" lon="21.5891560"></trkpt>
    <trkpt lat="67.8413890" lon="21.5889660"></trkpt>
    <trkpt lat="67.8421273" lon="21.5887510"></trkpt>
    <trkpt lat="67.8428657" lon="21.5885360"></trkpt>
    <trkpt lat="67.8436040" lon="21.5883210"></trkpt>
    <trkpt lat="67.8441890" lon="21.5881810"></trkpt>
    <trkpt lat="67.8450550" lon="21.5880190"></trkpt>
    <trkpt lat="67.8459210" lon="21.5878570"></trkpt>
    <trkpt lat="67.8467617" lon="21.5878460"></trkpt>
    <trkpt lat="67.8476023" lon="21.5878350"></trkpt>
    <trkpt lat="67.8484430" lon="21.5878240"></trkpt>
    <trkpt lat="67.8490930" lon="21.5878640"></trkpt>
    <trkpt lat="67.8497430" lon="21.5879040"></trkpt>
    <trkpt lat="67.8506145" lon="21.5880160"></trkpt>
    <trkpt lat="67.8514860" lon="21.5881280"></trkpt>
    <trkpt lat="67.8521460" lon="21.5883680"></trkpt>
    <trkpt lat="67.8528060" lon="21.5886080"></trkpt>
    <trkpt lat="67.8534660" lon="21.5888480"></trkpt>
    <trkpt lat="67.8540670" lon="21.5890773"></trkpt>
    <trkpt lat="67.8546680" lon="21.5893067"></trkpt>
    <trkpt lat="67.8552690" lon="21.5895360"></trkpt>
    <trkpt lat="67.8557185" lon="21.5896205"></trkpt>
    <trkpt lat="67.8561680" lon="21.5897050"></trkpt>
    <trkpt lat="67.8569220" lon="21.5897683"></trkpt>
    <trkpt lat="67.8576760" lon="21.5898317"></trkpt>
    <trkpt lat="67.8584300" lon="21.5898950"></trkpt>
    <trkpt lat="67.8591320" lon="21.5900015"></trkpt>
    <trkpt lat="67.8598340" lon="21.5901080"></trkpt>
    <trkpt lat="67.8602880" lon="21.5902290"></trkpt>
    <trkpt lat="67.8607520" lon="21.5904490"></trkpt>
    <trkpt lat="67.8615308" lon="21.5907258"></trkpt>
    <trkpt lat="67.8623095" lon="21.5910025"></trkpt>
    <trkpt lat="67.8630883" lon="21.5912792"></trkpt>
    <trkpt lat="67.8638670" lon="21.5915560"></trkpt>
    <trkpt lat="67.8646808" lon="21.5917495"></trkpt>
    <trkpt lat="67.8654945" lon="21.5919430"></trkpt>
    <trkpt lat="67.8663083" lon="21.5921365"></trkpt>
    <trkpt lat="67.8671220" lon="21.5923300"></trkpt>
    <trkpt lat="67.8679358" lon="21.5925235"></trkpt>
    <trkpt lat="67.8687495" lon="21.5927170"></trkpt>
    <trkpt lat="67.8695632" lon="21.5929105"></trkpt>
    <trkpt lat="67.8703770" lon="21.5931040"></trkpt>
    <trkpt lat="67.8712648" lon="21.5933030"></trkpt>
    <trkpt lat="67.8721526" lon="21.5935020"></trkpt>
    <trkpt lat="67.8730404" lon="21.5937010"></trkpt>
    <trkpt lat="67.8739282" lon="21.5939000"></trkpt>
    <trkpt lat="67.8748160" lon="21.5940990"></trkpt>
    <trkpt lat="67.8749600" lon="21.5941290"></trkpt>
    <trkpt lat="67.8757973" lon="21.5943180"></trkpt>
    <trkpt lat="67.8766345" lon="21.5945070"></trkpt>
    <trkpt lat="67.8774717" lon="21.5946960"></trkpt>
    <trkpt lat="67.8783090" lon="21.5948850"></trkpt>
    <trkpt lat="67.8791439" lon="21.5950773"></trkpt>
    <trkpt lat="67.8799788" lon="21.5952697"></trkpt>
    <trkpt lat="67.8808138" lon="21.5954620"></trkpt>
    <trkpt lat="67.8816487" lon="21.5956543"></trkpt>
    <trkpt lat="67.8824836" lon="21.5958467"></trkpt>
    <trkpt lat="67.8833185" lon="21.5960390"></trkpt>
    <trkpt lat="67.8841534" lon="21.5962313"></trkpt>
    <trkpt lat="67.8849883" lon="21.5964237"></trkpt>
    <trkpt lat="67.8858233" lon="21.5966160"></trkpt>
    <trkpt lat="67.8866582" lon="21.5968083"></trkpt>
    <trkpt lat="67.8874931" lon="21.5970007"></trkpt>
    <trkpt lat="67.8883280" lon="21.5971930"></trkpt>
    <trkpt lat="67.8889510" lon="21.5972497"></trkpt>
    <trkpt lat="67.8895740" lon="21.5973063"></trkpt>
    <trkpt lat="67.8901970" lon="21.5973630"></trkpt>
    <trkpt lat="67.8908077" lon="21.5973767"></trkpt>
    <trkpt lat="67.8914183" lon="21.5973903"></trkpt>
    <trkpt lat="67.8920290" lon="21.5974040"></trkpt>
    <trkpt lat="67.8926440" lon="21.5973323"></trkpt>
    <trkpt lat="67.8932590" lon="21.5972607"></trkpt>
    <trkpt lat="67.8938740" lon="21.5971890"></trkpt>
    <trkpt lat="67.8947053" lon="21.5969400"></trkpt>
    <trkpt lat="67.8955365" lon="21.5966910"></trkpt>
    <trkpt lat="67.8963677" lon="21.5964420"></trkpt>
    <trkpt lat="67.8971990" lon="21.5961930"></trkpt>
    <trkpt lat="67.8980280" lon="21.5958810"></trkpt>
    <trkpt lat="67.8988570" lon="21.5955690"></trkpt>
    <trkpt lat="67.8996800" lon="21.5953210"></trkpt>
    <trkpt lat="67.9005030" lon="21.5952480"></trkpt>
    <trkpt lat="67.9012642" lon="21.5954455"></trkpt>
    <trkpt lat="67.9020255" lon="21.5956430"></trkpt>
    <trkpt lat="67.9027868" lon="21.5958405"></trkpt>
    <trkpt lat="67.9035480" lon="21.5960380"></trkpt>
    <trkpt lat="67.9043075" lon="21.5962630"></trkpt>
    <trkpt lat="67.9050670" lon="21.5964880"></trkpt>
    <trkpt lat="67.9058100" lon="21.5967280"></trkpt>
    <trkpt lat="67.9065280" lon="21.5969530"></trkpt>
    <trkpt lat="67.9073002" lon="21.5971656"></trkpt>
    <trkpt lat="67.9080724" lon="21.5973782"></trkpt>
    <trkpt lat="67.9088446" lon="21.5975908"></trkpt>
    <trkpt lat="67.9096168" lon="21.5978034"></trkpt>
    <trkpt lat="67.9103890" lon="21.5980160"></trkpt>
    <trkpt lat="67.9112305" lon="21.5980690"></trkpt>
    <trkpt lat="67.9120720" lon="21.5981220"></trkpt>
    <trkpt lat="67.9129135" lon="21.5981750"></trkpt>
    <trkpt lat="67.9137550" lon="21.5982280"></trkpt>
    <trkpt lat="67.9145965" lon="21.5982810"></trkpt>
    <trkpt lat="67.9154380" lon="21.5983340"></trkpt>
    <trkpt lat="67.9162548" lon="21.5983064"></trkpt>
    <trkpt lat="67.9170716" lon="21.5982788"></trkpt>
    <trkpt lat="67.9178884" lon="21.5982512"></trkpt>
    <trkpt lat="67.9187052" lon="21.5982236"></trkpt>
    <trkpt lat="67.9195220" lon="21.5981960"></trkpt>
    <trkpt lat="67.9203934" lon="21.5982247"></trkpt>
    <trkpt lat="67.9212649" lon="21.5982534"></trkpt>
    <trkpt lat="67.9221363" lon="21.5982821"></trkpt>
    <trkpt lat="67.9230077" lon="21.5983109"></trkpt>
    <trkpt lat="67.9238791" lon="21.5983396"></trkpt>
    <trkpt lat="67.9247506" lon="21.5983683"></trkpt>
    <trkpt lat="67.9256220" lon="21.5983970"></trkpt>
    <trkpt lat="67.9264203" lon="21.5981640"></trkpt>
    <trkpt lat="67.9272187" lon="21.5979310"></trkpt>
    <trkpt lat="67.9280170" lon="21.5976980"></trkpt>
    <trkpt lat="67.9287613" lon="21.5974490"></trkpt>
    <trkpt lat="67.9295057" lon="21.5972000"></trkpt>
    <trkpt lat="67.9302500" lon="21.5969510"></trkpt>
    <trkpt lat="67.9307195" lon="21.5968695"></trkpt>
    <trkpt lat="67.9311890" lon="21.5967880"></trkpt>
    <trkpt lat="67.9316240" lon="21.5967910"></trkpt>
    <trkpt lat="67.9320630" lon="21.5968520"></trkpt>
    <trkpt lat="67.9328440" lon="21.5970420"></trkpt>
    <trkpt lat="67.9333800" lon="21.5972465"></trkpt>
    <trkpt lat="67.9339160" lon="21.5974510"></trkpt>
    <trkpt lat="67.9346363" lon="21.5976870"></trkpt>
    <trkpt lat="67.9353567" lon="21.5979230"></trkpt>
    <trkpt lat="67.9360770" lon="21.5981590"></trkpt>
    <trkpt lat="67.9368060" lon="21.5981540"></trkpt>
    <trkpt lat="67.9375350" lon="21.5981490"></trkpt>
    <trkpt lat="67.9382640" lon="21.5981440"></trkpt>
    <trkpt lat="67.9389930" lon="21.5981390"></trkpt>
    <trkpt lat="67.9397220" lon="21.5981340"></trkpt>
    <trkpt lat="67.9404996" lon="21.5981296"></trkpt>
    <trkpt lat="67.9412772" lon="21.5981252"></trkpt>
    <trkpt lat="67.9420548" lon="21.5981208"></trkpt>
    <trkpt lat="67.9428324" lon="21.5981164"></trkpt>
    <trkpt lat="67.9436100" lon="21.5981120"></trkpt>
    <trkpt lat="67.9442257" lon="21.5981013"></trkpt>
    <trkpt lat="67.9448413" lon="21.5980907"></trkpt>
    <trkpt lat="67.9454570" lon="21.5980800"></trkpt>
    <trkpt lat="67.9462830" lon="21.5981230"></trkpt>
    <trkpt lat="67.9469960" lon="21.5982520"></trkpt>
    <trkpt lat="67.9474650" lon="21.5983860"></trkpt>
    <trkpt lat="67.9482370" lon="21.5986710"></trkpt>
    <trkpt lat="67.9489400" lon="21.5990840"></trkpt>
    <trkpt lat="67.9496380" lon="21.5995690"></trkpt>
    <trkpt lat="67.9503720" lon="21.6001460"></trkpt>
    <trkpt lat="67.9510880" lon="21.6008200"></trkpt>
    <trkpt lat="67.9518040" lon="21.6014940"></trkpt>
    <trkpt lat="67.9525200" lon="21.6021680"></trkpt>
    <trkpt lat="67.9532240" lon="21.6028465"></trkpt>
    <trkpt lat="67.9539280" lon="21.6035250"></trkpt>
    <trkpt lat="67.9546395" lon="21.6041720"></trkpt>
    <trkpt lat="67.9553510" lon="21.6048190"></trkpt>
    <trkpt lat="67.9560720" lon="21.6053710"></trkpt>
    <trkpt lat="67.9567690" lon="21.6057840"></trkpt>
    <trkpt lat="67.9574740" lon="21.6060770"></trkpt>
    <trkpt lat="67.9578880" lon="21.6061540"></trkpt>
    <trkpt lat="67.9584230" lon="21.6062240"></trkpt>
    <trkpt lat="67.9591350" lon="21.6063280"></trkpt>
    <trkpt lat="67.9596590" lon="21.6062930"></trkpt>
    <trkpt lat="67.9605260" lon="21.6064640"></trkpt>
    <trkpt lat="67.9610060" lon="21.6066960"></trkpt>
    <trkpt lat="67.9613820" lon="21.6068750"></trkpt>
    <trkpt lat="67.9620640" lon="21.6074730"></trkpt>
    <trkpt lat="67.9626960" lon="21.6081380"></trkpt>
    <trkpt lat="67.9631875" lon="21.6088030"></trkpt>
    <trkpt lat="67.9636790" lon="21.6094680"></trkpt>
    <trkpt lat="67.9643670" lon="21.6105220"></trkpt>
    <trkpt lat="67.9650800" lon="21.6115190"></trkpt>
    <trkpt lat="67.9658365" lon="21.6122995"></trkpt>
    <trkpt lat="67.9665930" lon="21.6130800"></trkpt>
    <trkpt lat="67.9672030" lon="21.6136405"></trkpt>
    <trkpt lat="67.9678130" lon="21.6142010"></trkpt>
    <trkpt lat="67.9686000" lon="21.6151440"></trkpt>
    <trkpt lat="67.9693280" lon="21.6161590"></trkpt>
    <trkpt lat="67.9700750" lon="21.6173750"></trkpt>
    <trkpt lat="67.9706830" lon="21.6186560"></trkpt>
    <trkpt lat="67.9712370" lon="21.6197887"></trkpt>
    <trkpt lat="67.9717910" lon="21.6209213"></trkpt>
    <trkpt lat="67.9723450" lon="21.6220540"></trkpt>
    <trkpt lat="67.9727775" lon="21.6229265"></trkpt>
    <trkpt lat="67.9732100" lon="21.6237990"></trkpt>
    <trkpt lat="67.9737630" lon="21.6248040"></trkpt>
    <trkpt lat="67.9741860" lon="21.6254600"></trkpt>
    <trkpt lat="67.9746130" lon="21.6260450"></trkpt>
    <trkpt lat="67.9751785" lon="21.6267380"></trkpt>
    <trkpt lat="67.9757440" lon="21.6274310"></trkpt>
    <trkpt lat="67.9762030" lon="21.6280390"></trkpt>
    <trkpt lat="67.9766620" lon="21.6286470"></trkpt>
    <trkpt lat="67.9770530" lon="21.6292950"></trkpt>
    <trkpt lat="67.9774440" lon="21.6299430"></trkpt>
    <trkpt lat="67.9780737" lon="21.6311783"></trkpt>
    <trkpt lat="67.9787033" lon="21.6324137"></trkpt>
    <trkpt lat="67.9793330" lon="21.6336490"></trkpt>
    <trkpt lat="67.9799380" lon="21.6348365"></trkpt>
    <trkpt lat="67.9805430" lon="21.6360240"></trkpt>
    <trkpt lat="67.9810543" lon="21.6370110"></trkpt>
    <trkpt lat="67.9815657" lon="21.6379980"></trkpt>
    <trkpt lat="67.9820770" lon="21.6389850"></trkpt>
    <trkpt lat="67.9826595" lon="21.6399490"></trkpt>
    <trkpt lat="67.9832420" lon="21.6409130"></trkpt>
    <trkpt lat="67.9839800" lon="21.6418230"></trkpt>
    <trkpt lat="67.9846725" lon="21.6423590"></trkpt>
    <trkpt lat="67.9853650" lon="21.6428950"></trkpt>
    <trkpt lat="67.9860113" lon="21.6431940"></trkpt>
    <trkpt lat="67.9866577" lon="21.6434930"></trkpt>
    <trkpt lat="67.9873040" lon="21.6437920"></trkpt>
    <trkpt lat="67.9881372" lon="21.6441720"></trkpt>
    <trkpt lat="67.9889705" lon="21.6445520"></trkpt>
    <trkpt lat="67.9898038" lon="21.6449320"></trkpt>
    <trkpt lat="67.9906370" lon="21.6453120"></trkpt>
    <trkpt lat="67.9913788" lon="21.6456244"></trkpt>
    <trkpt lat="67.9921206" lon="21.6459368"></trkpt>
    <trkpt lat="67.9928624" lon="21.6462492"></trkpt>
    <trkpt lat="67.9936042" lon="21.6465616"></trkpt>
    <trkpt lat="67.9943460" lon="21.6468740"></trkpt>
    <trkpt lat="67.9948980" lon="21.6468740"></trkpt>
    <trkpt lat="67.9954500" lon="21.6468740"></trkpt>
    <trkpt lat="67.9961010" lon="21.6466500"></trkpt>
    <trkpt lat="67.9967520" lon="21.6464260"></trkpt>
    <trkpt lat="67.9972200" lon="21.6462155"></trkpt>
    <trkpt lat="67.9976880" lon="21.6460050"></trkpt>
    <trkpt lat="67.9981585" lon="21.6458690"></trkpt>
    <trkpt lat="67.9986290" lon="21.6457330"></trkpt>
    <trkpt lat="67.9991730" lon="21.6456785"></trkpt>
    <trkpt lat="67.9997170" lon="21.6456240"></trkpt>
    <trkpt lat="68.0002360" lon="21.6457870"></trkpt>
    <trkpt lat="68.0007550" lon="21.6459500"></trkpt>
    <trkpt lat="68.0012890" lon="21.6462760"></trkpt>
    <trkpt lat="68.0018230" lon="21.6466020"></trkpt>
    <trkpt lat="68.0023720" lon="21.6471520"></trkpt>
    <trkpt lat="68.0029210" lon="21.6477020"></trkpt>
    <trkpt lat="68.0036623" lon="21.6485370"></trkpt>
    <trkpt lat="68.0044035" lon="21.6493720"></trkpt>
    <trkpt lat="68.0051447" lon="21.6502070"></trkpt>
    <trkpt lat="68.0058860" lon="21.6510420"></trkpt>
    <trkpt lat="68.0065663" lon="21.6518280"></trkpt>
    <trkpt lat="68.0072467" lon="21.6526140"></trkpt>
    <trkpt lat="68.0079270" lon="21.6534000"></trkpt>
    <trkpt lat="68.0085105" lon="21.6540740"></trkpt>
    <trkpt lat="68.0090940" lon="21.6547480"></trkpt>
    <trkpt lat="68.0098007" lon="21.6557483"></trkpt>
    <trkpt lat="68.0105073" lon="21.6567487"></trkpt>
    <trkpt lat="68.0112140" lon="21.6577490"></trkpt>
    <trkpt lat="68.0118427" lon="21.6588533"></trkpt>
    <trkpt lat="68.0124713" lon="21.6599577"></trkpt>
    <trkpt lat="68.0131000" lon="21.6610620"></trkpt>
    <trkpt lat="68.0133680" lon="21.6616010"></trkpt>
    <trkpt lat="68.0134090" lon="21.6616840"></trkpt>
    <trkpt lat="68.0138850" lon="21.6626425"></trkpt>
    <trkpt lat="68.0143610" lon="21.6636010"></trkpt>
    <trkpt lat="68.0148615" lon="21.6647480"></trkpt>
    <trkpt lat="68.0153620" lon="21.6658950"></trkpt>
    <trkpt lat="68.0159642" lon="21.6673377"></trkpt>
    <trkpt lat="68.0165665" lon="21.6687805"></trkpt>
    <trkpt lat="68.0171687" lon="21.6702232"></trkpt>
    <trkpt lat="68.0177710" lon="21.6716660"></trkpt>
    <trkpt lat="68.0183415" lon="21.6727405"></trkpt>
    <trkpt lat="68.0189120" lon="21.6738150"></trkpt>
    <trkpt lat="68.0194400" lon="21.6747273"></trkpt>
    <trkpt lat="68.0199680" lon="21.6756397"></trkpt>
    <trkpt lat="68.0204960" lon="21.6765520"></trkpt>
    <trkpt lat="68.0210227" lon="21.6774443"></trkpt>
    <trkpt lat="68.0215493" lon="21.6783367"></trkpt>
    <trkpt lat="68.0220760" lon="21.6792290"></trkpt>
    <trkpt lat="68.0227247" lon="21.6803193"></trkpt>
    <trkpt lat="68.0233733" lon="21.6814097"></trkpt>
    <trkpt lat="68.0240220" lon="21.6825000"></trkpt>
    <trkpt lat="68.0246925" lon="21.6836473"></trkpt>
    <trkpt lat="68.0253630" lon="21.6847947"></trkpt>
    <trkpt lat="68.0260335" lon="21.6859420"></trkpt>
    <trkpt lat="68.0267040" lon="21.6870893"></trkpt>
    <trkpt lat="68.0273745" lon="21.6882367"></trkpt>
    <trkpt lat="68.0280450" lon="21.6893840"></trkpt>
    <trkpt lat="68.0286323" lon="21.6904030"></trkpt>
    <trkpt lat="68.0292197" lon="21.6914220"></trkpt>
    <trkpt lat="68.0298070" lon="21.6924410"></trkpt>
    <trkpt lat="68.0302540" lon="21.6932475"></trkpt>
    <trkpt lat="68.0307010" lon="21.6940540"></trkpt>
    <trkpt lat="68.0310830" lon="21.6948970"></trkpt>
    <trkpt lat="68.0314650" lon="21.6957400"></trkpt>
    <trkpt lat="68.0319760" lon="21.6971430"></trkpt>
    <trkpt lat="68.0325090" lon="21.6986740"></trkpt>
    <trkpt lat="68.0330867" lon="21.7003593"></trkpt>
    <trkpt lat="68.0336643" lon="21.7020447"></trkpt>
    <trkpt lat="68.0342420" lon="21.7037300"></trkpt>
    <trkpt lat="68.0346220" lon="21.7047725"></trkpt>
    <trkpt lat="68.0350020" lon="21.7058150"></trkpt>
    <trkpt lat="68.0354185" lon="21.7068115"></trkpt>
    <trkpt lat="68.0358350" lon="21.7078080"></trkpt>
    <trkpt lat="68.0365290" lon="21.7093020"></trkpt>
    <trkpt lat="68.0366690" lon="21.7095800"></trkpt>
    <trkpt lat="68.0371950" lon="21.7106940"></trkpt>
    <trkpt lat="68.0377725" lon="21.7116520"></trkpt>
    <trkpt lat="68.0383500" lon="21.7126100"></trkpt>
    <trkpt lat="68.0388620" lon="21.7133630"></trkpt>
    <trkpt lat="68.0393690" lon="21.7140060"></trkpt>
    <trkpt lat="68.0398920" lon="21.7146225"></trkpt>
    <trkpt lat="68.0404150" lon="21.7152390"></trkpt>
    <trkpt lat="68.0405830" lon="21.7154390"></trkpt>
    <trkpt lat="68.0408750" lon="21.7158670"></trkpt>
    <trkpt lat="68.0411400" lon="21.7163110"></trkpt>
    <trkpt lat="68.0415470" lon="21.7169950"></trkpt>
    <trkpt lat="68.0418870" lon="21.7176250"></trkpt>
    <trkpt lat="68.0422750" lon="21.7186050"></trkpt>
    <trkpt lat="68.0425560" lon="21.7194070"></trkpt>
    <trkpt lat="68.0427410" lon="21.7198510"></trkpt>
    <trkpt lat="68.0431240" lon="21.7211165"></trkpt>
    <trkpt lat="68.0435070" lon="21.7223820"></trkpt>
    <trkpt lat="68.0438345" lon="21.7238270"></trkpt>
    <trkpt lat="68.0441620" lon="21.7252720"></trkpt>
    <trkpt lat="68.0445350" lon="21.7274030"></trkpt>
    <trkpt lat="68.0446240" lon="21.7279860"></trkpt>
    <trkpt lat="68.0447240" lon="21.7288030"></trkpt>
    <trkpt lat="68.0448010" lon="21.7295910"></trkpt>
    <trkpt lat="68.0448580" lon="21.7302920"></trkpt>
    <trkpt lat="68.0448950" lon="21.7308100"></trkpt>
    <trkpt lat="68.0449190" lon="21.7312620"></trkpt>
    <trkpt lat="68.0449280" lon="21.7315310"></trkpt>
    <trkpt lat="68.0449330" lon="21.7320400"></trkpt>
    <trkpt lat="68.0449400" lon="21.7330530"></trkpt>
    <trkpt lat="68.0449230" lon="21.7337250"></trkpt>
    <trkpt lat="68.0449150" lon="21.7339370"></trkpt>
    <trkpt lat="68.0448920" lon="21.7345360"></trkpt>
    <trkpt lat="68.0448600" lon="21.7351410"></trkpt>
    <trkpt lat="68.0448200" lon="21.7356870"></trkpt>
    <trkpt lat="68.0447040" lon="21.7368540"></trkpt>
    <trkpt lat="68.0445610" lon="21.7379780"></trkpt>
    <trkpt lat="68.0443280" lon="21.7394270"></trkpt>
    <trkpt lat="68.0440410" lon="21.7410280"></trkpt>
    <trkpt lat="68.0438490" lon="21.7421590"></trkpt>
    <trkpt lat="68.0436790" lon="21.7431730"></trkpt>
    <trkpt lat="68.0436030" lon="21.7437210"></trkpt>
    <trkpt lat="68.0435260" lon="21.7442980"></trkpt>
    <trkpt lat="68.0434590" lon="21.7448930"></trkpt>
    <trkpt lat="68.0434040" lon="21.7455400"></trkpt>
    <trkpt lat="68.0433610" lon="21.7462800"></trkpt>
    <trkpt lat="68.0433340" lon="21.7468520"></trkpt>
    <trkpt lat="68.0433260" lon="21.7471840"></trkpt>
    <trkpt lat="68.0433260" lon="21.7474990"></trkpt>
    <trkpt lat="68.0433240" lon="21.7478780"></trkpt>
    <trkpt lat="68.0433300" lon="21.7482920"></trkpt>
    <trkpt lat="68.0433370" lon="21.7487760"></trkpt>
    <trkpt lat="68.0433500" lon="21.7492240"></trkpt>
    <trkpt lat="68.0433740" lon="21.7496330"></trkpt>
    <trkpt lat="68.0434040" lon="21.7500810"></trkpt>
    <trkpt lat="68.0434370" lon="21.7505420"></trkpt>
    <trkpt lat="68.0434700" lon="21.7509270"></trkpt>
    <trkpt lat="68.0435070" lon="21.7513230"></trkpt>
    <trkpt lat="68.0435720" lon="21.7518590"></trkpt>
    <trkpt lat="68.0436590" lon="21.7524540"></trkpt>
    <trkpt lat="68.0437570" lon="21.7530900"></trkpt>
    <trkpt lat="68.0438730" lon="21.7536840"></trkpt>
    <trkpt lat="68.0439620" lon="21.7540920"></trkpt>
    <trkpt lat="68.0440710" lon="21.7545290"></trkpt>
    <trkpt lat="68.0441950" lon="21.7549740"></trkpt>
    <trkpt lat="68.0442060" lon="21.7550140"></trkpt>
    <trkpt lat="68.0443240" lon="21.7554370"></trkpt>
    <trkpt lat="68.0444810" lon="21.7558960"></trkpt>
    <trkpt lat="68.0449440" lon="21.7572620"></trkpt>
    <trkpt lat="68.0454070" lon="21.7586280"></trkpt>
    <trkpt lat="68.0457810" lon="21.7596605"></trkpt>
    <trkpt lat="68.0461550" lon="21.7606930"></trkpt>
    <trkpt lat="68.0466170" lon="21.7616150"></trkpt>
    <trkpt lat="68.0469070" lon="21.7621520"></trkpt>
    <trkpt lat="68.0470420" lon="21.7623700"></trkpt>
    <trkpt lat="68.0469270" lon="21.7627570"></trkpt>
    <trkpt lat="68.0467760" lon="21.7635520"></trkpt>
    <trkpt lat="68.0466560" lon="21.7642920"></trkpt>
    <trkpt lat="68.0465590" lon="21.7648690"></trkpt>
    <trkpt lat="68.0465180" lon="21.7652960"></trkpt>
    <trkpt lat="68.0464840" lon="21.7657050"></trkpt>
    <trkpt lat="68.0464700" lon="21.7660890"></trkpt>
    <trkpt lat="68.0464640" lon="21.7664060"></trkpt>
    <trkpt lat="68.0464590" lon="21.7670230"></trkpt>
    <trkpt lat="68.0464810" lon="21.7675150"></trkpt>
    <trkpt lat="68.0465160" lon="21.7679540"></trkpt>
    <trkpt lat="68.0465540" lon="21.7682850"></trkpt>
    <trkpt lat="68.0466030" lon="21.7685940"></trkpt>
    <trkpt lat="68.0466840" lon="21.7690460"></trkpt>
    <trkpt lat="68.0468710" lon="21.7699980"></trkpt>
    <trkpt lat="68.0471035" lon="21.7710445"></trkpt>
    <trkpt lat="68.0473360" lon="21.7720910"></trkpt>
    <trkpt lat="68.0473610" lon="21.7722030"></trkpt>
    <trkpt lat="68.0475220" lon="21.7729290"></trkpt>
    <trkpt lat="68.0478600" lon="21.7744470"></trkpt>
    <trkpt lat="68.0482200" lon="21.7759730"></trkpt>
    <trkpt lat="68.0486720" lon="21.7774670"></trkpt>
    <trkpt lat="68.0489810" lon="21.7783600"></trkpt>
    <trkpt lat="68.0492900" lon="21.7792530"></trkpt>
    <trkpt lat="68.0495000" lon="21.7798480"></trkpt>
    <trkpt lat="68.0497720" lon="21.7806420"></trkpt>
    <trkpt lat="68.0502010" lon="21.7818890"></trkpt>
    <trkpt lat="68.0505060" lon="21.7827740"></trkpt>
    <trkpt lat="68.0508360" lon="21.7837350"></trkpt>
    <trkpt lat="68.0514350" lon="21.7855090"></trkpt>
    <trkpt lat="68.0516060" lon="21.7862120"></trkpt>
    <trkpt lat="68.0516950" lon="21.7868370"></trkpt>
    <trkpt lat="68.0517030" lon="21.7872930"></trkpt>
    <trkpt lat="68.0517030" lon="21.7878350"></trkpt>
    <trkpt lat="68.0516510" lon="21.7884950"></trkpt>
    <trkpt lat="68.0516010" lon="21.7889540"></trkpt>
    <trkpt lat="68.0515730" lon="21.7894150"></trkpt>
    <trkpt lat="68.0515740" lon="21.7896450"></trkpt>
    <trkpt lat="68.0516710" lon="21.7908120"></trkpt>
    <trkpt lat="68.0518135" lon="21.7922445"></trkpt>
    <trkpt lat="68.0519560" lon="21.7936770"></trkpt>
    <trkpt lat="68.0520780" lon="21.7947670"></trkpt>
    <trkpt lat="68.0522200" lon="21.7958110"></trkpt>
    <trkpt lat="68.0523710" lon="21.7968560"></trkpt>
    <trkpt lat="68.0525240" lon="21.7979190"></trkpt>
    <trkpt lat="68.0526440" lon="21.7987420"></trkpt>
    <trkpt lat="68.0526970" lon="21.7991500"></trkpt>
    <trkpt lat="68.0527320" lon="21.7995190"></trkpt>
    <trkpt lat="68.0527560" lon="21.7998720"></trkpt>
    <trkpt lat="68.0527770" lon="21.8010050"></trkpt>
    <trkpt lat="68.0527880" lon="21.8028870"></trkpt>
    <trkpt lat="68.0528065" lon="21.8045700"></trkpt>
    <trkpt lat="68.0528250" lon="21.8062530"></trkpt>
    <trkpt lat="68.0528475" lon="21.8079575"></trkpt>
    <trkpt lat="68.0528700" lon="21.8096620"></trkpt>
    <trkpt lat="68.0528890" lon="21.8112740"></trkpt>
    <trkpt lat="68.0528980" lon="21.8131250"></trkpt>
    <trkpt lat="68.0528800" lon="21.8141810"></trkpt>
    <trkpt lat="68.0528680" lon="21.8145700"></trkpt>
    <trkpt lat="68.0528530" lon="21.8148610"></trkpt>
    <trkpt lat="68.0527415" lon="21.8169250"></trkpt>
    <trkpt lat="68.0526300" lon="21.8189890"></trkpt>
    <trkpt lat="68.0525185" lon="21.8210530"></trkpt>
    <trkpt lat="68.0524070" lon="21.8231170"></trkpt>
    <trkpt lat="68.0522955" lon="21.8251810"></trkpt>
    <trkpt lat="68.0521840" lon="21.8272450"></trkpt>
    <trkpt lat="68.0521900" lon="21.8279320"></trkpt>
    <trkpt lat="68.0522420" lon="21.8284720"></trkpt>
    <trkpt lat="68.0523500" lon="21.8289980"></trkpt>
    <trkpt lat="68.0528370" lon="21.8309270"></trkpt>
    <trkpt lat="68.0531425" lon="21.8321235"></trkpt>
    <trkpt lat="68.0534480" lon="21.8333200"></trkpt>
    <trkpt lat="68.0535410" lon="21.8337960"></trkpt>
    <trkpt lat="68.0536070" lon="21.8346870"></trkpt>
    <trkpt lat="68.0537150" lon="21.8365420"></trkpt>
    <trkpt lat="68.0537930" lon="21.8384850"></trkpt>
    <trkpt lat="68.0538080" lon="21.8391910"></trkpt>
    <trkpt lat="68.0537760" lon="21.8399430"></trkpt>
    <trkpt lat="68.0536380" lon="21.8420245"></trkpt>
    <trkpt lat="68.0535000" lon="21.8441060"></trkpt>
    <trkpt lat="68.0534530" lon="21.8447570"></trkpt>
    <trkpt lat="68.0533240" lon="21.8458240"></trkpt>
    <trkpt lat="68.0529850" lon="21.8477360"></trkpt>
    <trkpt lat="68.0528130" lon="21.8486920"></trkpt>
    <trkpt lat="68.0525420" lon="21.8504010"></trkpt>
    <trkpt lat="68.0524990" lon="21.8508030"></trkpt>
    <trkpt lat="68.0524230" lon="21.8524290"></trkpt>
    <trkpt lat="68.0523513" lon="21.8543213"></trkpt>
    <trkpt lat="68.0522797" lon="21.8562137"></trkpt>
    <trkpt lat="68.0522080" lon="21.8581060"></trkpt>
    <trkpt lat="68.0521420" lon="21.8588330"></trkpt>
    <trkpt lat="68.0519010" lon="21.8609330"></trkpt>
    <trkpt lat="68.0518580" lon="21.8616350"></trkpt>
    <trkpt lat="68.0518790" lon="21.8623370"></trkpt>
    <trkpt lat="68.0520160" lon="21.8644740"></trkpt>
    <trkpt lat="68.0521530" lon="21.8666110"></trkpt>
    <trkpt lat="68.0522900" lon="21.8687480"></trkpt>
    <trkpt lat="68.0523060" lon="21.8694720"></trkpt>
    <trkpt lat="68.0522280" lon="21.8712080"></trkpt>
    <trkpt lat="68.0521050" lon="21.8731960"></trkpt>
    <trkpt lat="68.0519887" lon="21.8751913"></trkpt>
    <trkpt lat="68.0518723" lon="21.8771867"></trkpt>
    <trkpt lat="68.0517560" lon="21.8791820"></trkpt>
    <trkpt lat="68.0516395" lon="21.8810735"></trkpt>
    <trkpt lat="68.0515230" lon="21.8829650"></trkpt>
    <trkpt lat="68.0513827" lon="21.8845270"></trkpt>
    <trkpt lat="68.0512423" lon="21.8860890"></trkpt>
    <trkpt lat="68.0511020" lon="21.8876510"></trkpt>
    <trkpt lat="68.0509420" lon="21.8893840"></trkpt>
    <trkpt lat="68.0507820" lon="21.8911170"></trkpt>
    <trkpt lat="68.0506220" lon="21.8928500"></trkpt>
    <trkpt lat="68.0504665" lon="21.8939815"></trkpt>
    <trkpt lat="68.0503110" lon="21.8951130"></trkpt>
    <trkpt lat="68.0500620" lon="21.8963790"></trkpt>
    <trkpt lat="68.0498740" lon="21.8969990"></trkpt>
    <trkpt lat="68.0493290" lon="21.8985960"></trkpt>
    <trkpt lat="68.0491400" lon="21.8991910"></trkpt>
    <trkpt lat="68.0490030" lon="21.8998920"></trkpt>
    <trkpt lat="68.0489210" lon="21.9005320"></trkpt>
    <trkpt lat="68.0488950" lon="21.9012060"></trkpt>
    <trkpt lat="68.0488980" lon="21.9016490"></trkpt>
    <trkpt lat="68.0489120" lon="21.9027650"></trkpt>
    <trkpt lat="68.0489320" lon="21.9039730"></trkpt>
    <trkpt lat="68.0489867" lon="21.9062709"></trkpt>
    <trkpt lat="68.0490414" lon="21.9085687"></trkpt>
    <trkpt lat="68.0490961" lon="21.9108666"></trkpt>
    <trkpt lat="68.0491509" lon="21.9131644"></trkpt>
    <trkpt lat="68.0492056" lon="21.9154623"></trkpt>
    <trkpt lat="68.0492603" lon="21.9177601"></trkpt>
    <trkpt lat="68.0493150" lon="21.9200580"></trkpt>
    <trkpt lat="68.0493250" lon="21.9209510"></trkpt>
    <trkpt lat="68.0493150" lon="21.9213710"></trkpt>
    <trkpt lat="68.0492820" lon="21.9217940"></trkpt>
    <trkpt lat="68.0492230" lon="21.9227080"></trkpt>
    <trkpt lat="68.0491180" lon="21.9237800"></trkpt>
    <trkpt lat="68.0489532" lon="21.9257595"></trkpt>
    <trkpt lat="68.0487883" lon="21.9277390"></trkpt>
    <trkpt lat="68.0486235" lon="21.9297185"></trkpt>
    <trkpt lat="68.0484587" lon="21.9316980"></trkpt>
    <trkpt lat="68.0482938" lon="21.9336775"></trkpt>
    <trkpt lat="68.0481290" lon="21.9356570"></trkpt>
    <trkpt lat="68.0481080" lon="21.9359180"></trkpt>
    <trkpt lat="68.0480970" lon="21.9360490"></trkpt>
    <trkpt lat="68.0479730" lon="21.9377340"></trkpt>
    <trkpt lat="68.0478577" lon="21.9395952"></trkpt>
    <trkpt lat="68.0477425" lon="21.9414565"></trkpt>
    <trkpt lat="68.0476273" lon="21.9433177"></trkpt>
    <trkpt lat="68.0475120" lon="21.9451790"></trkpt>
    <trkpt lat="68.0474830" lon="21.9455910"></trkpt>
    <trkpt lat="68.0473800" lon="21.9472925"></trkpt>
    <trkpt lat="68.0472770" lon="21.9489940"></trkpt>
    <trkpt lat="68.0471520" lon="21.9507500"></trkpt>
    <trkpt lat="68.0470680" lon="21.9523380"></trkpt>
    <trkpt lat="68.0470940" lon="21.9528340"></trkpt>
    <trkpt lat="68.0471450" lon="21.9534960"></trkpt>
    <trkpt lat="68.0472803" lon="21.9551077"></trkpt>
    <trkpt lat="68.0474157" lon="21.9567193"></trkpt>
    <trkpt lat="68.0475510" lon="21.9583310"></trkpt>
    <trkpt lat="68.0475740" lon="21.9590170"></trkpt>
    <trkpt lat="68.0476120" lon="21.9594610"></trkpt>
    <trkpt lat="68.0476410" lon="21.9601180"></trkpt>
    <trkpt lat="68.0476020" lon="21.9620400"></trkpt>
    <trkpt lat="68.0475990" lon="21.9622000"></trkpt>
    <trkpt lat="68.0474910" lon="21.9635610"></trkpt>
    <trkpt lat="68.0473760" lon="21.9645760"></trkpt>
    <trkpt lat="68.0474360" lon="21.9658100"></trkpt>
    <trkpt lat="68.0474710" lon="21.9665410"></trkpt>
    <trkpt lat="68.0475050" lon="21.9675850"></trkpt>
    <trkpt lat="68.0475090" lon="21.9677080"></trkpt>
    <trkpt lat="68.0475150" lon="21.9678980"></trkpt>
    <trkpt lat="68.0470995" lon="21.9684925"></trkpt>
    <trkpt lat="68.0466840" lon="21.9690870"></trkpt>
  </trkseg></trk>
</gpx>
