<?xml version="1.0" encoding="UTF-8"?>
<gpx version="1.1" creator="pilegrimsleden-osm-extractor 1.0" xmlns="http://www.topografix.com/GPX/1/1">
  <trk><name>Pilgrimsled Hjo - Kungslena</name><trkseg>
    <trkpt lat="58.3010568" lon="14.2881047"></trkpt>
    <trkpt lat="58.3009107" lon="14.2880518"></trkpt>
    <trkpt lat="58.3005487" lon="14.2879289"></trkpt>
    <trkpt lat="58.3004677" lon="14.2878914"></trkpt>
    <trkpt lat="58.3002781" lon="14.2877948"></trkpt>
    <trkpt lat="58.3001379" lon="14.2876956"></trkpt>
    <trkpt lat="58.3000350" lon="14.2876004"></trkpt>
    <trkpt lat="58.2998366" lon="14.2874026"></trkpt>
    <trkpt lat="58.2994219" lon="14.2869365"></trkpt>
    <trkpt lat="58.2990347" lon="14.2864832"></trkpt>
    <trkpt lat="58.2990096" lon="14.2865235"></trkpt>
    <trkpt lat="58.2989681" lon="14.2865553"></trkpt>
    <trkpt lat="58.2988616" lon="14.2864592"></trkpt>
    <trkpt lat="58.2987545" lon="14.2863625"></trkpt>
    <trkpt lat="58.2984261" lon="14.2859817"></trkpt>
    <trkpt lat="58.2983000" lon="14.2858758"></trkpt>
    <trkpt lat="58.2982471" lon="14.2858314"></trkpt>
    <trkpt lat="58.2977552" lon="14.2854345"></trkpt>
    <trkpt lat="58.2973309" lon="14.2851166"></trkpt>
    <trkpt lat="58.2969066" lon="14.2847988"></trkpt>
    <trkpt lat="58.2964697" lon="14.2845386"></trkpt>
    <trkpt lat="58.2963188" lon="14.2844608"></trkpt>
    <trkpt lat="58.2956930" lon="14.2840263"></trkpt>
    <trkpt lat="58.2952997" lon="14.2838949"></trkpt>
    <trkpt lat="58.2947232" lon="14.2836884"></trkpt>
    <trkpt lat="58.2945625" lon="14.2835408"></trkpt>
    <trkpt lat="58.2942636" lon="14.2833531"></trkpt>
    <trkpt lat="58.2939789" lon="14.2830902"></trkpt>
    <trkpt lat="58.2935144" lon="14.2827992"></trkpt>
    <trkpt lat="58.2930499" lon="14.2825082"></trkpt>
    <trkpt lat="58.2925362" lon="14.2821926"></trkpt>
    <trkpt lat="58.2925128" lon="14.2821783"></trkpt>
    <trkpt lat="58.2921843" lon="14.2819422"></trkpt>
    <trkpt lat="58.2919771" lon="14.2816955"></trkpt>
    <trkpt lat="58.2918712" lon="14.2814194"></trkpt>
    <trkpt lat="58.2918299" lon="14.2814518"></trkpt>
    <trkpt lat="58.2917454" lon="14.2814800"></trkpt>
    <trkpt lat="58.2916054" lon="14.2814359"></trkpt>
    <trkpt lat="58.2913409" lon="14.2813181"></trkpt>
    <trkpt lat="58.2906909" lon="14.2810319"></trkpt>
    <trkpt lat="58.2906050" lon="14.2809988"></trkpt>
    <trkpt lat="58.2903223" lon="14.2808118"></trkpt>
    <trkpt lat="58.2901265" lon="14.2806643"></trkpt>
    <trkpt lat="58.2898889" lon="14.2805043"></trkpt>
    <trkpt lat="58.2896131" lon="14.2803437"></trkpt>
    <trkpt lat="58.2893598" lon="14.2802473"></trkpt>
    <trkpt lat="58.2889771" lon="14.2801296"></trkpt>
    <trkpt lat="58.2888566" lon="14.2800874"></trkpt>
    <trkpt lat="58.2887477" lon="14.2800121"></trkpt>
    <trkpt lat="58.2886534" lon="14.2798933"></trkpt>
    <trkpt lat="58.2884526" lon="14.2794855"></trkpt>
    <trkpt lat="58.2881991" lon="14.2789684"></trkpt>
    <trkpt lat="58.2880593" lon="14.2787535"></trkpt>
    <trkpt lat="58.2879303" lon="14.2785834"></trkpt>
    <trkpt lat="58.2876576" lon="14.2783269"></trkpt>
    <trkpt lat="58.2876262" lon="14.2783051"></trkpt>
    <trkpt lat="58.2874909" lon="14.2782112"></trkpt>
    <trkpt lat="58.2872741" lon="14.2780875"></trkpt>
    <trkpt lat="58.2870208" lon="14.2779391"></trkpt>
    <trkpt lat="58.2863729" lon="14.2776775"></trkpt>
    <trkpt lat="58.2855269" lon="14.2773396"></trkpt>
    <trkpt lat="58.2849253" lon="14.2771591"></trkpt>
    <trkpt lat="58.2843236" lon="14.2769786"></trkpt>
    <trkpt lat="58.2837220" lon="14.2767981"></trkpt>
    <trkpt lat="58.2834766" lon="14.2767580"></trkpt>
    <trkpt lat="58.2831535" lon="14.2767460"></trkpt>
    <trkpt lat="58.2827962" lon="14.2767451"></trkpt>
    <trkpt lat="58.2821620" lon="14.2767888"></trkpt>
    <trkpt lat="58.2815279" lon="14.2768326"></trkpt>
    <trkpt lat="58.2813065" lon="14.2768809"></trkpt>
    <trkpt lat="58.2810372" lon="14.2769989"></trkpt>
    <trkpt lat="58.2804211" lon="14.2772706"></trkpt>
    <trkpt lat="58.2800777" lon="14.2773670"></trkpt>
    <trkpt lat="58.2798131" lon="14.2773991"></trkpt>
    <trkpt lat="58.2795316" lon="14.2773991"></trkpt>
    <trkpt lat="58.2790305" lon="14.2773028"></trkpt>
    <trkpt lat="58.2784563" lon="14.2771100"></trkpt>
    <trkpt lat="58.2779665" lon="14.2768156"></trkpt>
    <trkpt lat="58.2774849" lon="14.2764928"></trkpt>
    <trkpt lat="58.2772663" lon="14.2763241"></trkpt>
    <trkpt lat="58.2771501" lon="14.2761874"></trkpt>
    <trkpt lat="58.2770989" lon="14.2761271"></trkpt>
    <trkpt lat="58.2768689" lon="14.2757245"></trkpt>
    <trkpt lat="58.2767060" lon="14.2753897"></trkpt>
    <trkpt lat="58.2765195" lon="14.2750567"></trkpt>
    <trkpt lat="58.2761535" lon="14.2744598"></trkpt>
    <trkpt lat="58.2756919" lon="14.2737585"></trkpt>
    <trkpt lat="58.2756848" lon="14.2737430"></trkpt>
    <trkpt lat="58.2753822" lon="14.2730840"></trkpt>
    <trkpt lat="58.2751063" lon="14.2724308"></trkpt>
    <trkpt lat="58.2747741" lon="14.2717027"></trkpt>
    <trkpt lat="58.2745151" lon="14.2712530"></trkpt>
    <trkpt lat="58.2740027" lon="14.2705677"></trkpt>
    <trkpt lat="58.2734903" lon="14.2698824"></trkpt>
    <trkpt lat="58.2730229" lon="14.2692935"></trkpt>
    <trkpt lat="58.2724599" lon="14.2686831"></trkpt>
    <trkpt lat="58.2721756" lon="14.2683308"></trkpt>
    <trkpt lat="58.2718654" lon="14.2680213"></trkpt>
    <trkpt lat="58.2715897" lon="14.2677405"></trkpt>
    <trkpt lat="58.2711958" lon="14.2673321"></trkpt>
    <trkpt lat="58.2709406" lon="14.2670592"></trkpt>
    <trkpt lat="58.2705737" lon="14.2667103"></trkpt>
    <trkpt lat="58.2703283" lon="14.2665365"></trkpt>
    <trkpt lat="58.2698325" lon="14.2662787"></trkpt>
    <trkpt lat="58.2691713" lon="14.2659527"></trkpt>
    <trkpt lat="58.2686396" lon="14.2656654"></trkpt>
    <trkpt lat="58.2681078" lon="14.2653781"></trkpt>
    <trkpt lat="58.2676397" lon="14.2651214"></trkpt>
    <trkpt lat="58.2674948" lon="14.2650019"></trkpt>
    <trkpt lat="58.2674468" lon="14.2650511"></trkpt>
    <trkpt lat="58.2672344" lon="14.2651169"></trkpt>
    <trkpt lat="58.2664727" lon="14.2658202"></trkpt>
    <trkpt lat="58.2661809" lon="14.2661141"></trkpt>
    <trkpt lat="58.2659708" lon="14.2663392"></trkpt>
    <trkpt lat="58.2652761" lon="14.2670835"></trkpt>
    <trkpt lat="58.2645814" lon="14.2678278"></trkpt>
    <trkpt lat="58.2638063" lon="14.2686582"></trkpt>
    <trkpt lat="58.2630311" lon="14.2694887"></trkpt>
    <trkpt lat="58.2629092" lon="14.2695660"></trkpt>
    <trkpt lat="58.2620749" lon="14.2694388"></trkpt>
    <trkpt lat="58.2612407" lon="14.2693116"></trkpt>
    <trkpt lat="58.2604064" lon="14.2691844"></trkpt>
    <trkpt lat="58.2595721" lon="14.2690572"></trkpt>
    <trkpt lat="58.2587379" lon="14.2689301"></trkpt>
    <trkpt lat="58.2579036" lon="14.2688029"></trkpt>
    <trkpt lat="58.2570694" lon="14.2686757"></trkpt>
    <trkpt lat="58.2562351" lon="14.2685485"></trkpt>
    <trkpt lat="58.2554174" lon="14.2685227"></trkpt>
    <trkpt lat="58.2545997" lon="14.2684970"></trkpt>
    <trkpt lat="58.2537820" lon="14.2684712"></trkpt>
    <trkpt lat="58.2535719" lon="14.2683940"></trkpt>
    <trkpt lat="58.2527782" lon="14.2676884"></trkpt>
    <trkpt lat="58.2519845" lon="14.2669827"></trkpt>
    <trkpt lat="58.2511909" lon="14.2662771"></trkpt>
    <trkpt lat="58.2503972" lon="14.2655714"></trkpt>
    <trkpt lat="58.2496035" lon="14.2648658"></trkpt>
    <trkpt lat="58.2492548" lon="14.2645558"></trkpt>
    <trkpt lat="58.2491702" lon="14.2643951"></trkpt>
    <trkpt lat="58.2491577" lon="14.2642268"></trkpt>
    <trkpt lat="58.2491706" lon="14.2640371"></trkpt>
    <trkpt lat="58.2492186" lon="14.2636405"></trkpt>
    <trkpt lat="58.2492304" lon="14.2634476"></trkpt>
    <trkpt lat="58.2492498" lon="14.2632841"></trkpt>
    <trkpt lat="58.2492127" lon="14.2632278"></trkpt>
    <trkpt lat="58.2490963" lon="14.2630319"></trkpt>
    <trkpt lat="58.2490186" lon="14.2629176"></trkpt>
    <trkpt lat="58.2489748" lon="14.2627926"></trkpt>
    <trkpt lat="58.2489785" lon="14.2626069"></trkpt>
    <trkpt lat="58.2490113" lon="14.2623483"></trkpt>
    <trkpt lat="58.2490956" lon="14.2617111"></trkpt>
    <trkpt lat="58.2491207" lon="14.2610150"></trkpt>
    <trkpt lat="58.2491177" lon="14.2609947"></trkpt>
    <trkpt lat="58.2491307" lon="14.2608800"></trkpt>
    <trkpt lat="58.2491985" lon="14.2605902"></trkpt>
    <trkpt lat="58.2494765" lon="14.2595304"></trkpt>
    <trkpt lat="58.2497546" lon="14.2584705"></trkpt>
    <trkpt lat="58.2500326" lon="14.2574107"></trkpt>
    <trkpt lat="58.2503790" lon="14.2561028"></trkpt>
    <trkpt lat="58.2507253" lon="14.2547949"></trkpt>
    <trkpt lat="58.2510717" lon="14.2534869"></trkpt>
    <trkpt lat="58.2514181" lon="14.2521790"></trkpt>
    <trkpt lat="58.2517644" lon="14.2508711"></trkpt>
    <trkpt lat="58.2521108" lon="14.2495632"></trkpt>
    <trkpt lat="58.2521263" lon="14.2494299"></trkpt>
    <trkpt lat="58.2524516" lon="14.2484768"></trkpt>
    <trkpt lat="58.2529813" lon="14.2474552"></trkpt>
    <trkpt lat="58.2535110" lon="14.2464336"></trkpt>
    <trkpt lat="58.2540407" lon="14.2454119"></trkpt>
    <trkpt lat="58.2545704" lon="14.2443903"></trkpt>
    <trkpt lat="58.2551001" lon="14.2433687"></trkpt>
    <trkpt lat="58.2556057" lon="14.2423958"></trkpt>
    <trkpt lat="58.2561113" lon="14.2414228"></trkpt>
    <trkpt lat="58.2562467" lon="14.2411572"></trkpt>
    <trkpt lat="58.2562773" lon="14.2410944"></trkpt>
    <trkpt lat="58.2563081" lon="14.2410292"></trkpt>
    <trkpt lat="58.2565214" lon="14.2406230"></trkpt>
    <trkpt lat="58.2567896" lon="14.2400706"></trkpt>
    <trkpt lat="58.2572310" lon="14.2391691"></trkpt>
    <trkpt lat="58.2571710" lon="14.2390229"></trkpt>
    <trkpt lat="58.2575337" lon="14.2386447"></trkpt>
    <trkpt lat="58.2575923" lon="14.2385361"></trkpt>
    <trkpt lat="58.2577235" lon="14.2382357"></trkpt>
    <trkpt lat="58.2581405" lon="14.2370260"></trkpt>
    <trkpt lat="58.2583047" lon="14.2364082"></trkpt>
    <trkpt lat="58.2584354" lon="14.2359263"></trkpt>
    <trkpt lat="58.2586612" lon="14.2350063"></trkpt>
    <trkpt lat="58.2587599" lon="14.2345235"></trkpt>
    <trkpt lat="58.2588255" lon="14.2340487"></trkpt>
    <trkpt lat="58.2589250" lon="14.2331555"></trkpt>
    <trkpt lat="58.2590153" lon="14.2324984"></trkpt>
    <trkpt lat="58.2590633" lon="14.2321283"></trkpt>
    <trkpt lat="58.2591409" lon="14.2315234"></trkpt>
    <trkpt lat="58.2591995" lon="14.2309628"></trkpt>
    <trkpt lat="58.2592482" lon="14.2303164"></trkpt>
    <trkpt lat="58.2593490" lon="14.2295855"></trkpt>
    <trkpt lat="58.2594394" lon="14.2291242"></trkpt>
    <trkpt lat="58.2595805" lon="14.2285341"></trkpt>
    <trkpt lat="58.2596828" lon="14.2280862"></trkpt>
    <trkpt lat="58.2598147" lon="14.2274934"></trkpt>
    <trkpt lat="58.2598965" lon="14.2271152"></trkpt>
    <trkpt lat="58.2601237" lon="14.2261416"></trkpt>
    <trkpt lat="58.2602260" lon="14.2256749"></trkpt>
    <trkpt lat="58.2604355" lon="14.2248501"></trkpt>
    <trkpt lat="58.2606037" lon="14.2241771"></trkpt>
    <trkpt lat="58.2606648" lon="14.2239577"></trkpt>
    <trkpt lat="58.2607201" lon="14.2238084"></trkpt>
    <trkpt lat="58.2608316" lon="14.2235650"></trkpt>
    <trkpt lat="58.2612719" lon="14.2226101"></trkpt>
    <trkpt lat="58.2616623" lon="14.2218311"></trkpt>
    <trkpt lat="58.2620526" lon="14.2210522"></trkpt>
    <trkpt lat="58.2625697" lon="14.2199951"></trkpt>
    <trkpt lat="58.2630869" lon="14.2189379"></trkpt>
    <trkpt lat="58.2631853" lon="14.2187367"></trkpt>
    <trkpt lat="58.2636547" lon="14.2178665"></trkpt>
    <trkpt lat="58.2637856" lon="14.2176066"></trkpt>
    <trkpt lat="58.2640767" lon="14.2169534"></trkpt>
    <trkpt lat="58.2644158" lon="14.2162603"></trkpt>
    <trkpt lat="58.2644881" lon="14.2160794"></trkpt>
    <trkpt lat="58.2645507" lon="14.2158823"></trkpt>
    <trkpt lat="58.2646259" lon="14.2155919"></trkpt>
    <trkpt lat="58.2646975" lon="14.2153151"></trkpt>
    <trkpt lat="58.2648735" lon="14.2146944"></trkpt>
    <trkpt lat="58.2649106" lon="14.2145635"></trkpt>
    <trkpt lat="58.2649816" lon="14.2143580"></trkpt>
    <trkpt lat="58.2651379" lon="14.2139063"></trkpt>
    <trkpt lat="58.2653499" lon="14.2133385"></trkpt>
    <trkpt lat="58.2655355" lon="14.2128632"></trkpt>
    <trkpt lat="58.2656075" lon="14.2127084"></trkpt>
    <trkpt lat="58.2656908" lon="14.2125607"></trkpt>
    <trkpt lat="58.2657666" lon="14.2124167"></trkpt>
    <trkpt lat="58.2658329" lon="14.2122583"></trkpt>
    <trkpt lat="58.2658878" lon="14.2120926"></trkpt>
    <trkpt lat="58.2659787" lon="14.2117794"></trkpt>
    <trkpt lat="58.2660923" lon="14.2113581"></trkpt>
    <trkpt lat="58.2661671" lon="14.2111168"></trkpt>
    <trkpt lat="58.2662159" lon="14.2109548"></trkpt>
    <trkpt lat="58.2662838" lon="14.2106157"></trkpt>
    <trkpt lat="58.2663283" lon="14.2102772"></trkpt>
    <trkpt lat="58.2663501" lon="14.2099361"></trkpt>
    <trkpt lat="58.2663572" lon="14.2098694"></trkpt>
    <trkpt lat="58.2663998" lon="14.2094725"></trkpt>
    <trkpt lat="58.2664364" lon="14.2092699"></trkpt>
    <trkpt lat="58.2665220" lon="14.2089229"></trkpt>
    <trkpt lat="58.2666724" lon="14.2084776"></trkpt>
    <trkpt lat="58.2668419" lon="14.2082178"></trkpt>
    <trkpt lat="58.2670012" lon="14.2079823"></trkpt>
    <trkpt lat="58.2672500" lon="14.2074504"></trkpt>
    <trkpt lat="58.2675373" lon="14.2068137"></trkpt>
    <trkpt lat="58.2675975" lon="14.2066688"></trkpt>
    <trkpt lat="58.2676372" lon="14.2062717"></trkpt>
    <trkpt lat="58.2676845" lon="14.2060689"></trkpt>
    <trkpt lat="58.2677245" lon="14.2058177"></trkpt>
    <trkpt lat="58.2677100" lon="14.2056218"></trkpt>
    <trkpt lat="58.2676555" lon="14.2054349"></trkpt>
    <trkpt lat="58.2675706" lon="14.2052807"></trkpt>
    <trkpt lat="58.2674540" lon="14.2051276"></trkpt>
    <trkpt lat="58.2673584" lon="14.2049747"></trkpt>
    <trkpt lat="58.2672325" lon="14.2046497"></trkpt>
    <trkpt lat="58.2672363" lon="14.2041368"></trkpt>
    <trkpt lat="58.2672927" lon="14.2037506"></trkpt>
    <trkpt lat="58.2672363" lon="14.2032356"></trkpt>
    <trkpt lat="58.2671460" lon="14.2027421"></trkpt>
    <trkpt lat="58.2671347" lon="14.2022914"></trkpt>
    <trkpt lat="58.2670219" lon="14.2017335"></trkpt>
    <trkpt lat="58.2669316" lon="14.2011327"></trkpt>
    <trkpt lat="58.2668413" lon="14.2007894"></trkpt>
    <trkpt lat="58.2667736" lon="14.2004032"></trkpt>
    <trkpt lat="58.2666833" lon="14.1999096"></trkpt>
    <trkpt lat="58.2665253" lon="14.1991586"></trkpt>
    <trkpt lat="58.2664237" lon="14.1989011"></trkpt>
    <trkpt lat="58.2661641" lon="14.1984934"></trkpt>
    <trkpt lat="58.2659384" lon="14.1982789"></trkpt>
    <trkpt lat="58.2657578" lon="14.1979141"></trkpt>
    <trkpt lat="58.2656337" lon="14.1973133"></trkpt>
    <trkpt lat="58.2655608" lon="14.1970614"></trkpt>
    <trkpt lat="58.2654080" lon="14.1968627"></trkpt>
    <trkpt lat="58.2651976" lon="14.1966452"></trkpt>
    <trkpt lat="58.2649913" lon="14.1960909"></trkpt>
    <trkpt lat="58.2648888" lon="14.1956825"></trkpt>
    <trkpt lat="58.2648969" lon="14.1953184"></trkpt>
    <trkpt lat="58.2649615" lon="14.1949445"></trkpt>
    <trkpt lat="58.2650355" lon="14.1946740"></trkpt>
    <trkpt lat="58.2650888" lon="14.1940809"></trkpt>
    <trkpt lat="58.2650025" lon="14.1934286"></trkpt>
    <trkpt lat="58.2650223" lon="14.1928389"></trkpt>
    <trkpt lat="58.2650674" lon="14.1925049"></trkpt>
    <trkpt lat="58.2651626" lon="14.1922618"></trkpt>
    <trkpt lat="58.2652480" lon="14.1920440"></trkpt>
    <trkpt lat="58.2655095" lon="14.1914982"></trkpt>
    <trkpt lat="58.2657578" lon="14.1910905"></trkpt>
    <trkpt lat="58.2658481" lon="14.1906828"></trkpt>
    <trkpt lat="58.2658707" lon="14.1903181"></trkpt>
    <trkpt lat="58.2659271" lon="14.1898245"></trkpt>
    <trkpt lat="58.2659384" lon="14.1890735"></trkpt>
    <trkpt lat="58.2658820" lon="14.1884727"></trkpt>
    <trkpt lat="58.2658256" lon="14.1879792"></trkpt>
    <trkpt lat="58.2657127" lon="14.1873784"></trkpt>
    <trkpt lat="58.2654983" lon="14.1869278"></trkpt>
    <trkpt lat="58.2652274" lon="14.1863269"></trkpt>
    <trkpt lat="58.2650919" lon="14.1857690"></trkpt>
    <trkpt lat="58.2649904" lon="14.1851253"></trkpt>
    <trkpt lat="58.2647759" lon="14.1845459"></trkpt>
    <trkpt lat="58.2646969" lon="14.1839666"></trkpt>
    <trkpt lat="58.2646582" lon="14.1832351"></trkpt>
    <trkpt lat="58.2647111" lon="14.1825681"></trkpt>
    <trkpt lat="58.2649001" lon="14.1822071"></trkpt>
    <trkpt lat="58.2649875" lon="14.1820941"></trkpt>
    <trkpt lat="58.2648662" lon="14.1813273"></trkpt>
    <trkpt lat="58.2647082" lon="14.1808981"></trkpt>
    <trkpt lat="58.2645953" lon="14.1806192"></trkpt>
    <trkpt lat="58.2641664" lon="14.1801031"></trkpt>
    <trkpt lat="58.2637037" lon="14.1799755"></trkpt>
    <trkpt lat="58.2634102" lon="14.1800613"></trkpt>
    <trkpt lat="58.2630039" lon="14.1800398"></trkpt>
    <trkpt lat="58.2626765" lon="14.1797180"></trkpt>
    <trkpt lat="58.2623831" lon="14.1791815"></trkpt>
    <trkpt lat="58.2621009" lon="14.1786880"></trkpt>
    <trkpt lat="58.2617397" lon="14.1784520"></trkpt>
    <trkpt lat="58.2614575" lon="14.1783865"></trkpt>
    <trkpt lat="58.2608818" lon="14.1782803"></trkpt>
    <trkpt lat="58.2604862" lon="14.1783865"></trkpt>
    <trkpt lat="58.2601368" lon="14.1786451"></trkpt>
    <trkpt lat="58.2599449" lon="14.1784949"></trkpt>
    <trkpt lat="58.2598659" lon="14.1777010"></trkpt>
    <trkpt lat="58.2598207" lon="14.1767783"></trkpt>
    <trkpt lat="58.2600352" lon="14.1760702"></trkpt>
    <trkpt lat="58.2601707" lon="14.1754264"></trkpt>
    <trkpt lat="58.2603061" lon="14.1749544"></trkpt>
    <trkpt lat="58.2604190" lon="14.1737742"></trkpt>
    <trkpt lat="58.2603733" lon="14.1730876"></trkpt>
    <trkpt lat="58.2603061" lon="14.1722078"></trkpt>
    <trkpt lat="58.2601029" lon="14.1711993"></trkpt>
    <trkpt lat="58.2599675" lon="14.1704268"></trkpt>
    <trkpt lat="58.2600352" lon="14.1698045"></trkpt>
    <trkpt lat="58.2601594" lon="14.1689462"></trkpt>
    <trkpt lat="58.2602723" lon="14.1681308"></trkpt>
    <trkpt lat="58.2603513" lon="14.1673584"></trkpt>
    <trkpt lat="58.2602836" lon="14.1666288"></trkpt>
    <trkpt lat="58.2601255" lon="14.1652770"></trkpt>
    <trkpt lat="58.2598659" lon="14.1641397"></trkpt>
    <trkpt lat="58.2597982" lon="14.1632599"></trkpt>
    <trkpt lat="58.2595498" lon="14.1616506"></trkpt>
    <trkpt lat="58.2592783" lon="14.1607923"></trkpt>
    <trkpt lat="58.2589628" lon="14.1596980"></trkpt>
    <trkpt lat="58.2586806" lon="14.1589684"></trkpt>
    <trkpt lat="58.2581839" lon="14.1576584"></trkpt>
    <trkpt lat="58.2578227" lon="14.1571016"></trkpt>
    <trkpt lat="58.2576759" lon="14.1564149"></trkpt>
    <trkpt lat="58.2576195" lon="14.1556425"></trkpt>
    <trkpt lat="58.2572636" lon="14.1545581"></trkpt>
    <trkpt lat="58.2571657" lon="14.1546440"></trkpt>
    <trkpt lat="58.2569419" lon="14.1544396"></trkpt>
    <trkpt lat="58.2566414" lon="14.1541926"></trkpt>
    <trkpt lat="58.2565079" lon="14.1540509"></trkpt>
    <trkpt lat="58.2563709" lon="14.1538960"></trkpt>
    <trkpt lat="58.2562807" lon="14.1538301"></trkpt>
    <trkpt lat="58.2561767" lon="14.1538400"></trkpt>
    <trkpt lat="58.2560277" lon="14.1540321"></trkpt>
    <trkpt lat="58.2558358" lon="14.1543539"></trkpt>
    <trkpt lat="58.2556777" lon="14.1547842"></trkpt>
    <trkpt lat="58.2554858" lon="14.1552133"></trkpt>
    <trkpt lat="58.2552374" lon="14.1557927"></trkpt>
    <trkpt lat="58.2550455" lon="14.1558774"></trkpt>
    <trkpt lat="58.2549213" lon="14.1563506"></trkpt>
    <trkpt lat="58.2544359" lon="14.1567583"></trkpt>
    <trkpt lat="58.2541423" lon="14.1567797"></trkpt>
    <trkpt lat="58.2536230" lon="14.1565437"></trkpt>
    <trkpt lat="58.2531036" lon="14.1562207"></trkpt>
    <trkpt lat="58.2528778" lon="14.1559429"></trkpt>
    <trkpt lat="58.2526294" lon="14.1555137"></trkpt>
    <trkpt lat="58.2524714" lon="14.1553421"></trkpt>
    <trkpt lat="58.2521552" lon="14.1551908"></trkpt>
    <trkpt lat="58.2519294" lon="14.1548056"></trkpt>
    <trkpt lat="58.2517149" lon="14.1545267"></trkpt>
    <trkpt lat="58.2514778" lon="14.1545267"></trkpt>
    <trkpt lat="58.2513423" lon="14.1546554"></trkpt>
    <trkpt lat="58.2510600" lon="14.1546340"></trkpt>
    <trkpt lat="58.2508681" lon="14.1545696"></trkpt>
    <trkpt lat="58.2505971" lon="14.1548056"></trkpt>
    <trkpt lat="58.2503261" lon="14.1548045"></trkpt>
    <trkpt lat="58.2501003" lon="14.1545696"></trkpt>
    <trkpt lat="58.2499309" lon="14.1541190"></trkpt>
    <trkpt lat="58.2495696" lon="14.1536254"></trkpt>
    <trkpt lat="58.2492102" lon="14.1533948"></trkpt>
    <trkpt lat="58.2491065" lon="14.1532827"></trkpt>
    <trkpt lat="58.2490149" lon="14.1531666"></trkpt>
    <trkpt lat="58.2489261" lon="14.1530830"></trkpt>
    <trkpt lat="58.2488508" lon="14.1530290"></trkpt>
    <trkpt lat="58.2487904" lon="14.1529736"></trkpt>
    <trkpt lat="58.2487330" lon="14.1528758"></trkpt>
    <trkpt lat="58.2486575" lon="14.1526780"></trkpt>
    <trkpt lat="58.2485972" lon="14.1525376"></trkpt>
    <trkpt lat="58.2485531" lon="14.1524269"></trkpt>
    <trkpt lat="58.2484878" lon="14.1522946"></trkpt>
    <trkpt lat="58.2484011" lon="14.1521744"></trkpt>
    <trkpt lat="58.2483386" lon="14.1520718"></trkpt>
    <trkpt lat="58.2482512" lon="14.1519166"></trkpt>
    <trkpt lat="58.2481986" lon="14.1517938"></trkpt>
    <trkpt lat="58.2481510" lon="14.1516358"></trkpt>
    <trkpt lat="58.2481134" lon="14.1514279"></trkpt>
    <trkpt lat="58.2480686" lon="14.1512241"></trkpt>
    <trkpt lat="58.2480381" lon="14.1510972"></trkpt>
    <trkpt lat="58.2479955" lon="14.1509946"></trkpt>
    <trkpt lat="58.2479500" lon="14.1509082"></trkpt>
    <trkpt lat="58.2478797" lon="14.1508191"></trkpt>
    <trkpt lat="58.2478022" lon="14.1507692"></trkpt>
    <trkpt lat="58.2476836" lon="14.1507327"></trkpt>
    <trkpt lat="58.2475685" lon="14.1507233"></trkpt>
    <trkpt lat="58.2474655" lon="14.1507462"></trkpt>
    <trkpt lat="58.2473682" lon="14.1507786"></trkpt>
    <trkpt lat="58.2472566" lon="14.1507813"></trkpt>
    <trkpt lat="58.2471323" lon="14.1508232"></trkpt>
    <trkpt lat="58.2469256" lon="14.1509217"></trkpt>
    <trkpt lat="58.2467032" lon="14.1510013"></trkpt>
    <trkpt lat="58.2465952" lon="14.1510391"></trkpt>
    <trkpt lat="58.2465490" lon="14.1510348"></trkpt>
    <trkpt lat="58.2465080" lon="14.1508913"></trkpt>
    <trkpt lat="58.2464671" lon="14.1507827"></trkpt>
    <trkpt lat="58.2464172" lon="14.1506904"></trkpt>
    <trkpt lat="58.2463575" lon="14.1506087"></trkpt>
    <trkpt lat="58.2463159" lon="14.1505138"></trkpt>
    <trkpt lat="58.2463006" lon="14.1504136"></trkpt>
    <trkpt lat="58.2462937" lon="14.1502396"></trkpt>
    <trkpt lat="58.2463076" lon="14.1500286"></trkpt>
    <trkpt lat="58.2463492" lon="14.1498177"></trkpt>
    <trkpt lat="58.2463617" lon="14.1496516"></trkpt>
    <trkpt lat="58.2463506" lon="14.1494328"></trkpt>
    <trkpt lat="58.2463423" lon="14.1491981"></trkpt>
    <trkpt lat="58.2463270" lon="14.1490584"></trkpt>
    <trkpt lat="58.2462937" lon="14.1489556"></trkpt>
    <trkpt lat="58.2461979" lon="14.1487130"></trkpt>
    <trkpt lat="58.2461286" lon="14.1484678"></trkpt>
    <trkpt lat="58.2460398" lon="14.1483017"></trkpt>
    <trkpt lat="58.2459454" lon="14.1481171"></trkpt>
    <trkpt lat="58.2458760" lon="14.1478956"></trkpt>
    <trkpt lat="58.2457706" lon="14.1475713"></trkpt>
    <trkpt lat="58.2457539" lon="14.1474263"></trkpt>
    <trkpt lat="58.2456346" lon="14.1473314"></trkpt>
    <trkpt lat="58.2455680" lon="14.1473050"></trkpt>
    <trkpt lat="58.2455069" lon="14.1472339"></trkpt>
    <trkpt lat="58.2454556" lon="14.1470941"></trkpt>
    <trkpt lat="58.2454292" lon="14.1469966"></trkpt>
    <trkpt lat="58.2453307" lon="14.1468463"></trkpt>
    <trkpt lat="58.2451586" lon="14.1466116"></trkpt>
    <trkpt lat="58.2449991" lon="14.1464165"></trkpt>
    <trkpt lat="58.2448589" lon="14.1463321"></trkpt>
    <trkpt lat="58.2445314" lon="14.1461792"></trkpt>
    <trkpt lat="58.2444315" lon="14.1460948"></trkpt>
    <trkpt lat="58.2443469" lon="14.1459867"></trkpt>
    <trkpt lat="58.2442414" lon="14.1458127"></trkpt>
    <trkpt lat="58.2441790" lon="14.1457020"></trkpt>
    <trkpt lat="58.2440749" lon="14.1456255"></trkpt>
    <trkpt lat="58.2439417" lon="14.1455675"></trkpt>
    <trkpt lat="58.2438390" lon="14.1455702"></trkpt>
    <trkpt lat="58.2436864" lon="14.1455860"></trkpt>
    <trkpt lat="58.2435296" lon="14.1456282"></trkpt>
    <trkpt lat="58.2434033" lon="14.1456624"></trkpt>
    <trkpt lat="58.2432659" lon="14.1456862"></trkpt>
    <trkpt lat="58.2430647" lon="14.1456598"></trkpt>
    <trkpt lat="58.2429703" lon="14.1456545"></trkpt>
    <trkpt lat="58.2429120" lon="14.1456387"></trkpt>
    <trkpt lat="58.2428357" lon="14.1456044"></trkpt>
    <trkpt lat="58.2427539" lon="14.1455253"></trkpt>
    <trkpt lat="58.2426872" lon="14.1454225"></trkpt>
    <trkpt lat="58.2426151" lon="14.1452933"></trkpt>
    <trkpt lat="58.2425540" lon="14.1451879"></trkpt>
    <trkpt lat="58.2424777" lon="14.1450718"></trkpt>
    <trkpt lat="58.2423986" lon="14.1450138"></trkpt>
    <trkpt lat="58.2423028" lon="14.1449506"></trkpt>
    <trkpt lat="58.2422404" lon="14.1448715"></trkpt>
    <trkpt lat="58.2421960" lon="14.1447686"></trkpt>
    <trkpt lat="58.2421724" lon="14.1447001"></trkpt>
    <trkpt lat="58.2421814" lon="14.1445688"></trkpt>
    <trkpt lat="58.2421988" lon="14.1443093"></trkpt>
    <trkpt lat="58.2421901" lon="14.1440951"></trkpt>
    <trkpt lat="58.2421858" lon="14.1438520"></trkpt>
    <trkpt lat="58.2422075" lon="14.1436131"></trkpt>
    <trkpt lat="58.2422703" lon="14.1434030"></trkpt>
    <trkpt lat="58.2423245" lon="14.1431558"></trkpt>
    <trkpt lat="58.2423679" lon="14.1429045"></trkpt>
    <trkpt lat="58.2423939" lon="14.1427521"></trkpt>
    <trkpt lat="58.2423809" lon="14.1424719"></trkpt>
    <trkpt lat="58.2423376" lon="14.1421588"></trkpt>
    <trkpt lat="58.2422400" lon="14.1418457"></trkpt>
    <trkpt lat="58.2421359" lon="14.1415862"></trkpt>
    <trkpt lat="58.2420275" lon="14.1412978"></trkpt>
    <trkpt lat="58.2419126" lon="14.1410300"></trkpt>
    <trkpt lat="58.2418258" lon="14.1408776"></trkpt>
    <trkpt lat="58.2417369" lon="14.1407293"></trkpt>
    <trkpt lat="58.2416329" lon="14.1406098"></trkpt>
    <trkpt lat="58.2415288" lon="14.1404450"></trkpt>
    <trkpt lat="58.2414247" lon="14.1402514"></trkpt>
    <trkpt lat="58.2413488" lon="14.1401155"></trkpt>
    <trkpt lat="58.2412859" lon="14.1400331"></trkpt>
    <trkpt lat="58.2411948" lon="14.1399466"></trkpt>
    <trkpt lat="58.2410539" lon="14.1398147"></trkpt>
    <trkpt lat="58.2409932" lon="14.1396994"></trkpt>
    <trkpt lat="58.2408631" lon="14.1393822"></trkpt>
    <trkpt lat="58.2408089" lon="14.1392380"></trkpt>
    <trkpt lat="58.2407156" lon="14.1390526"></trkpt>
    <trkpt lat="58.2406224" lon="14.1389125"></trkpt>
    <trkpt lat="58.2405595" lon="14.1387930"></trkpt>
    <trkpt lat="58.2405010" lon="14.1386571"></trkpt>
    <trkpt lat="58.2404838" lon="14.1385574"></trkpt>
    <trkpt lat="58.2404663" lon="14.1384552"></trkpt>
    <trkpt lat="58.2404554" lon="14.1382534"></trkpt>
    <trkpt lat="58.2404593" lon="14.1373775"></trkpt>
    <trkpt lat="58.2404855" lon="14.1368759"></trkpt>
    <trkpt lat="58.2405806" lon="14.1362963"></trkpt>
    <trkpt lat="58.2406081" lon="14.1358776"></trkpt>
    <trkpt lat="58.2406295" lon="14.1344592"></trkpt>
    <trkpt lat="58.2406487" lon="14.1343458"></trkpt>
    <trkpt lat="58.2407427" lon="14.1339668"></trkpt>
    <trkpt lat="58.2408637" lon="14.1334953"></trkpt>
    <trkpt lat="58.2409649" lon="14.1329111"></trkpt>
    <trkpt lat="58.2411143" lon="14.1322032"></trkpt>
    <trkpt lat="58.2411168" lon="14.1320801"></trkpt>
    <trkpt lat="58.2411002" lon="14.1319434"></trkpt>
    <trkpt lat="58.2410539" lon="14.1317266"></trkpt>
    <trkpt lat="58.2409228" lon="14.1313007"></trkpt>
    <trkpt lat="58.2408144" lon="14.1309914"></trkpt>
    <trkpt lat="58.2407512" lon="14.1307465"></trkpt>
    <trkpt lat="58.2407230" lon="14.1305468"></trkpt>
    <trkpt lat="58.2407146" lon="14.1304115"></trkpt>
    <trkpt lat="58.2407105" lon="14.1299880"></trkpt>
    <trkpt lat="58.2407301" lon="14.1297136"></trkpt>
    <trkpt lat="58.2407922" lon="14.1284355"></trkpt>
    <trkpt lat="58.2407979" lon="14.1282169"></trkpt>
    <trkpt lat="58.2407725" lon="14.1279876"></trkpt>
    <trkpt lat="58.2406906" lon="14.1275302"></trkpt>
    <trkpt lat="58.2406680" lon="14.1272325"></trkpt>
    <trkpt lat="58.2406870" lon="14.1266210"></trkpt>
    <trkpt lat="58.2407174" lon="14.1264600"></trkpt>
    <trkpt lat="58.2408698" lon="14.1258834"></trkpt>
    <trkpt lat="58.2409587" lon="14.1256621"></trkpt>
    <trkpt lat="58.2409969" lon="14.1255507"></trkpt>
    <trkpt lat="58.2410791" lon="14.1252939"></trkpt>
    <trkpt lat="58.2411317" lon="14.1250988"></trkpt>
    <trkpt lat="58.2411550" lon="14.1249017"></trkpt>
    <trkpt lat="58.2411508" lon="14.1247595"></trkpt>
    <trkpt lat="58.2411067" lon="14.1245681"></trkpt>
    <trkpt lat="58.2409527" lon="14.1240876"></trkpt>
    <trkpt lat="58.2409045" lon="14.1238832"></trkpt>
    <trkpt lat="58.2408218" lon="14.1232894"></trkpt>
    <trkpt lat="58.2407984" lon="14.1230344"></trkpt>
    <trkpt lat="58.2407777" lon="14.1223984"></trkpt>
    <trkpt lat="58.2407611" lon="14.1213840"></trkpt>
    <trkpt lat="58.2407553" lon="14.1209908"></trkpt>
    <trkpt lat="58.2407354" lon="14.1207478"></trkpt>
    <trkpt lat="58.2407082" lon="14.1206211"></trkpt>
    <trkpt lat="58.2406518" lon="14.1204736"></trkpt>
    <trkpt lat="58.2405865" lon="14.1203896"></trkpt>
    <trkpt lat="58.2404900" lon="14.1203379"></trkpt>
    <trkpt lat="58.2403658" lon="14.1203231"></trkpt>
    <trkpt lat="58.2402105" lon="14.1202748"></trkpt>
    <trkpt lat="58.2400157" lon="14.1201676"></trkpt>
    <trkpt lat="58.2392844" lon="14.1196258"></trkpt>
    <trkpt lat="58.2390804" lon="14.1194394"></trkpt>
    <trkpt lat="58.2387013" lon="14.1190544"></trkpt>
    <trkpt lat="58.2382650" lon="14.1186065"></trkpt>
    <trkpt lat="58.2381916" lon="14.1185564"></trkpt>
    <trkpt lat="58.2380900" lon="14.1185330"></trkpt>
    <trkpt lat="58.2379700" lon="14.1185266"></trkpt>
    <trkpt lat="58.2378697" lon="14.1185604"></trkpt>
    <trkpt lat="58.2376551" lon="14.1186924"></trkpt>
    <trkpt lat="58.2373932" lon="14.1187916"></trkpt>
    <trkpt lat="58.2372174" lon="14.1188158"></trkpt>
    <trkpt lat="58.2370324" lon="14.1187956"></trkpt>
    <trkpt lat="58.2367952" lon="14.1187004"></trkpt>
    <trkpt lat="58.2364691" lon="14.1185207"></trkpt>
    <trkpt lat="58.2362203" lon="14.1183537"></trkpt>
    <trkpt lat="58.2359206" lon="14.1181224"></trkpt>
    <trkpt lat="58.2356416" lon="14.1178217"></trkpt>
    <trkpt lat="58.2353654" lon="14.1174889"></trkpt>
    <trkpt lat="58.2351155" lon="14.1171332"></trkpt>
    <trkpt lat="58.2348980" lon="14.1168285"></trkpt>
    <trkpt lat="58.2342889" lon="14.1159458"></trkpt>
    <trkpt lat="58.2337481" lon="14.1151357"></trkpt>
    <trkpt lat="58.2336081" lon="14.1148432"></trkpt>
    <trkpt lat="58.2335288" lon="14.1146096"></trkpt>
    <trkpt lat="58.2334577" lon="14.1143410"></trkpt>
    <trkpt lat="58.2333727" lon="14.1137724"></trkpt>
    <trkpt lat="58.2332064" lon="14.1126309"></trkpt>
    <trkpt lat="58.2330067" lon="14.1113284"></trkpt>
    <trkpt lat="58.2328197" lon="14.1101279"></trkpt>
    <trkpt lat="58.2327305" lon="14.1095195"></trkpt>
    <trkpt lat="58.2326578" lon="14.1090600"></trkpt>
    <trkpt lat="58.2325832" lon="14.1086613"></trkpt>
    <trkpt lat="58.2325172" lon="14.1084665"></trkpt>
    <trkpt lat="58.2324089" lon="14.1082579"></trkpt>
    <trkpt lat="58.2322414" lon="14.1080359"></trkpt>
    <trkpt lat="58.2319194" lon="14.1076605"></trkpt>
    <trkpt lat="58.2318375" lon="14.1075022"></trkpt>
    <trkpt lat="58.2317952" lon="14.1073896"></trkpt>
    <trkpt lat="58.2317599" lon="14.1071589"></trkpt>
    <trkpt lat="58.2317641" lon="14.1069309"></trkpt>
    <trkpt lat="58.2318447" lon="14.1063112"></trkpt>
    <trkpt lat="58.2319858" lon="14.1052001"></trkpt>
    <trkpt lat="58.2320307" lon="14.1049243"></trkpt>
    <trkpt lat="58.2321095" lon="14.1046325"></trkpt>
    <trkpt lat="58.2322056" lon="14.1043733"></trkpt>
    <trkpt lat="58.2322960" lon="14.1041999"></trkpt>
    <trkpt lat="58.2324585" lon="14.1039603"></trkpt>
    <trkpt lat="58.2326664" lon="14.1035915"></trkpt>
    <trkpt lat="58.2328685" lon="14.1031769"></trkpt>
    <trkpt lat="58.2330065" lon="14.1028988"></trkpt>
    <trkpt lat="58.2331224" lon="14.1026551"></trkpt>
    <trkpt lat="58.2333499" lon="14.1020841"></trkpt>
    <trkpt lat="58.2334882" lon="14.1017039"></trkpt>
    <trkpt lat="58.2335899" lon="14.1013345"></trkpt>
    <trkpt lat="58.2337297" lon="14.1005920"></trkpt>
    <trkpt lat="58.2337519" lon="14.1003003"></trkpt>
    <trkpt lat="58.2337542" lon="14.1001481"></trkpt>
    <trkpt lat="58.2337449" lon="14.0998491"></trkpt>
    <trkpt lat="58.2337429" lon="14.0995318"></trkpt>
    <trkpt lat="58.2337465" lon="14.0992789"></trkpt>
    <trkpt lat="58.2337767" lon="14.0989445"></trkpt>
    <trkpt lat="58.2337950" lon="14.0988292"></trkpt>
    <trkpt lat="58.2338797" lon="14.0983692"></trkpt>
    <trkpt lat="58.2336411" lon="14.0987805"></trkpt>
    <trkpt lat="58.2338797" lon="14.0983692"></trkpt>
    <trkpt lat="58.2339850" lon="14.0982602"></trkpt>
    <trkpt lat="58.2341175" lon="14.0981523"></trkpt>
    <trkpt lat="58.2342299" lon="14.0981116"></trkpt>
    <trkpt lat="58.2343309" lon="14.0981083"></trkpt>
    <trkpt lat="58.2345321" lon="14.0981491"></trkpt>
    <trkpt lat="58.2347071" lon="14.0981885"></trkpt>
    <trkpt lat="58.2348766" lon="14.0982012"></trkpt>
    <trkpt lat="58.2351248" lon="14.0982028"></trkpt>
    <trkpt lat="58.2353253" lon="14.0982060"></trkpt>
    <trkpt lat="58.2355015" lon="14.0982404"></trkpt>
    <trkpt lat="58.2357125" lon="14.0983112"></trkpt>
    <trkpt lat="58.2360559" lon="14.0984238"></trkpt>
    <trkpt lat="58.2364636" lon="14.0985552"></trkpt>
    <trkpt lat="58.2366441" lon="14.0985901"></trkpt>
    <trkpt lat="58.2367849" lon="14.0985780"></trkpt>
    <trkpt lat="58.2368692" lon="14.0985445"></trkpt>
    <trkpt lat="58.2369832" lon="14.0984742"></trkpt>
    <trkpt lat="58.2371428" lon="14.0983482"></trkpt>
    <trkpt lat="58.2373571" lon="14.0981760"></trkpt>
    <trkpt lat="58.2374890" lon="14.0981164"></trkpt>
    <trkpt lat="58.2377101" lon="14.0980263"></trkpt>
    <trkpt lat="58.2379577" lon="14.0979431"></trkpt>
    <trkpt lat="58.2382401" lon="14.0978316"></trkpt>
    <trkpt lat="58.2384321" lon="14.0977259"></trkpt>
    <trkpt lat="58.2385694" lon="14.0976153"></trkpt>
    <trkpt lat="58.2387563" lon="14.0974212"></trkpt>
    <trkpt lat="58.2389158" lon="14.0972061"></trkpt>
    <trkpt lat="58.2392095" lon="14.0968113"></trkpt>
    <trkpt lat="58.2394789" lon="14.0964803"></trkpt>
    <trkpt lat="58.2398446" lon="14.0960796"></trkpt>
    <trkpt lat="58.2401433" lon="14.0958334"></trkpt>
    <trkpt lat="58.2404917" lon="14.0956327"></trkpt>
    <trkpt lat="58.2407438" lon="14.0955050"></trkpt>
    <trkpt lat="58.2411041" lon="14.0953382"></trkpt>
    <trkpt lat="58.2414413" lon="14.0952400"></trkpt>
    <trkpt lat="58.2416203" lon="14.0952180"></trkpt>
    <trkpt lat="58.2417595" lon="14.0952384"></trkpt>
    <trkpt lat="58.2419018" lon="14.0952808"></trkpt>
    <trkpt lat="58.2420737" lon="14.0953607"></trkpt>
    <trkpt lat="58.2422409" lon="14.0955066"></trkpt>
    <trkpt lat="58.2425797" lon="14.0959186"></trkpt>
    <trkpt lat="58.2428643" lon="14.0961933"></trkpt>
    <trkpt lat="58.2431986" lon="14.0963972"></trkpt>
    <trkpt lat="58.2432186" lon="14.0964062"></trkpt>
    <trkpt lat="58.2433664" lon="14.0964725"></trkpt>
    <trkpt lat="58.2435032" lon="14.0965479"></trkpt>
    <trkpt lat="58.2436574" lon="14.0966607"></trkpt>
    <trkpt lat="58.2438590" lon="14.0968343"></trkpt>
    <trkpt lat="58.2442283" lon="14.0971910"></trkpt>
    <trkpt lat="58.2445115" lon="14.0974399"></trkpt>
    <trkpt lat="58.2448384" lon="14.0976352"></trkpt>
    <trkpt lat="58.2451447" lon="14.0977970"></trkpt>
    <trkpt lat="58.2454482" lon="14.0979051"></trkpt>
    <trkpt lat="58.2456192" lon="14.0979506"></trkpt>
    <trkpt lat="58.2457789" lon="14.0979801"></trkpt>
    <trkpt lat="58.2457501" lon="14.0963279"></trkpt>
    <trkpt lat="58.2457214" lon="14.0946758"></trkpt>
    <trkpt lat="58.2456918" lon="14.0934956"></trkpt>
    <trkpt lat="58.2456621" lon="14.0923155"></trkpt>
    <trkpt lat="58.2456325" lon="14.0911353"></trkpt>
    <trkpt lat="58.2456155" lon="14.0901522"></trkpt>
    <trkpt lat="58.2455986" lon="14.0891692"></trkpt>
    <trkpt lat="58.2455816" lon="14.0878549"></trkpt>
    <trkpt lat="58.2455682" lon="14.0877651"></trkpt>
    <trkpt lat="58.2455495" lon="14.0863629"></trkpt>
    <trkpt lat="58.2455308" lon="14.0849608"></trkpt>
    <trkpt lat="58.2455097" lon="14.0843359"></trkpt>
    <trkpt lat="58.2454179" lon="14.0838423"></trkpt>
    <trkpt lat="58.2453389" lon="14.0836707"></trkpt>
    <trkpt lat="58.2452725" lon="14.0834829"></trkpt>
    <trkpt lat="58.2450791" lon="14.0827507"></trkpt>
    <trkpt lat="58.2451102" lon="14.0823859"></trkpt>
    <trkpt lat="58.2448053" lon="14.0813398"></trkpt>
    <trkpt lat="58.2447756" lon="14.0812446"></trkpt>
    <trkpt lat="58.2444439" lon="14.0801811"></trkpt>
    <trkpt lat="58.2440652" lon="14.0789520"></trkpt>
    <trkpt lat="58.2436865" lon="14.0777229"></trkpt>
    <trkpt lat="58.2433079" lon="14.0764937"></trkpt>
    <trkpt lat="58.2429292" lon="14.0752646"></trkpt>
    <trkpt lat="58.2428854" lon="14.0745377"></trkpt>
    <trkpt lat="58.2428213" lon="14.0731253"></trkpt>
    <trkpt lat="58.2427572" lon="14.0717128"></trkpt>
    <trkpt lat="58.2426932" lon="14.0703004"></trkpt>
    <trkpt lat="58.2426291" lon="14.0688879"></trkpt>
    <trkpt lat="58.2425650" lon="14.0674755"></trkpt>
    <trkpt lat="58.2427902" lon="14.0660110"></trkpt>
    <trkpt lat="58.2430153" lon="14.0645465"></trkpt>
    <trkpt lat="58.2429306" lon="14.0633368"></trkpt>
    <trkpt lat="58.2433109" lon="14.0620465"></trkpt>
    <trkpt lat="58.2436911" lon="14.0607561"></trkpt>
    <trkpt lat="58.2439062" lon="14.0603012"></trkpt>
    <trkpt lat="58.2443501" lon="14.0590250"></trkpt>
    <trkpt lat="58.2447940" lon="14.0577488"></trkpt>
    <trkpt lat="58.2452380" lon="14.0564725"></trkpt>
    <trkpt lat="58.2456819" lon="14.0551963"></trkpt>
    <trkpt lat="58.2461654" lon="14.0537832"></trkpt>
    <trkpt lat="58.2466490" lon="14.0523701"></trkpt>
    <trkpt lat="58.2471325" lon="14.0509570"></trkpt>
    <trkpt lat="58.2476160" lon="14.0495440"></trkpt>
    <trkpt lat="58.2480995" lon="14.0481309"></trkpt>
    <trkpt lat="58.2485831" lon="14.0467178"></trkpt>
    <trkpt lat="58.2490666" lon="14.0453047"></trkpt>
    <trkpt lat="58.2490511" lon="14.0439306"></trkpt>
    <trkpt lat="58.2490356" lon="14.0425566"></trkpt>
    <trkpt lat="58.2490201" lon="14.0411825"></trkpt>
    <trkpt lat="58.2490094" lon="14.0399816"></trkpt>
    <trkpt lat="58.2489987" lon="14.0387807"></trkpt>
    <trkpt lat="58.2489832" lon="14.0382941"></trkpt>
    <trkpt lat="58.2489289" lon="14.0379255"></trkpt>
    <trkpt lat="58.2487427" lon="14.0372620"></trkpt>
    <trkpt lat="58.2486728" lon="14.0368343"></trkpt>
    <trkpt lat="58.2485642" lon="14.0359791"></trkpt>
    <trkpt lat="58.2484633" lon="14.0347749"></trkpt>
    <trkpt lat="58.2483625" lon="14.0335706"></trkpt>
    <trkpt lat="58.2482616" lon="14.0323664"></trkpt>
    <trkpt lat="58.2482252" lon="14.0318856"></trkpt>
    <trkpt lat="58.2481607" lon="14.0313342"></trkpt>
    <trkpt lat="58.2480365" lon="14.0306264"></trkpt>
    <trkpt lat="58.2477755" lon="14.0297356"></trkpt>
    <trkpt lat="58.2475145" lon="14.0288449"></trkpt>
    <trkpt lat="58.2473459" lon="14.0284146"></trkpt>
    <trkpt lat="58.2469780" lon="14.0277875"></trkpt>
    <trkpt lat="58.2468463" lon="14.0275428"></trkpt>
    <trkpt lat="58.2467503" lon="14.0273055"></trkpt>
    <trkpt lat="58.2466911" lon="14.0270787"></trkpt>
    <trkpt lat="58.2466690" lon="14.0269964"></trkpt>
    <trkpt lat="58.2466435" lon="14.0267903"></trkpt>
    <trkpt lat="58.2466243" lon="14.0265337"></trkpt>
    <trkpt lat="58.2466176" lon="14.0263523"></trkpt>
    <trkpt lat="58.2466108" lon="14.0247626"></trkpt>
    <trkpt lat="58.2466071" lon="14.0232431"></trkpt>
    <trkpt lat="58.2466040" lon="14.0219813"></trkpt>
    <trkpt lat="58.2466147" lon="14.0214424"></trkpt>
    <trkpt lat="58.2466339" lon="14.0210131"></trkpt>
    <trkpt lat="58.2466859" lon="14.0203711"></trkpt>
    <trkpt lat="58.2467051" lon="14.0201575"></trkpt>
    <trkpt lat="58.2468198" lon="14.0192397"></trkpt>
    <trkpt lat="58.2469026" lon="14.0185153"></trkpt>
    <trkpt lat="58.2469181" lon="14.0183813"></trkpt>
    <trkpt lat="58.2469418" lon="14.0181770"></trkpt>
    <trkpt lat="58.2470147" lon="14.0174836"></trkpt>
    <trkpt lat="58.2471037" lon="14.0168454"></trkpt>
    <trkpt lat="58.2471338" lon="14.0166423"></trkpt>
    <trkpt lat="58.2471700" lon="14.0164434"></trkpt>
    <trkpt lat="58.2472406" lon="14.0161085"></trkpt>
    <trkpt lat="58.2472599" lon="14.0160262"></trkpt>
    <trkpt lat="58.2472949" lon="14.0158938"></trkpt>
    <trkpt lat="58.2473870" lon="14.0155997"></trkpt>
    <trkpt lat="58.2474055" lon="14.0155523"></trkpt>
    <trkpt lat="58.2474723" lon="14.0153807"></trkpt>
    <trkpt lat="58.2475419" lon="14.0152636"></trkpt>
    <trkpt lat="58.2476253" lon="14.0151639"></trkpt>
    <trkpt lat="58.2477118" lon="14.0150888"></trkpt>
    <trkpt lat="58.2478050" lon="14.0150362"></trkpt>
    <trkpt lat="58.2479061" lon="14.0149739"></trkpt>
    <trkpt lat="58.2480919" lon="14.0148945"></trkpt>
    <trkpt lat="58.2484286" lon="14.0147979"></trkpt>
    <trkpt lat="58.2486551" lon="14.0147292"></trkpt>
    <trkpt lat="58.2490766" lon="14.0146266"></trkpt>
    <trkpt lat="58.2491600" lon="14.0146129"></trkpt>
    <trkpt lat="58.2494232" lon="14.0145695"></trkpt>
    <trkpt lat="58.2495680" lon="14.0145628"></trkpt>
    <trkpt lat="58.2496878" lon="14.0145663"></trkpt>
    <trkpt lat="58.2500070" lon="14.0146061"></trkpt>
    <trkpt lat="58.2501505" lon="14.0146272"></trkpt>
    <trkpt lat="58.2502685" lon="14.0146521"></trkpt>
    <trkpt lat="58.2503128" lon="14.0140876"></trkpt>
    <trkpt lat="58.2504121" lon="14.0132722"></trkpt>
    <trkpt lat="58.2505838" lon="14.0122594"></trkpt>
    <trkpt lat="58.2507012" lon="14.0116071"></trkpt>
    <trkpt lat="58.2507644" lon="14.0106973"></trkpt>
    <trkpt lat="58.2507915" lon="14.0099334"></trkpt>
    <trkpt lat="58.2508050" lon="14.0094460"></trkpt>
    <trkpt lat="58.2508186" lon="14.0089550"></trkpt>
    <trkpt lat="58.2507644" lon="14.0081138"></trkpt>
    <trkpt lat="58.2507509" lon="14.0075731"></trkpt>
    <trkpt lat="58.2507509" lon="14.0071096"></trkpt>
    <trkpt lat="58.2507870" lon="14.0067577"></trkpt>
    <trkpt lat="58.2509044" lon="14.0057621"></trkpt>
    <trkpt lat="58.2510354" lon="14.0044145"></trkpt>
    <trkpt lat="58.2511528" lon="14.0036077"></trkpt>
    <trkpt lat="58.2512703" lon="14.0031356"></trkpt>
    <trkpt lat="58.2513967" lon="14.0027666"></trkpt>
    <trkpt lat="58.2514825" lon="14.0024747"></trkpt>
    <trkpt lat="58.2516135" lon="14.0020113"></trkpt>
    <trkpt lat="58.2517625" lon="14.0013418"></trkpt>
    <trkpt lat="58.2518664" lon="14.0009126"></trkpt>
    <trkpt lat="58.2519929" lon="14.0006551"></trkpt>
    <trkpt lat="58.2521058" lon="14.0004491"></trkpt>
    <trkpt lat="58.2522955" lon="14.0001745"></trkpt>
    <trkpt lat="58.2527494" lon="13.9996424"></trkpt>
    <trkpt lat="58.2532032" lon="13.9991102"></trkpt>
    <trkpt lat="58.2533113" lon="13.9990135"></trkpt>
    <trkpt lat="58.2536639" lon="13.9986982"></trkpt>
    <trkpt lat="58.2540522" lon="13.9985008"></trkpt>
    <trkpt lat="58.2543774" lon="13.9983034"></trkpt>
    <trkpt lat="58.2545716" lon="13.9980630"></trkpt>
    <trkpt lat="58.2548019" lon="13.9976167"></trkpt>
    <trkpt lat="58.2549916" lon="13.9972391"></trkpt>
    <trkpt lat="58.2551632" lon="13.9969902"></trkpt>
    <trkpt lat="58.2553935" lon="13.9967670"></trkpt>
    <trkpt lat="58.2555922" lon="13.9966039"></trkpt>
    <trkpt lat="58.2558767" lon="13.9964323"></trkpt>
    <trkpt lat="58.2561205" lon="13.9962349"></trkpt>
    <trkpt lat="58.2562632" lon="13.9960431"></trkpt>
    <trkpt lat="58.2563057" lon="13.9959859"></trkpt>
    <trkpt lat="58.2565089" lon="13.9956255"></trkpt>
    <trkpt lat="58.2566714" lon="13.9952821"></trkpt>
    <trkpt lat="58.2569153" lon="13.9948701"></trkpt>
    <trkpt lat="58.2571095" lon="13.9945354"></trkpt>
    <trkpt lat="58.2572810" lon="13.9942093"></trkpt>
    <trkpt lat="58.2574301" lon="13.9938144"></trkpt>
    <trkpt lat="58.2575204" lon="13.9934454"></trkpt>
    <trkpt lat="58.2576287" lon="13.9929132"></trkpt>
    <trkpt lat="58.2577145" lon="13.9923467"></trkpt>
    <trkpt lat="58.2578003" lon="13.9917202"></trkpt>
    <trkpt lat="58.2578726" lon="13.9911794"></trkpt>
    <trkpt lat="58.2579764" lon="13.9904670"></trkpt>
    <trkpt lat="58.2580916" lon="13.9895572"></trkpt>
    <trkpt lat="58.2582067" lon="13.9886474"></trkpt>
    <trkpt lat="58.2583422" lon="13.9872827"></trkpt>
    <trkpt lat="58.2584678" lon="13.9856467"></trkpt>
    <trkpt lat="58.2586131" lon="13.9842529"></trkpt>
    <trkpt lat="58.2586795" lon="13.9832059"></trkpt>
    <trkpt lat="58.2586859" lon="13.9830892"></trkpt>
    <trkpt lat="58.2587260" lon="13.9824934"></trkpt>
    <trkpt lat="58.2587695" lon="13.9816213"></trkpt>
    <trkpt lat="58.2588139" lon="13.9809850"></trkpt>
    <trkpt lat="58.2588425" lon="13.9807275"></trkpt>
    <trkpt lat="58.2588845" lon="13.9801528"></trkpt>
    <trkpt lat="58.2589106" lon="13.9796560"></trkpt>
    <trkpt lat="58.2589349" lon="13.9792000"></trkpt>
    <trkpt lat="58.2589427" lon="13.9785280"></trkpt>
    <trkpt lat="58.2589363" lon="13.9782518"></trkpt>
    <trkpt lat="58.2589067" lon="13.9779782"></trkpt>
    <trkpt lat="58.2588248" lon="13.9776604"></trkpt>
    <trkpt lat="58.2587254" lon="13.9772151"></trkpt>
    <trkpt lat="58.2586880" lon="13.9768115"></trkpt>
    <trkpt lat="58.2587305" lon="13.9764680"></trkpt>
    <trkpt lat="58.2587712" lon="13.9762106"></trkpt>
    <trkpt lat="58.2588479" lon="13.9759616"></trkpt>
    <trkpt lat="58.2589066" lon="13.9758157"></trkpt>
    <trkpt lat="58.2589834" lon="13.9756870"></trkpt>
    <trkpt lat="58.2590737" lon="13.9754896"></trkpt>
    <trkpt lat="58.2591730" lon="13.9752149"></trkpt>
    <trkpt lat="58.2592317" lon="13.9748458"></trkpt>
    <trkpt lat="58.2592498" lon="13.9744939"></trkpt>
    <trkpt lat="58.2592101" lon="13.9739938"></trkpt>
    <trkpt lat="58.2591487" lon="13.9735231"></trkpt>
    <trkpt lat="58.2590936" lon="13.9730872"></trkpt>
    <trkpt lat="58.2590485" lon="13.9728110"></trkpt>
    <trkpt lat="58.2589610" lon="13.9722356"></trkpt>
    <trkpt lat="58.2588615" lon="13.9717130"></trkpt>
    <trkpt lat="58.2588073" lon="13.9715328"></trkpt>
    <trkpt lat="58.2587173" lon="13.9711319"></trkpt>
    <trkpt lat="58.2586628" lon="13.9708891"></trkpt>
    <trkpt lat="58.2585698" lon="13.9706283"></trkpt>
    <trkpt lat="58.2584569" lon="13.9702830"></trkpt>
    <trkpt lat="58.2583595" lon="13.9700329"></trkpt>
    <trkpt lat="58.2582237" lon="13.9697237"></trkpt>
    <trkpt lat="58.2580964" lon="13.9694233"></trkpt>
    <trkpt lat="58.2580068" lon="13.9691699"></trkpt>
    <trkpt lat="58.2579263" lon="13.9688641"></trkpt>
    <trkpt lat="58.2578699" lon="13.9685369"></trkpt>
    <trkpt lat="58.2578269" lon="13.9680983"></trkpt>
    <trkpt lat="58.2577708" lon="13.9675726"></trkpt>
    <trkpt lat="58.2577196" lon="13.9672601"></trkpt>
    <trkpt lat="58.2576515" lon="13.9669577"></trkpt>
    <trkpt lat="58.2575630" lon="13.9666720"></trkpt>
    <trkpt lat="58.2574610" lon="13.9663676"></trkpt>
    <trkpt lat="58.2573901" lon="13.9660960"></trkpt>
    <trkpt lat="58.2573531" lon="13.9658117"></trkpt>
    <trkpt lat="58.2573129" lon="13.9655770"></trkpt>
    <trkpt lat="58.2572783" lon="13.9652525"></trkpt>
    <trkpt lat="58.2572582" lon="13.9650795"></trkpt>
    <trkpt lat="58.2572225" lon="13.9648066"></trkpt>
    <trkpt lat="58.2571770" lon="13.9646222"></trkpt>
    <trkpt lat="58.2571283" lon="13.9644827"></trkpt>
    <trkpt lat="58.2570359" lon="13.9642889"></trkpt>
    <trkpt lat="58.2569601" lon="13.9641930"></trkpt>
    <trkpt lat="58.2565610" lon="13.9637082"></trkpt>
    <trkpt lat="58.2563991" lon="13.9634366"></trkpt>
    <trkpt lat="58.2563279" lon="13.9632690"></trkpt>
    <trkpt lat="58.2562467" lon="13.9629766"></trkpt>
    <trkpt lat="58.2561628" lon="13.9625730"></trkpt>
    <trkpt lat="58.2559652" lon="13.9615658"></trkpt>
    <trkpt lat="58.2557556" lon="13.9605492"></trkpt>
    <trkpt lat="58.2557260" lon="13.9602864"></trkpt>
    <trkpt lat="58.2556745" lon="13.9598680"></trkpt>
    <trkpt lat="58.2556576" lon="13.9594026"></trkpt>
    <trkpt lat="58.2556731" lon="13.9588889"></trkpt>
    <trkpt lat="58.2556978" lon="13.9580655"></trkpt>
    <trkpt lat="58.2556964" lon="13.9575841"></trkpt>
    <trkpt lat="58.2556787" lon="13.9571334"></trkpt>
    <trkpt lat="58.2556470" lon="13.9560579"></trkpt>
    <trkpt lat="58.2556547" lon="13.9555925"></trkpt>
    <trkpt lat="58.2556985" lon="13.9553283"></trkpt>
    <trkpt lat="58.2557683" lon="13.9550413"></trkpt>
    <trkpt lat="58.2559024" lon="13.9546511"></trkpt>
    <trkpt lat="58.2560287" lon="13.9541776"></trkpt>
    <trkpt lat="58.2560809" lon="13.9538357"></trkpt>
    <trkpt lat="58.2560929" lon="13.9533783"></trkpt>
    <trkpt lat="58.2560823" lon="13.9531530"></trkpt>
    <trkpt lat="58.2560301" lon="13.9526770"></trkpt>
    <trkpt lat="58.2559306" lon="13.9519058"></trkpt>
    <trkpt lat="58.2558869" lon="13.9515182"></trkpt>
    <trkpt lat="58.2558636" lon="13.9511789"></trkpt>
    <trkpt lat="58.2558622" lon="13.9506760"></trkpt>
    <trkpt lat="58.2558629" lon="13.9500108"></trkpt>
    <trkpt lat="58.2558382" lon="13.9494677"></trkpt>
    <trkpt lat="58.2558064" lon="13.9487998"></trkpt>
    <trkpt lat="58.2557556" lon="13.9479925"></trkpt>
    <trkpt lat="58.2556943" lon="13.9473072"></trkpt>
    <trkpt lat="58.2556173" lon="13.9469933"></trkpt>
    <trkpt lat="58.2555630" lon="13.9468485"></trkpt>
    <trkpt lat="58.2553586" lon="13.9466037"></trkpt>
    <trkpt lat="58.2550567" lon="13.9464153"></trkpt>
    <trkpt lat="58.2549125" lon="13.9463107"></trkpt>
    <trkpt lat="58.2547960" lon="13.9461578"></trkpt>
    <trkpt lat="58.2546655" lon="13.9459164"></trkpt>
    <trkpt lat="58.2545441" lon="13.9454598"></trkpt>
    <trkpt lat="58.2544686" lon="13.9448462"></trkpt>
    <trkpt lat="58.2544305" lon="13.9445338"></trkpt>
    <trkpt lat="58.2543056" lon="13.9437519"></trkpt>
    <trkpt lat="58.2542816" lon="13.9433938"></trkpt>
    <trkpt lat="58.2543007" lon="13.9431122"></trkpt>
    <trkpt lat="58.2544672" lon="13.9421426"></trkpt>
    <trkpt lat="58.2545893" lon="13.9414948"></trkpt>
    <trkpt lat="58.2546796" lon="13.9407693"></trkpt>
    <trkpt lat="58.2547487" lon="13.9399834"></trkpt>
    <trkpt lat="58.2547544" lon="13.9393879"></trkpt>
    <trkpt lat="58.2547346" lon="13.9388408"></trkpt>
    <trkpt lat="58.2546852" lon="13.9374635"></trkpt>
    <trkpt lat="58.2546500" lon="13.9368633"></trkpt>
    <trkpt lat="58.2545399" lon="13.9360184"></trkpt>
    <trkpt lat="58.2544566" lon="13.9355437"></trkpt>
    <trkpt lat="58.2544453" lon="13.9353894"></trkpt>
    <trkpt lat="58.2544446" lon="13.9352225"></trkpt>
    <trkpt lat="58.2544757" lon="13.9349878"></trkpt>
    <trkpt lat="58.2545688" lon="13.9346592"></trkpt>
    <trkpt lat="58.2549089" lon="13.9337862"></trkpt>
    <trkpt lat="58.2552081" lon="13.9329855"></trkpt>
    <trkpt lat="58.2555073" lon="13.9321849"></trkpt>
    <trkpt lat="58.2558969" lon="13.9310923"></trkpt>
    <trkpt lat="58.2560316" lon="13.9306917"></trkpt>
    <trkpt lat="58.2557070" lon="13.9305353"></trkpt>
    <trkpt lat="58.2554247" lon="13.9301598"></trkpt>
    <trkpt lat="58.2551848" lon="13.9292049"></trkpt>
    <trkpt lat="58.2549449" lon="13.9282501"></trkpt>
    <trkpt lat="58.2547642" lon="13.9274508"></trkpt>
    <trkpt lat="58.2545836" lon="13.9266515"></trkpt>
    <trkpt lat="58.2540304" lon="13.9253211"></trkpt>
    <trkpt lat="58.2534772" lon="13.9239907"></trkpt>
    <trkpt lat="58.2530426" lon="13.9227032"></trkpt>
    <trkpt lat="58.2526079" lon="13.9214158"></trkpt>
    <trkpt lat="58.2523171" lon="13.9206540"></trkpt>
    <trkpt lat="58.2520264" lon="13.9198923"></trkpt>
    <trkpt lat="58.2514111" lon="13.9186639"></trkpt>
    <trkpt lat="58.2507957" lon="13.9174354"></trkpt>
    <trkpt lat="58.2507246" lon="13.9170928"></trkpt>
    <trkpt lat="58.2503949" lon="13.9155042"></trkpt>
    <trkpt lat="58.2498360" lon="13.9144689"></trkpt>
    <trkpt lat="58.2492770" lon="13.9134335"></trkpt>
    <trkpt lat="58.2489552" lon="13.9126396"></trkpt>
    <trkpt lat="58.2486334" lon="13.9118457"></trkpt>
    <trkpt lat="58.2484725" lon="13.9108318"></trkpt>
    <trkpt lat="58.2483116" lon="13.9098179"></trkpt>
    <trkpt lat="58.2478768" lon="13.9088738"></trkpt>
    <trkpt lat="58.2472953" lon="13.9076614"></trkpt>
    <trkpt lat="58.2469226" lon="13.9065564"></trkpt>
    <trkpt lat="58.2463933" lon="13.9059676"></trkpt>
    <trkpt lat="58.2460941" lon="13.9056082"></trkpt>
    <trkpt lat="58.2459769" lon="13.9054888"></trkpt>
    <trkpt lat="58.2459465" lon="13.9054674"></trkpt>
    <trkpt lat="58.2459204" lon="13.9054674"></trkpt>
    <trkpt lat="58.2458103" lon="13.9051616"></trkpt>
    <trkpt lat="58.2454857" lon="13.9043355"></trkpt>
    <trkpt lat="58.2451370" lon="13.9036918"></trkpt>
    <trkpt lat="58.2449972" lon="13.9034973"></trkpt>
    <trkpt lat="58.2447639" lon="13.9032096"></trkpt>
    <trkpt lat="58.2443490" lon="13.9027221"></trkpt>
    <trkpt lat="58.2439341" lon="13.9022346"></trkpt>
    <trkpt lat="58.2437061" lon="13.9020300"></trkpt>
    <trkpt lat="58.2434083" lon="13.9018615"></trkpt>
    <trkpt lat="58.2430853" lon="13.9016810"></trkpt>
    <trkpt lat="58.2428445" lon="13.9014643"></trkpt>
    <trkpt lat="58.2426292" lon="13.9011875"></trkpt>
    <trkpt lat="58.2424074" lon="13.9008866"></trkpt>
    <trkpt lat="58.2421477" lon="13.9004533"></trkpt>
    <trkpt lat="58.2418690" lon="13.9001524"></trkpt>
    <trkpt lat="58.2414445" lon="13.8997432"></trkpt>
    <trkpt lat="58.2410201" lon="13.8993340"></trkpt>
    <trkpt lat="58.2406336" lon="13.8989729"></trkpt>
    <trkpt lat="58.2400001" lon="13.8984072"></trkpt>
    <trkpt lat="58.2397594" lon="13.8981424"></trkpt>
    <trkpt lat="58.2394743" lon="13.8977211"></trkpt>
    <trkpt lat="58.2391005" lon="13.8970953"></trkpt>
    <trkpt lat="58.2386443" lon="13.8963611"></trkpt>
    <trkpt lat="58.2380637" lon="13.8954232"></trkpt>
    <trkpt lat="58.2374526" lon="13.8944359"></trkpt>
    <trkpt lat="58.2368415" lon="13.8934487"></trkpt>
    <trkpt lat="58.2362304" lon="13.8924614"></trkpt>
    <trkpt lat="58.2357679" lon="13.8917152"></trkpt>
    <trkpt lat="58.2351131" lon="13.8906681"></trkpt>
    <trkpt lat="58.2344584" lon="13.8896209"></trkpt>
    <trkpt lat="58.2338036" lon="13.8885738"></trkpt>
    <trkpt lat="58.2332925" lon="13.8877513"></trkpt>
    <trkpt lat="58.2327813" lon="13.8869289"></trkpt>
    <trkpt lat="58.2322702" lon="13.8861064"></trkpt>
    <trkpt lat="58.2321118" lon="13.8859499"></trkpt>
    <trkpt lat="58.2319407" lon="13.8858657"></trkpt>
    <trkpt lat="58.2313165" lon="13.8857634"></trkpt>
    <trkpt lat="58.2306923" lon="13.8856610"></trkpt>
    <trkpt lat="58.2305846" lon="13.8855888"></trkpt>
    <trkpt lat="58.2298360" lon="13.8854895"></trkpt>
    <trkpt lat="58.2290874" lon="13.8853901"></trkpt>
    <trkpt lat="58.2282912" lon="13.8852224"></trkpt>
    <trkpt lat="58.2274949" lon="13.8850547"></trkpt>
    <trkpt lat="58.2266987" lon="13.8848870"></trkpt>
    <trkpt lat="58.2266928" lon="13.8837416"></trkpt>
    <trkpt lat="58.2266869" lon="13.8825963"></trkpt>
    <trkpt lat="58.2266810" lon="13.8814509"></trkpt>
    <trkpt lat="58.2266739" lon="13.8803458"></trkpt>
    <trkpt lat="58.2266669" lon="13.8792407"></trkpt>
    <trkpt lat="58.2266684" lon="13.8790299"></trkpt>
    <trkpt lat="58.2266694" lon="13.8788866"></trkpt>
    <trkpt lat="58.2266754" lon="13.8780177"></trkpt>
    <trkpt lat="58.2266556" lon="13.8776636"></trkpt>
    <trkpt lat="58.2267234" lon="13.8768482"></trkpt>
    <trkpt lat="58.2268392" lon="13.8757056"></trkpt>
    <trkpt lat="58.2269550" lon="13.8745630"></trkpt>
    <trkpt lat="58.2261754" lon="13.8743162"></trkpt>
    <trkpt lat="58.2253957" lon="13.8740695"></trkpt>
    <trkpt lat="58.2246161" lon="13.8738227"></trkpt>
    <trkpt lat="58.2245003" lon="13.8736886"></trkpt>
    <trkpt lat="58.2239680" lon="13.8728553"></trkpt>
    <trkpt lat="58.2234358" lon="13.8720221"></trkpt>
    <trkpt lat="58.2229035" lon="13.8711888"></trkpt>
    <trkpt lat="58.2225352" lon="13.8705826"></trkpt>
    <trkpt lat="58.2221669" lon="13.8699764"></trkpt>
    <trkpt lat="58.2217120" lon="13.8692629"></trkpt>
    <trkpt lat="58.2212572" lon="13.8685495"></trkpt>
    <trkpt lat="58.2207473" lon="13.8677421"></trkpt>
    <trkpt lat="58.2202374" lon="13.8669348"></trkpt>
    <trkpt lat="58.2197222" lon="13.8661194"></trkpt>
    <trkpt lat="58.2192071" lon="13.8653040"></trkpt>
    <trkpt lat="58.2186919" lon="13.8644886"></trkpt>
    <trkpt lat="58.2180793" lon="13.8635355"></trkpt>
    <trkpt lat="58.2174666" lon="13.8625825"></trkpt>
    <trkpt lat="58.2168540" lon="13.8616294"></trkpt>
    <trkpt lat="58.2163482" lon="13.8608381"></trkpt>
    <trkpt lat="58.2157506" lon="13.8600831"></trkpt>
    <trkpt lat="58.2155081" lon="13.8596588"></trkpt>
    <trkpt lat="58.2154276" lon="13.8595319"></trkpt>
    <trkpt lat="58.2153788" lon="13.8594419"></trkpt>
    <trkpt lat="58.2152731" lon="13.8592952"></trkpt>
    <trkpt lat="58.2152302" lon="13.8592178"></trkpt>
    <trkpt lat="58.2152248" lon="13.8591424"></trkpt>
    <trkpt lat="58.2152285" lon="13.8590253"></trkpt>
    <trkpt lat="58.2152618" lon="13.8586628"></trkpt>
    <trkpt lat="58.2152618" lon="13.8583356"></trkpt>
    <trkpt lat="58.2152618" lon="13.8581908"></trkpt>
    <trkpt lat="58.2151601" lon="13.8567853"></trkpt>
    <trkpt lat="58.2152097" lon="13.8565332"></trkpt>
    <trkpt lat="58.2153096" lon="13.8566208"></trkpt>
    <trkpt lat="58.2158530" lon="13.8569892"></trkpt>
    <trkpt lat="58.2159541" lon="13.8567638"></trkpt>
    <trkpt lat="58.2162140" lon="13.8566619"></trkpt>
    <trkpt lat="58.2165305" lon="13.8564527"></trkpt>
    <trkpt lat="58.2164542" lon="13.8554603"></trkpt>
    <trkpt lat="58.2165503" lon="13.8548380"></trkpt>
    <trkpt lat="58.2167226" lon="13.8544089"></trkpt>
    <trkpt lat="58.2173188" lon="13.8537061"></trkpt>
    <trkpt lat="58.2173923" lon="13.8531911"></trkpt>
    <trkpt lat="58.2173856" lon="13.8518639"></trkpt>
    <trkpt lat="58.2171380" lon="13.8514745"></trkpt>
    <trkpt lat="58.2167424" lon="13.8510454"></trkpt>
    <trkpt lat="58.2162564" lon="13.8497177"></trkpt>
    <trkpt lat="58.2162155" lon="13.8484436"></trkpt>
    <trkpt lat="58.2160064" lon="13.8478964"></trkpt>
    <trkpt lat="58.2154045" lon="13.8475183"></trkpt>
    <trkpt lat="58.2151078" lon="13.8471481"></trkpt>
    <trkpt lat="58.2149228" lon="13.8466251"></trkpt>
    <trkpt lat="58.2147137" lon="13.8457346"></trkpt>
    <trkpt lat="58.2150697" lon="13.8456273"></trkpt>
    <trkpt lat="58.2154031" lon="13.8457990"></trkpt>
    <trkpt lat="58.2158948" lon="13.8456488"></trkpt>
    <trkpt lat="58.2161264" lon="13.8452089"></trkpt>
    <trkpt lat="58.2163525" lon="13.8448012"></trkpt>
    <trkpt lat="58.2167820" lon="13.8450587"></trkpt>
    <trkpt lat="58.2174262" lon="13.8450587"></trkpt>
    <trkpt lat="58.2179347" lon="13.8450265"></trkpt>
    <trkpt lat="58.2183755" lon="13.8452947"></trkpt>
    <trkpt lat="58.2190310" lon="13.8456488"></trkpt>
    <trkpt lat="58.2194717" lon="13.8456595"></trkpt>
    <trkpt lat="58.2199407" lon="13.8458848"></trkpt>
    <trkpt lat="58.2203645" lon="13.8463569"></trkpt>
    <trkpt lat="58.2209069" lon="13.8455844"></trkpt>
    <trkpt lat="58.2212629" lon="13.8453054"></trkpt>
    <trkpt lat="58.2219111" lon="13.8451117"></trkpt>
    <trkpt lat="58.2218813" lon="13.8443828"></trkpt>
    <trkpt lat="58.2217938" lon="13.8430042"></trkpt>
    <trkpt lat="58.2216714" lon="13.8425060"></trkpt>
    <trkpt lat="58.2214964" lon="13.8417585"></trkpt>
    <trkpt lat="58.2215052" lon="13.8410443"></trkpt>
    <trkpt lat="58.2215306" lon="13.8402457"></trkpt>
    <trkpt lat="58.2215401" lon="13.8399481"></trkpt>
    <trkpt lat="58.2216888" lon="13.8389806"></trkpt>
    <trkpt lat="58.2217785" lon="13.8384284"></trkpt>
    <trkpt lat="58.2218791" lon="13.8378969"></trkpt>
    <trkpt lat="58.2222333" lon="13.8365848"></trkpt>
    <trkpt lat="58.2223799" lon="13.8358415"></trkpt>
    <trkpt lat="58.2225132" lon="13.8353972"></trkpt>
    <trkpt lat="58.2227844" lon="13.8343633"></trkpt>
    <trkpt lat="58.2230140" lon="13.8333335"></trkpt>
    <trkpt lat="58.2231846" lon="13.8325113"></trkpt>
    <trkpt lat="58.2233923" lon="13.8317307"></trkpt>
    <trkpt lat="58.2235694" lon="13.8309417"></trkpt>
    <trkpt lat="58.2236962" lon="13.8304144"></trkpt>
    <trkpt lat="58.2238384" lon="13.8299743"></trkpt>
    <trkpt lat="58.2239630" lon="13.8296296"></trkpt>
    <trkpt lat="58.2241073" lon="13.8293556"></trkpt>
    <trkpt lat="58.2243325" lon="13.8290400"></trkpt>
    <trkpt lat="58.2250672" lon="13.8282884"></trkpt>
    <trkpt lat="58.2252531" lon="13.8280227"></trkpt>
    <trkpt lat="58.2254870" lon="13.8275784"></trkpt>
    <trkpt lat="58.2259243" lon="13.8266524"></trkpt>
    <trkpt lat="58.2263634" lon="13.8257556"></trkpt>
    <trkpt lat="58.2268402" lon="13.8247819"></trkpt>
    <trkpt lat="58.2273171" lon="13.8238081"></trkpt>
    <trkpt lat="58.2276451" lon="13.8229942"></trkpt>
    <trkpt lat="58.2278418" lon="13.8223381"></trkpt>
    <trkpt lat="58.2280233" lon="13.8215492"></trkpt>
    <trkpt lat="58.2282507" lon="13.8204156"></trkpt>
    <trkpt lat="58.2282944" lon="13.8200959"></trkpt>
    <trkpt lat="58.2283207" lon="13.8194896"></trkpt>
    <trkpt lat="58.2282616" lon="13.8182772"></trkpt>
    <trkpt lat="58.2282879" lon="13.8178744"></trkpt>
    <trkpt lat="58.2283381" lon="13.8176668"></trkpt>
    <trkpt lat="58.2283994" lon="13.8175131"></trkpt>
    <trkpt lat="58.2288334" lon="13.8171369"></trkpt>
    <trkpt lat="58.2286935" lon="13.8165303"></trkpt>
    <trkpt lat="58.2285206" lon="13.8160989"></trkpt>
    <trkpt lat="58.2283141" lon="13.8151930"></trkpt>
    <trkpt lat="58.2281075" lon="13.8142870"></trkpt>
    <trkpt lat="58.2279790" lon="13.8136125"></trkpt>
    <trkpt lat="58.2276909" lon="13.8120206"></trkpt>
    <trkpt lat="58.2275736" lon="13.8113567"></trkpt>
    <trkpt lat="58.2275079" lon="13.8110444"></trkpt>
    <trkpt lat="58.2274691" lon="13.8109463"></trkpt>
    <trkpt lat="58.2274204" lon="13.8108753"></trkpt>
    <trkpt lat="58.2273696" lon="13.8108404"></trkpt>
    <trkpt lat="58.2271831" lon="13.8108149"></trkpt>
    <trkpt lat="58.2269670" lon="13.8107787"></trkpt>
    <trkpt lat="58.2268710" lon="13.8107412"></trkpt>
    <trkpt lat="58.2268872" lon="13.8106661"></trkpt>
    <trkpt lat="58.2268957" lon="13.8105588"></trkpt>
    <trkpt lat="58.2269374" lon="13.8094711"></trkpt>
    <trkpt lat="58.2269699" lon="13.8081897"></trkpt>
    <trkpt lat="58.2269808" lon="13.8077733"></trkpt>
    <trkpt lat="58.2269840" lon="13.8076526"></trkpt>
    <trkpt lat="58.2270059" lon="13.8073817"></trkpt>
    <trkpt lat="58.2270440" lon="13.8072366"></trkpt>
    <trkpt lat="58.2270244" lon="13.8071714"></trkpt>
    <trkpt lat="58.2270158" lon="13.8071054"></trkpt>
    <trkpt lat="58.2270088" lon="13.8070186"></trkpt>
    <trkpt lat="58.2270123" lon="13.8068038"></trkpt>
    <trkpt lat="58.2270377" lon="13.8064040"></trkpt>
    <trkpt lat="58.2270440" lon="13.8060815"></trkpt>
  </trkseg></trk>
</gpx>
