<?xml version="1.0" encoding="UTF-8"?>
<gpx version="1.1" creator="pilegrimsleden-osm-extractor 1.0" xmlns="http://www.topografix.com/GPX/1/1">
  <trk><name>Franciskusleden</name><trkseg>
    <trkpt lat="57.6191467" lon="14.0690903"></trkpt>
    <trkpt lat="57.6196169" lon="14.0689858"></trkpt>
    <trkpt lat="57.6202123" lon="14.0687089"></trkpt>
    <trkpt lat="57.6208077" lon="14.0684320"></trkpt>
    <trkpt lat="57.6211130" lon="14.0683448"></trkpt>
    <trkpt lat="57.6218124" lon="14.0682308"></trkpt>
    <trkpt lat="57.6225118" lon="14.0681168"></trkpt>
    <trkpt lat="57.6230310" lon="14.0681681"></trkpt>
    <trkpt lat="57.6234207" lon="14.0684262"></trkpt>
    <trkpt lat="57.6238553" lon="14.0689377"></trkpt>
    <trkpt lat="57.6244764" lon="14.0698152"></trkpt>
    <trkpt lat="57.6250975" lon="14.0706927"></trkpt>
    <trkpt lat="57.6257186" lon="14.0715701"></trkpt>
    <trkpt lat="57.6263396" lon="14.0724476"></trkpt>
    <trkpt lat="57.6269607" lon="14.0733251"></trkpt>
    <trkpt lat="57.6275818" lon="14.0742026"></trkpt>
    <trkpt lat="57.6282029" lon="14.0750801"></trkpt>
    <trkpt lat="57.6283199" lon="14.0753283"></trkpt>
    <trkpt lat="57.6283501" lon="14.0751999"></trkpt>
    <trkpt lat="57.6284846" lon="14.0748379"></trkpt>
    <trkpt lat="57.6287044" lon="14.0746228"></trkpt>
    <trkpt lat="57.6291662" lon="14.0744844"></trkpt>
    <trkpt lat="57.6293266" lon="14.0743803"></trkpt>
    <trkpt lat="57.6295434" lon="14.0741732"></trkpt>
    <trkpt lat="57.6296514" lon="14.0737848"></trkpt>
    <trkpt lat="57.6296925" lon="14.0735130"></trkpt>
    <trkpt lat="57.6298868" lon="14.0731446"></trkpt>
    <trkpt lat="57.6301820" lon="14.0727813"></trkpt>
    <trkpt lat="57.6305743" lon="14.0724378"></trkpt>
    <trkpt lat="57.6308140" lon="14.0722923"></trkpt>
    <trkpt lat="57.6310170" lon="14.0722212"></trkpt>
    <trkpt lat="57.6313254" lon="14.0722457"></trkpt>
    <trkpt lat="57.6319139" lon="14.0721796"></trkpt>
    <trkpt lat="57.6321396" lon="14.0722203"></trkpt>
    <trkpt lat="57.6323365" lon="14.0723414"></trkpt>
    <trkpt lat="57.6325466" lon="14.0725487"></trkpt>
    <trkpt lat="57.6327623" lon="14.0725830"></trkpt>
    <trkpt lat="57.6329186" lon="14.0724893"></trkpt>
    <trkpt lat="57.6331062" lon="14.0724777"></trkpt>
    <trkpt lat="57.6335197" lon="14.0726153"></trkpt>
    <trkpt lat="57.6338009" lon="14.0726635"></trkpt>
    <trkpt lat="57.6341608" lon="14.0725671"></trkpt>
    <trkpt lat="57.6346166" lon="14.0725457"></trkpt>
    <trkpt lat="57.6348327" lon="14.0726068"></trkpt>
    <trkpt lat="57.6350834" lon="14.0727187"></trkpt>
    <trkpt lat="57.6358874" lon="14.0726672"></trkpt>
    <trkpt lat="57.6363724" lon="14.0725728"></trkpt>
    <trkpt lat="57.6366534" lon="14.0726355"></trkpt>
    <trkpt lat="57.6369369" lon="14.0726611"></trkpt>
    <trkpt lat="57.6371540" lon="14.0725560"></trkpt>
    <trkpt lat="57.6374342" lon="14.0722320"></trkpt>
    <trkpt lat="57.6379841" lon="14.0721756"></trkpt>
    <trkpt lat="57.6382033" lon="14.0720916"></trkpt>
    <trkpt lat="57.6388771" lon="14.0717087"></trkpt>
    <trkpt lat="57.6390797" lon="14.0718278"></trkpt>
    <trkpt lat="57.6394685" lon="14.0722718"></trkpt>
    <trkpt lat="57.6397879" lon="14.0724954"></trkpt>
    <trkpt lat="57.6399329" lon="14.0726278"></trkpt>
    <trkpt lat="57.6400995" lon="14.0727189"></trkpt>
    <trkpt lat="57.6405818" lon="14.0727518"></trkpt>
    <trkpt lat="57.6410911" lon="14.0729238"></trkpt>
    <trkpt lat="57.6416003" lon="14.0730958"></trkpt>
    <trkpt lat="57.6418633" lon="14.0732156"></trkpt>
    <trkpt lat="57.6424065" lon="14.0735401"></trkpt>
    <trkpt lat="57.6425253" lon="14.0737092"></trkpt>
    <trkpt lat="57.6425921" lon="14.0740027"></trkpt>
    <trkpt lat="57.6426685" lon="14.0744547"></trkpt>
    <trkpt lat="57.6428152" lon="14.0747326"></trkpt>
    <trkpt lat="57.6430693" lon="14.0748936"></trkpt>
    <trkpt lat="57.6432520" lon="14.0749183"></trkpt>
    <trkpt lat="57.6433773" lon="14.0748299"></trkpt>
    <trkpt lat="57.6439397" lon="14.0740789"></trkpt>
    <trkpt lat="57.6440182" lon="14.0740063"></trkpt>
    <trkpt lat="57.6441029" lon="14.0739842"></trkpt>
    <trkpt lat="57.6441794" lon="14.0740485"></trkpt>
    <trkpt lat="57.6445769" lon="14.0745604"></trkpt>
    <trkpt lat="57.6449744" lon="14.0750723"></trkpt>
    <trkpt lat="57.6450968" lon="14.0753628"></trkpt>
    <trkpt lat="57.6450849" lon="14.0761715"></trkpt>
    <trkpt lat="57.6450443" lon="14.0766008"></trkpt>
    <trkpt lat="57.6450398" lon="14.0770332"></trkpt>
    <trkpt lat="57.6450819" lon="14.0774018"></trkpt>
    <trkpt lat="57.6452161" lon="14.0781065"></trkpt>
    <trkpt lat="57.6452953" lon="14.0784327"></trkpt>
    <trkpt lat="57.6454153" lon="14.0787257"></trkpt>
    <trkpt lat="57.6455650" lon="14.0789189"></trkpt>
    <trkpt lat="57.6462811" lon="14.0795592"></trkpt>
    <trkpt lat="57.6469173" lon="14.0800195"></trkpt>
    <trkpt lat="57.6470922" lon="14.0800136"></trkpt>
    <trkpt lat="57.6472596" lon="14.0799692"></trkpt>
    <trkpt lat="57.6480514" lon="14.0796693"></trkpt>
    <trkpt lat="57.6488432" lon="14.0793694"></trkpt>
    <trkpt lat="57.6496350" lon="14.0790694"></trkpt>
    <trkpt lat="57.6504269" lon="14.0787695"></trkpt>
    <trkpt lat="57.6512187" lon="14.0784696"></trkpt>
    <trkpt lat="57.6518158" lon="14.0782692"></trkpt>
    <trkpt lat="57.6520868" lon="14.0782310"></trkpt>
    <trkpt lat="57.6523895" lon="14.0782485"></trkpt>
    <trkpt lat="57.6528445" lon="14.0783301"></trkpt>
    <trkpt lat="57.6532996" lon="14.0784117"></trkpt>
    <trkpt lat="57.6539057" lon="14.0785468"></trkpt>
    <trkpt lat="57.6545117" lon="14.0786819"></trkpt>
    <trkpt lat="57.6549361" lon="14.0787404"></trkpt>
    <trkpt lat="57.6552397" lon="14.0787644"></trkpt>
    <trkpt lat="57.6553972" lon="14.0787023"></trkpt>
    <trkpt lat="57.6555548" lon="14.0786259"></trkpt>
    <trkpt lat="57.6562214" lon="14.0781748"></trkpt>
    <trkpt lat="57.6568880" lon="14.0777236"></trkpt>
    <trkpt lat="57.6574980" lon="14.0773002"></trkpt>
    <trkpt lat="57.6581080" lon="14.0768768"></trkpt>
    <trkpt lat="57.6583266" lon="14.0766860"></trkpt>
    <trkpt lat="57.6584554" lon="14.0764634"></trkpt>
    <trkpt lat="57.6587250" lon="14.0756076"></trkpt>
    <trkpt lat="57.6588037" lon="14.0754899"></trkpt>
    <trkpt lat="57.6588901" lon="14.0753915"></trkpt>
    <trkpt lat="57.6591857" lon="14.0751449"></trkpt>
    <trkpt lat="57.6595017" lon="14.0749562"></trkpt>
    <trkpt lat="57.6598472" lon="14.0749369"></trkpt>
    <trkpt lat="57.6602049" lon="14.0749604"></trkpt>
    <trkpt lat="57.6603539" lon="14.0748945"></trkpt>
    <trkpt lat="57.6610240" lon="14.0754944"></trkpt>
    <trkpt lat="57.6616940" lon="14.0760944"></trkpt>
    <trkpt lat="57.6617729" lon="14.0761051"></trkpt>
    <trkpt lat="57.6618253" lon="14.0759498"></trkpt>
    <trkpt lat="57.6625266" lon="14.0765182"></trkpt>
    <trkpt lat="57.6626392" lon="14.0765149"></trkpt>
    <trkpt lat="57.6628838" lon="14.0767193"></trkpt>
    <trkpt lat="57.6629895" lon="14.0766411"></trkpt>
    <trkpt lat="57.6632755" lon="14.0756411"></trkpt>
    <trkpt lat="57.6635614" lon="14.0746411"></trkpt>
    <trkpt lat="57.6638474" lon="14.0736411"></trkpt>
    <trkpt lat="57.6639587" lon="14.0729654"></trkpt>
    <trkpt lat="57.6641086" lon="14.0717178"></trkpt>
    <trkpt lat="57.6641689" lon="14.0714634"></trkpt>
    <trkpt lat="57.6645288" lon="14.0713165"></trkpt>
    <trkpt lat="57.6652048" lon="14.0714477"></trkpt>
    <trkpt lat="57.6654981" lon="14.0713140"></trkpt>
    <trkpt lat="57.6657864" lon="14.0710242"></trkpt>
    <trkpt lat="57.6659629" lon="14.0706546"></trkpt>
    <trkpt lat="57.6661024" lon="14.0704865"></trkpt>
    <trkpt lat="57.6662131" lon="14.0701792"></trkpt>
    <trkpt lat="57.6662665" lon="14.0702997"></trkpt>
    <trkpt lat="57.6663788" lon="14.0704740"></trkpt>
    <trkpt lat="57.6665707" lon="14.0706025"></trkpt>
    <trkpt lat="57.6668472" lon="14.0706895"></trkpt>
    <trkpt lat="57.6670342" lon="14.0707858"></trkpt>
    <trkpt lat="57.6675838" lon="14.0711160"></trkpt>
    <trkpt lat="57.6677126" lon="14.0712636"></trkpt>
    <trkpt lat="57.6679080" lon="14.0717563"></trkpt>
    <trkpt lat="57.6679218" lon="14.0718793"></trkpt>
    <trkpt lat="57.6679177" lon="14.0719973"></trkpt>
    <trkpt lat="57.6678066" lon="14.0725076"></trkpt>
    <trkpt lat="57.6683221" lon="14.0729282"></trkpt>
    <trkpt lat="57.6690627" lon="14.0733883"></trkpt>
    <trkpt lat="57.6692009" lon="14.0735263"></trkpt>
    <trkpt lat="57.6692974" lon="14.0737240"></trkpt>
    <trkpt lat="57.6694038" lon="14.0740154"></trkpt>
    <trkpt lat="57.6694730" lon="14.0742696"></trkpt>
    <trkpt lat="57.6695677" lon="14.0748085"></trkpt>
    <trkpt lat="57.6696864" lon="14.0751631"></trkpt>
    <trkpt lat="57.6697882" lon="14.0752906"></trkpt>
    <trkpt lat="57.6701731" lon="14.0755958"></trkpt>
    <trkpt lat="57.6705668" lon="14.0755880"></trkpt>
    <trkpt lat="57.6708691" lon="14.0756507"></trkpt>
    <trkpt lat="57.6714280" lon="14.0761381"></trkpt>
    <trkpt lat="57.6715714" lon="14.0763260"></trkpt>
    <trkpt lat="57.6717288" lon="14.0764581"></trkpt>
    <trkpt lat="57.6718755" lon="14.0764198"></trkpt>
    <trkpt lat="57.6720901" lon="14.0764538"></trkpt>
    <trkpt lat="57.6722358" lon="14.0765740"></trkpt>
    <trkpt lat="57.6725442" lon="14.0770024"></trkpt>
    <trkpt lat="57.6728170" lon="14.0773171"></trkpt>
    <trkpt lat="57.6730598" lon="14.0777070"></trkpt>
    <trkpt lat="57.6733145" lon="14.0779627"></trkpt>
    <trkpt lat="57.6734690" lon="14.0783700"></trkpt>
    <trkpt lat="57.6734800" lon="14.0784930"></trkpt>
    <trkpt lat="57.6735676" lon="14.0787325"></trkpt>
    <trkpt lat="57.6736442" lon="14.0788592"></trkpt>
    <trkpt lat="57.6737238" lon="14.0794420"></trkpt>
    <trkpt lat="57.6738269" lon="14.0797331"></trkpt>
    <trkpt lat="57.6739390" lon="14.0798866"></trkpt>
    <trkpt lat="57.6740944" lon="14.0800580"></trkpt>
    <trkpt lat="57.6741595" lon="14.0800991"></trkpt>
    <trkpt lat="57.6744906" lon="14.0804835"></trkpt>
    <trkpt lat="57.6745392" lon="14.0803544"></trkpt>
    <trkpt lat="57.6750826" lon="14.0808668"></trkpt>
    <trkpt lat="57.6750705" lon="14.0810074"></trkpt>
    <trkpt lat="57.6751073" lon="14.0812099"></trkpt>
    <trkpt lat="57.6751871" lon="14.0813174"></trkpt>
    <trkpt lat="57.6753656" lon="14.0814386"></trkpt>
    <trkpt lat="57.6755097" lon="14.0815825"></trkpt>
    <trkpt lat="57.6759633" lon="14.0821118"></trkpt>
    <trkpt lat="57.6760066" lon="14.0822066"></trkpt>
    <trkpt lat="57.6764427" lon="14.0835880"></trkpt>
    <trkpt lat="57.6764815" lon="14.0835898"></trkpt>
    <trkpt lat="57.6765591" lon="14.0833759"></trkpt>
    <trkpt lat="57.6767088" lon="14.0831168"></trkpt>
    <trkpt lat="57.6768658" lon="14.0828944"></trkpt>
    <trkpt lat="57.6769034" lon="14.0828684"></trkpt>
    <trkpt lat="57.6771152" lon="14.0830207"></trkpt>
    <trkpt lat="57.6774258" lon="14.0834756"></trkpt>
    <trkpt lat="57.6775997" lon="14.0837942"></trkpt>
    <trkpt lat="57.6776233" lon="14.0839423"></trkpt>
    <trkpt lat="57.6776201" lon="14.0840900"></trkpt>
    <trkpt lat="57.6775726" lon="14.0844446"></trkpt>
    <trkpt lat="57.6775794" lon="14.0845638"></trkpt>
    <trkpt lat="57.6776269" lon="14.0846522"></trkpt>
    <trkpt lat="57.6776706" lon="14.0846355"></trkpt>
    <trkpt lat="57.6777406" lon="14.0843326"></trkpt>
    <trkpt lat="57.6778021" lon="14.0842556"></trkpt>
    <trkpt lat="57.6780684" lon="14.0841527"></trkpt>
    <trkpt lat="57.6781212" lon="14.0841713"></trkpt>
    <trkpt lat="57.6781557" lon="14.0842392"></trkpt>
    <trkpt lat="57.6782081" lon="14.0844415"></trkpt>
    <trkpt lat="57.6782623" lon="14.0845293"></trkpt>
    <trkpt lat="57.6783236" lon="14.0845742"></trkpt>
    <trkpt lat="57.6787879" lon="14.0847984"></trkpt>
    <trkpt lat="57.6793023" lon="14.0850075"></trkpt>
    <trkpt lat="57.6795655" lon="14.0849823"></trkpt>
    <trkpt lat="57.6797027" lon="14.0849340"></trkpt>
    <trkpt lat="57.6798562" lon="14.0849403"></trkpt>
    <trkpt lat="57.6799754" lon="14.0850016"></trkpt>
    <trkpt lat="57.6802964" lon="14.0849679"></trkpt>
    <trkpt lat="57.6804364" lon="14.0850462"></trkpt>
    <trkpt lat="57.6806192" lon="14.0850885"></trkpt>
    <trkpt lat="57.6806503" lon="14.0854455"></trkpt>
    <trkpt lat="57.6807240" lon="14.0859048"></trkpt>
    <trkpt lat="57.6808320" lon="14.0861726"></trkpt>
    <trkpt lat="57.6811806" lon="14.0868346"></trkpt>
    <trkpt lat="57.6812603" lon="14.0870665"></trkpt>
    <trkpt lat="57.6813550" lon="14.0871302"></trkpt>
    <trkpt lat="57.6814602" lon="14.0869899"></trkpt>
    <trkpt lat="57.6816106" lon="14.0867263"></trkpt>
    <trkpt lat="57.6818095" lon="14.0864722"></trkpt>
    <trkpt lat="57.6820618" lon="14.0863521"></trkpt>
    <trkpt lat="57.6823752" lon="14.0864015"></trkpt>
    <trkpt lat="57.6828015" lon="14.0867012"></trkpt>
    <trkpt lat="57.6830956" lon="14.0867946"></trkpt>
    <trkpt lat="57.6832717" lon="14.0867354"></trkpt>
    <trkpt lat="57.6834485" lon="14.0865253"></trkpt>
    <trkpt lat="57.6835491" lon="14.0863407"></trkpt>
    <trkpt lat="57.6836726" lon="14.0865428"></trkpt>
    <trkpt lat="57.6837552" lon="14.0870011"></trkpt>
    <trkpt lat="57.6837819" lon="14.0873734"></trkpt>
    <trkpt lat="57.6836900" lon="14.0877179"></trkpt>
    <trkpt lat="57.6842180" lon="14.0887731"></trkpt>
    <trkpt lat="57.6844569" lon="14.0883455"></trkpt>
    <trkpt lat="57.6845100" lon="14.0883148"></trkpt>
    <trkpt lat="57.6846723" lon="14.0887526"></trkpt>
    <trkpt lat="57.6847060" lon="14.0889338"></trkpt>
    <trkpt lat="57.6847023" lon="14.0890944"></trkpt>
    <trkpt lat="57.6847555" lon="14.0893632"></trkpt>
    <trkpt lat="57.6848304" lon="14.0896023"></trkpt>
    <trkpt lat="57.6848955" lon="14.0897810"></trkpt>
    <trkpt lat="57.6850366" lon="14.0899662"></trkpt>
    <trkpt lat="57.6855294" lon="14.0899840"></trkpt>
    <trkpt lat="57.6860221" lon="14.0900019"></trkpt>
    <trkpt lat="57.6863926" lon="14.0901105"></trkpt>
    <trkpt lat="57.6868881" lon="14.0903036"></trkpt>
    <trkpt lat="57.6875404" lon="14.0905999"></trkpt>
    <trkpt lat="57.6883163" lon="14.0905873"></trkpt>
    <trkpt lat="57.6890921" lon="14.0905746"></trkpt>
    <trkpt lat="57.6898680" lon="14.0905619"></trkpt>
    <trkpt lat="57.6900449" lon="14.0906158"></trkpt>
    <trkpt lat="57.6907864" lon="14.0909785"></trkpt>
    <trkpt lat="57.6909461" lon="14.0909925"></trkpt>
    <trkpt lat="57.6915008" lon="14.0909246"></trkpt>
    <trkpt lat="57.6918636" lon="14.0907731"></trkpt>
    <trkpt lat="57.6919986" lon="14.0905320"></trkpt>
    <trkpt lat="57.6921247" lon="14.0907946"></trkpt>
    <trkpt lat="57.6922316" lon="14.0909603"></trkpt>
    <trkpt lat="57.6924125" lon="14.0911496"></trkpt>
    <trkpt lat="57.6930731" lon="14.0916361"></trkpt>
    <trkpt lat="57.6938260" lon="14.0919945"></trkpt>
    <trkpt lat="57.6945299" lon="14.0920633"></trkpt>
    <trkpt lat="57.6948200" lon="14.0917615"></trkpt>
    <trkpt lat="57.6948785" lon="14.0915113"></trkpt>
    <trkpt lat="57.6948630" lon="14.0913067"></trkpt>
    <trkpt lat="57.6948608" lon="14.0908286"></trkpt>
    <trkpt lat="57.6949017" lon="14.0906672"></trkpt>
    <trkpt lat="57.6949769" lon="14.0905805"></trkpt>
    <trkpt lat="57.6957274" lon="14.0906346"></trkpt>
    <trkpt lat="57.6958808" lon="14.0905639"></trkpt>
    <trkpt lat="57.6961625" lon="14.0900901"></trkpt>
    <trkpt lat="57.6963420" lon="14.0896964"></trkpt>
    <trkpt lat="57.6965046" lon="14.0894806"></trkpt>
    <trkpt lat="57.6970394" lon="14.0891776"></trkpt>
    <trkpt lat="57.6972449" lon="14.0891068"></trkpt>
    <trkpt lat="57.6977047" lon="14.0892996"></trkpt>
    <trkpt lat="57.6983576" lon="14.0896204"></trkpt>
    <trkpt lat="57.6983908" lon="14.0895293"></trkpt>
    <trkpt lat="57.6983838" lon="14.0893291"></trkpt>
    <trkpt lat="57.6983120" lon="14.0889974"></trkpt>
    <trkpt lat="57.6983400" lon="14.0887839"></trkpt>
    <trkpt lat="57.6984992" lon="14.0884964"></trkpt>
    <trkpt lat="57.6987121" lon="14.0878856"></trkpt>
    <trkpt lat="57.6987122" lon="14.0877138"></trkpt>
    <trkpt lat="57.6986434" lon="14.0870875"></trkpt>
    <trkpt lat="57.6987043" lon="14.0866423"></trkpt>
    <trkpt lat="57.6987190" lon="14.0862734"></trkpt>
    <trkpt lat="57.6987039" lon="14.0861212"></trkpt>
    <trkpt lat="57.6986338" lon="14.0859830"></trkpt>
    <trkpt lat="57.6985325" lon="14.0858969"></trkpt>
    <trkpt lat="57.6983754" lon="14.0858250"></trkpt>
    <trkpt lat="57.6983039" lon="14.0857280"></trkpt>
    <trkpt lat="57.6982822" lon="14.0854816"></trkpt>
    <trkpt lat="57.6983318" lon="14.0851994"></trkpt>
    <trkpt lat="57.6983788" lon="14.0851126"></trkpt>
    <trkpt lat="57.6983968" lon="14.0849414"></trkpt>
    <trkpt lat="57.6981191" lon="14.0841926"></trkpt>
    <trkpt lat="57.6984275" lon="14.0838426"></trkpt>
    <trkpt lat="57.6988026" lon="14.0835242"></trkpt>
    <trkpt lat="57.6989992" lon="14.0834051"></trkpt>
    <trkpt lat="57.6990916" lon="14.0832740"></trkpt>
    <trkpt lat="57.6992167" lon="14.0829919"></trkpt>
    <trkpt lat="57.6995753" lon="14.0827164"></trkpt>
    <trkpt lat="57.6998499" lon="14.0824689"></trkpt>
    <trkpt lat="57.7002060" lon="14.0825955"></trkpt>
    <trkpt lat="57.7004000" lon="14.0827696"></trkpt>
    <trkpt lat="57.7007214" lon="14.0834205"></trkpt>
    <trkpt lat="57.7009220" lon="14.0836343"></trkpt>
    <trkpt lat="57.7011560" lon="14.0839510"></trkpt>
    <trkpt lat="57.7012956" lon="14.0840148"></trkpt>
    <trkpt lat="57.7016111" lon="14.0840980"></trkpt>
    <trkpt lat="57.7018981" lon="14.0840714"></trkpt>
    <trkpt lat="57.7020028" lon="14.0840123"></trkpt>
    <trkpt lat="57.7024378" lon="14.0841615"></trkpt>
    <trkpt lat="57.7025899" lon="14.0841602"></trkpt>
    <trkpt lat="57.7026964" lon="14.0840681"></trkpt>
    <trkpt lat="57.7027662" lon="14.0838631"></trkpt>
    <trkpt lat="57.7028849" lon="14.0833854"></trkpt>
    <trkpt lat="57.7029826" lon="14.0831077"></trkpt>
    <trkpt lat="57.7033735" lon="14.0825288"></trkpt>
    <trkpt lat="57.7037276" lon="14.0830753"></trkpt>
    <trkpt lat="57.7040817" lon="14.0836218"></trkpt>
    <trkpt lat="57.7045304" lon="14.0841927"></trkpt>
    <trkpt lat="57.7047185" lon="14.0843904"></trkpt>
    <trkpt lat="57.7049924" lon="14.0845920"></trkpt>
    <trkpt lat="57.7055705" lon="14.0848917"></trkpt>
    <trkpt lat="57.7061486" lon="14.0851913"></trkpt>
    <trkpt lat="57.7067943" lon="14.0859128"></trkpt>
    <trkpt lat="57.7069196" lon="14.0859865"></trkpt>
    <trkpt lat="57.7070505" lon="14.0860303"></trkpt>
    <trkpt lat="57.7076932" lon="14.0860236"></trkpt>
    <trkpt lat="57.7079195" lon="14.0861014"></trkpt>
    <trkpt lat="57.7081293" lon="14.0862291"></trkpt>
    <trkpt lat="57.7083672" lon="14.0864019"></trkpt>
    <trkpt lat="57.7087864" lon="14.0867933"></trkpt>
    <trkpt lat="57.7092681" lon="14.0873659"></trkpt>
    <trkpt lat="57.7093017" lon="14.0871993"></trkpt>
    <trkpt lat="57.7097409" lon="14.0867950"></trkpt>
    <trkpt lat="57.7101527" lon="14.0863471"></trkpt>
    <trkpt lat="57.7108465" lon="14.0854357"></trkpt>
    <trkpt lat="57.7115402" lon="14.0845244"></trkpt>
    <trkpt lat="57.7117115" lon="14.0841614"></trkpt>
    <trkpt lat="57.7120329" lon="14.0833375"></trkpt>
    <trkpt lat="57.7122778" lon="14.0830569"></trkpt>
    <trkpt lat="57.7124953" lon="14.0830776"></trkpt>
    <trkpt lat="57.7130352" lon="14.0831985"></trkpt>
    <trkpt lat="57.7133398" lon="14.0829521"></trkpt>
    <trkpt lat="57.7135323" lon="14.0827032"></trkpt>
    <trkpt lat="57.7136764" lon="14.0825917"></trkpt>
    <trkpt lat="57.7140965" lon="14.0825519"></trkpt>
    <trkpt lat="57.7146751" lon="14.0823511"></trkpt>
    <trkpt lat="57.7150570" lon="14.0819577"></trkpt>
    <trkpt lat="57.7156075" lon="14.0810787"></trkpt>
    <trkpt lat="57.7158196" lon="14.0804737"></trkpt>
    <trkpt lat="57.7159486" lon="14.0804089"></trkpt>
    <trkpt lat="57.7160959" lon="14.0805251"></trkpt>
    <trkpt lat="57.7164075" lon="14.0808878"></trkpt>
    <trkpt lat="57.7169651" lon="14.0810081"></trkpt>
    <trkpt lat="57.7174327" lon="14.0808720"></trkpt>
    <trkpt lat="57.7177188" lon="14.0807494"></trkpt>
    <trkpt lat="57.7182893" lon="14.0806791"></trkpt>
    <trkpt lat="57.7188726" lon="14.0803524"></trkpt>
    <trkpt lat="57.7191098" lon="14.0802954"></trkpt>
    <trkpt lat="57.7194102" lon="14.0803319"></trkpt>
    <trkpt lat="57.7196332" lon="14.0804322"></trkpt>
    <trkpt lat="57.7197698" lon="14.0805452"></trkpt>
    <trkpt lat="57.7204674" lon="14.0807748"></trkpt>
    <trkpt lat="57.7206340" lon="14.0807409"></trkpt>
    <trkpt lat="57.7211929" lon="14.0807511"></trkpt>
    <trkpt lat="57.7214468" lon="14.0810039"></trkpt>
    <trkpt lat="57.7219080" lon="14.0813092"></trkpt>
    <trkpt lat="57.7223456" lon="14.0815459"></trkpt>
    <trkpt lat="57.7227833" lon="14.0817827"></trkpt>
    <trkpt lat="57.7233953" lon="14.0822766"></trkpt>
    <trkpt lat="57.7240073" lon="14.0827705"></trkpt>
    <trkpt lat="57.7246222" lon="14.0832930"></trkpt>
    <trkpt lat="57.7252371" lon="14.0838154"></trkpt>
    <trkpt lat="57.7256547" lon="14.0841884"></trkpt>
    <trkpt lat="57.7260722" lon="14.0845614"></trkpt>
    <trkpt lat="57.7267467" lon="14.0850899"></trkpt>
    <trkpt lat="57.7271069" lon="14.0852609"></trkpt>
    <trkpt lat="57.7273813" lon="14.0853027"></trkpt>
    <trkpt lat="57.7281696" lon="14.0851305"></trkpt>
    <trkpt lat="57.7289579" lon="14.0849584"></trkpt>
    <trkpt lat="57.7297462" lon="14.0847862"></trkpt>
    <trkpt lat="57.7305345" lon="14.0846140"></trkpt>
    <trkpt lat="57.7313227" lon="14.0844418"></trkpt>
    <trkpt lat="57.7317103" lon="14.0843885"></trkpt>
    <trkpt lat="57.7321366" lon="14.0858235"></trkpt>
    <trkpt lat="57.7324694" lon="14.0868671"></trkpt>
    <trkpt lat="57.7328021" lon="14.0879106"></trkpt>
    <trkpt lat="57.7331791" lon="14.0888459"></trkpt>
    <trkpt lat="57.7335560" lon="14.0897812"></trkpt>
    <trkpt lat="57.7339330" lon="14.0907165"></trkpt>
    <trkpt lat="57.7340883" lon="14.0909919"></trkpt>
    <trkpt lat="57.7343857" lon="14.0913495"></trkpt>
    <trkpt lat="57.7344534" lon="14.0915813"></trkpt>
    <trkpt lat="57.7344966" lon="14.0919903"></trkpt>
    <trkpt lat="57.7345441" lon="14.0922417"></trkpt>
    <trkpt lat="57.7350133" lon="14.0933953"></trkpt>
    <trkpt lat="57.7354825" lon="14.0945489"></trkpt>
    <trkpt lat="57.7359518" lon="14.0957025"></trkpt>
    <trkpt lat="57.7362678" lon="14.0968089"></trkpt>
    <trkpt lat="57.7365409" lon="14.0979147"></trkpt>
    <trkpt lat="57.7366718" lon="14.0988674"></trkpt>
    <trkpt lat="57.7368027" lon="14.0998202"></trkpt>
    <trkpt lat="57.7369121" lon="14.1009707"></trkpt>
    <trkpt lat="57.7370215" lon="14.1021213"></trkpt>
    <trkpt lat="57.7371309" lon="14.1032719"></trkpt>
    <trkpt lat="57.7372921" lon="14.1043845"></trkpt>
    <trkpt lat="57.7374801" lon="14.1053090"></trkpt>
    <trkpt lat="57.7377407" lon="14.1061745"></trkpt>
    <trkpt lat="57.7379931" lon="14.1068693"></trkpt>
    <trkpt lat="57.7383710" lon="14.1076715"></trkpt>
    <trkpt lat="57.7388871" lon="14.1084981"></trkpt>
    <trkpt lat="57.7395697" lon="14.1092675"></trkpt>
    <trkpt lat="57.7400664" lon="14.1096105"></trkpt>
    <trkpt lat="57.7403925" lon="14.1098034"></trkpt>
    <trkpt lat="57.7412580" lon="14.1100757"></trkpt>
    <trkpt lat="57.7418259" lon="14.1100905"></trkpt>
    <trkpt lat="57.7425056" lon="14.1100154"></trkpt>
    <trkpt lat="57.7431852" lon="14.1099404"></trkpt>
    <trkpt lat="57.7438269" lon="14.1101005"></trkpt>
    <trkpt lat="57.7441290" lon="14.1102829"></trkpt>
    <trkpt lat="57.7444094" lon="14.1105100"></trkpt>
    <trkpt lat="57.7444051" lon="14.1106131"></trkpt>
    <trkpt lat="57.7444740" lon="14.1107672"></trkpt>
    <trkpt lat="57.7447967" lon="14.1110766"></trkpt>
    <trkpt lat="57.7448703" lon="14.1112189"></trkpt>
    <trkpt lat="57.7449006" lon="14.1113327"></trkpt>
    <trkpt lat="57.7449361" lon="14.1115977"></trkpt>
    <trkpt lat="57.7450009" lon="14.1122097"></trkpt>
    <trkpt lat="57.7450120" lon="14.1123609"></trkpt>
    <trkpt lat="57.7450032" lon="14.1124763"></trkpt>
    <trkpt lat="57.7449731" lon="14.1125580"></trkpt>
    <trkpt lat="57.7448419" lon="14.1126735"></trkpt>
    <trkpt lat="57.7443796" lon="14.1129633"></trkpt>
    <trkpt lat="57.7442627" lon="14.1130635"></trkpt>
    <trkpt lat="57.7441677" lon="14.1132593"></trkpt>
    <trkpt lat="57.7441169" lon="14.1134820"></trkpt>
    <trkpt lat="57.7441248" lon="14.1140620"></trkpt>
    <trkpt lat="57.7440819" lon="14.1145766"></trkpt>
    <trkpt lat="57.7440695" lon="14.1149252"></trkpt>
    <trkpt lat="57.7440832" lon="14.1154832"></trkpt>
    <trkpt lat="57.7440699" lon="14.1158775"></trkpt>
    <trkpt lat="57.7439732" lon="14.1164143"></trkpt>
    <trkpt lat="57.7439508" lon="14.1166325"></trkpt>
    <trkpt lat="57.7439623" lon="14.1169073"></trkpt>
    <trkpt lat="57.7441612" lon="14.1184981"></trkpt>
    <trkpt lat="57.7441685" lon="14.1187435"></trkpt>
    <trkpt lat="57.7441546" lon="14.1189805"></trkpt>
    <trkpt lat="57.7440904" lon="14.1196425"></trkpt>
    <trkpt lat="57.7441386" lon="14.1197740"></trkpt>
    <trkpt lat="57.7443191" lon="14.1197157"></trkpt>
    <trkpt lat="57.7448671" lon="14.1197463"></trkpt>
    <trkpt lat="57.7450639" lon="14.1197265"></trkpt>
    <trkpt lat="57.7451526" lon="14.1197802"></trkpt>
    <trkpt lat="57.7456052" lon="14.1202314"></trkpt>
    <trkpt lat="57.7460883" lon="14.1206707"></trkpt>
    <trkpt lat="57.7465714" lon="14.1211099"></trkpt>
    <trkpt lat="57.7473263" lon="14.1217018"></trkpt>
    <trkpt lat="57.7474833" lon="14.1218608"></trkpt>
    <trkpt lat="57.7476397" lon="14.1220904"></trkpt>
    <trkpt lat="57.7480516" lon="14.1229237"></trkpt>
    <trkpt lat="57.7482774" lon="14.1234773"></trkpt>
    <trkpt lat="57.7485010" lon="14.1239230"></trkpt>
    <trkpt lat="57.7485639" lon="14.1241153"></trkpt>
    <trkpt lat="57.7487818" lon="14.1245112"></trkpt>
    <trkpt lat="57.7488919" lon="14.1246598"></trkpt>
    <trkpt lat="57.7490290" lon="14.1247158"></trkpt>
    <trkpt lat="57.7495301" lon="14.1247566"></trkpt>
    <trkpt lat="57.7496633" lon="14.1248312"></trkpt>
    <trkpt lat="57.7497610" lon="14.1249378"></trkpt>
    <trkpt lat="57.7498237" lon="14.1250588"></trkpt>
    <trkpt lat="57.7499396" lon="14.1254331"></trkpt>
    <trkpt lat="57.7500182" lon="14.1257566"></trkpt>
    <trkpt lat="57.7500608" lon="14.1257484"></trkpt>
    <trkpt lat="57.7501037" lon="14.1256901"></trkpt>
    <trkpt lat="57.7502968" lon="14.1252587"></trkpt>
    <trkpt lat="57.7504654" lon="14.1248283"></trkpt>
    <trkpt lat="57.7505119" lon="14.1243342"></trkpt>
    <trkpt lat="57.7506821" lon="14.1239145"></trkpt>
    <trkpt lat="57.7507771" lon="14.1238302"></trkpt>
    <trkpt lat="57.7509260" lon="14.1238104"></trkpt>
    <trkpt lat="57.7511635" lon="14.1239022"></trkpt>
    <trkpt lat="57.7514280" lon="14.1241026"></trkpt>
    <trkpt lat="57.7516852" lon="14.1244627"></trkpt>
    <trkpt lat="57.7517477" lon="14.1244741"></trkpt>
    <trkpt lat="57.7519059" lon="14.1244253"></trkpt>
    <trkpt lat="57.7521530" lon="14.1242354"></trkpt>
    <trkpt lat="57.7522925" lon="14.1240814"></trkpt>
    <trkpt lat="57.7525471" lon="14.1240514"></trkpt>
    <trkpt lat="57.7528617" lon="14.1241479"></trkpt>
    <trkpt lat="57.7531257" lon="14.1242659"></trkpt>
    <trkpt lat="57.7532331" lon="14.1244550"></trkpt>
    <trkpt lat="57.7533424" lon="14.1248435"></trkpt>
    <trkpt lat="57.7535248" lon="14.1251044"></trkpt>
    <trkpt lat="57.7536403" lon="14.1251438"></trkpt>
    <trkpt lat="57.7538079" lon="14.1252531"></trkpt>
    <trkpt lat="57.7543384" lon="14.1258087"></trkpt>
    <trkpt lat="57.7548688" lon="14.1263643"></trkpt>
    <trkpt lat="57.7553992" lon="14.1269198"></trkpt>
    <trkpt lat="57.7560096" lon="14.1274057"></trkpt>
    <trkpt lat="57.7567850" lon="14.1278974"></trkpt>
    <trkpt lat="57.7570871" lon="14.1281378"></trkpt>
    <trkpt lat="57.7574914" lon="14.1286587"></trkpt>
    <trkpt lat="57.7576060" lon="14.1288952"></trkpt>
    <trkpt lat="57.7579468" lon="14.1298772"></trkpt>
    <trkpt lat="57.7581341" lon="14.1302583"></trkpt>
    <trkpt lat="57.7583354" lon="14.1305735"></trkpt>
    <trkpt lat="57.7586777" lon="14.1309416"></trkpt>
    <trkpt lat="57.7592516" lon="14.1314934"></trkpt>
    <trkpt lat="57.7598255" lon="14.1320452"></trkpt>
    <trkpt lat="57.7603345" lon="14.1327041"></trkpt>
    <trkpt lat="57.7611163" lon="14.1334845"></trkpt>
    <trkpt lat="57.7618980" lon="14.1342649"></trkpt>
    <trkpt lat="57.7621774" lon="14.1346020"></trkpt>
    <trkpt lat="57.7628085" lon="14.1351995"></trkpt>
    <trkpt lat="57.7634397" lon="14.1357970"></trkpt>
    <trkpt lat="57.7640708" lon="14.1363945"></trkpt>
    <trkpt lat="57.7646313" lon="14.1368934"></trkpt>
    <trkpt lat="57.7651791" lon="14.1374436"></trkpt>
    <trkpt lat="57.7657269" lon="14.1379938"></trkpt>
    <trkpt lat="57.7660567" lon="14.1383850"></trkpt>
    <trkpt lat="57.7666618" lon="14.1392406"></trkpt>
    <trkpt lat="57.7670462" lon="14.1398559"></trkpt>
    <trkpt lat="57.7674633" lon="14.1406446"></trkpt>
    <trkpt lat="57.7678805" lon="14.1414333"></trkpt>
    <trkpt lat="57.7680140" lon="14.1416016"></trkpt>
    <trkpt lat="57.7681984" lon="14.1416022"></trkpt>
    <trkpt lat="57.7683543" lon="14.1417039"></trkpt>
    <trkpt lat="57.7685240" lon="14.1417558"></trkpt>
    <trkpt lat="57.7686035" lon="14.1421151"></trkpt>
    <trkpt lat="57.7690362" lon="14.1432857"></trkpt>
    <trkpt lat="57.7694689" lon="14.1444563"></trkpt>
    <trkpt lat="57.7699016" lon="14.1456269"></trkpt>
    <trkpt lat="57.7703255" lon="14.1468037"></trkpt>
    <trkpt lat="57.7707494" lon="14.1479806"></trkpt>
    <trkpt lat="57.7711733" lon="14.1491574"></trkpt>
    <trkpt lat="57.7715435" lon="14.1505876"></trkpt>
    <trkpt lat="57.7716552" lon="14.1516710"></trkpt>
    <trkpt lat="57.7717685" lon="14.1518871"></trkpt>
    <trkpt lat="57.7722288" lon="14.1521668"></trkpt>
    <trkpt lat="57.7726891" lon="14.1524464"></trkpt>
    <trkpt lat="57.7735104" lon="14.1530015"></trkpt>
    <trkpt lat="57.7743317" lon="14.1535566"></trkpt>
    <trkpt lat="57.7751530" lon="14.1541117"></trkpt>
    <trkpt lat="57.7759743" lon="14.1546668"></trkpt>
    <trkpt lat="57.7767956" lon="14.1552219"></trkpt>
    <trkpt lat="57.7776169" lon="14.1557770"></trkpt>
    <trkpt lat="57.7784382" lon="14.1563321"></trkpt>
    <trkpt lat="57.7792595" lon="14.1568872"></trkpt>
    <trkpt lat="57.7800808" lon="14.1574423"></trkpt>
    <trkpt lat="57.7809021" lon="14.1579974"></trkpt>
    <trkpt lat="57.7817234" lon="14.1585525"></trkpt>
    <trkpt lat="57.7815107" lon="14.1597448"></trkpt>
    <trkpt lat="57.7812980" lon="14.1609371"></trkpt>
    <trkpt lat="57.7810123" lon="14.1624554"></trkpt>
    <trkpt lat="57.7807265" lon="14.1639738"></trkpt>
    <trkpt lat="57.7805109" lon="14.1652082"></trkpt>
    <trkpt lat="57.7802952" lon="14.1664426"></trkpt>
    <trkpt lat="57.7802421" lon="14.1665651"></trkpt>
    <trkpt lat="57.7799775" lon="14.1680183"></trkpt>
    <trkpt lat="57.7805343" lon="14.1683106"></trkpt>
    <trkpt lat="57.7811224" lon="14.1684292"></trkpt>
    <trkpt lat="57.7812038" lon="14.1683048"></trkpt>
    <trkpt lat="57.7816056" lon="14.1683953"></trkpt>
    <trkpt lat="57.7816638" lon="14.1685752"></trkpt>
    <trkpt lat="57.7816659" lon="14.1691923"></trkpt>
    <trkpt lat="57.7824242" lon="14.1691365"></trkpt>
    <trkpt lat="57.7831825" lon="14.1690806"></trkpt>
    <trkpt lat="57.7839409" lon="14.1690248"></trkpt>
    <trkpt lat="57.7839901" lon="14.1691640"></trkpt>
    <trkpt lat="57.7838002" lon="14.1707906"></trkpt>
    <trkpt lat="57.7836831" lon="14.1715715"></trkpt>
    <trkpt lat="57.7835126" lon="14.1731152"></trkpt>
    <trkpt lat="57.7833296" lon="14.1746069"></trkpt>
    <trkpt lat="57.7831465" lon="14.1760986"></trkpt>
    <trkpt lat="57.7830097" lon="14.1770899"></trkpt>
    <trkpt lat="57.7828730" lon="14.1780812"></trkpt>
    <trkpt lat="57.7827744" lon="14.1789991"></trkpt>
    <trkpt lat="57.7826757" lon="14.1799170"></trkpt>
    <trkpt lat="57.7825833" lon="14.1809367"></trkpt>
    <trkpt lat="57.7824910" lon="14.1819564"></trkpt>
    <trkpt lat="57.7824247" lon="14.1828666"></trkpt>
    <trkpt lat="57.7823585" lon="14.1837769"></trkpt>
    <trkpt lat="57.7823231" lon="14.1848819"></trkpt>
    <trkpt lat="57.7822340" lon="14.1864662"></trkpt>
    <trkpt lat="57.7821367" lon="14.1874572"></trkpt>
    <trkpt lat="57.7819397" lon="14.1888654"></trkpt>
    <trkpt lat="57.7819419" lon="14.1902710"></trkpt>
    <trkpt lat="57.7819442" lon="14.1916765"></trkpt>
    <trkpt lat="57.7819464" lon="14.1930820"></trkpt>
    <trkpt lat="57.7819625" lon="14.1937635"></trkpt>
    <trkpt lat="57.7819388" lon="14.1940615"></trkpt>
    <trkpt lat="57.7819481" lon="14.1950438"></trkpt>
    <trkpt lat="57.7819575" lon="14.1960261"></trkpt>
    <trkpt lat="57.7820047" lon="14.1975607"></trkpt>
    <trkpt lat="57.7820519" lon="14.1990953"></trkpt>
    <trkpt lat="57.7821070" lon="14.2002545"></trkpt>
    <trkpt lat="57.7821622" lon="14.2014136"></trkpt>
    <trkpt lat="57.7821941" lon="14.2025629"></trkpt>
    <trkpt lat="57.7822541" lon="14.2038186"></trkpt>
    <trkpt lat="57.7822871" lon="14.2042028"></trkpt>
    <trkpt lat="57.7824183" lon="14.2052656"></trkpt>
    <trkpt lat="57.7825044" lon="14.2059044"></trkpt>
    <trkpt lat="57.7827151" lon="14.2069133"></trkpt>
    <trkpt lat="57.7827909" lon="14.2077979"></trkpt>
    <trkpt lat="57.7829529" lon="14.2086671"></trkpt>
    <trkpt lat="57.7831148" lon="14.2095363"></trkpt>
    <trkpt lat="57.7831666" lon="14.2098797"></trkpt>
    <trkpt lat="57.7832312" lon="14.2101785"></trkpt>
    <trkpt lat="57.7834592" lon="14.2108084"></trkpt>
    <trkpt lat="57.7836888" lon="14.2115828"></trkpt>
    <trkpt lat="57.7837240" lon="14.2117729"></trkpt>
    <trkpt lat="57.7837373" lon="14.2122332"></trkpt>
    <trkpt lat="57.7837239" lon="14.2125626"></trkpt>
    <trkpt lat="57.7837437" lon="14.2125978"></trkpt>
    <trkpt lat="57.7839338" lon="14.2126963"></trkpt>
    <trkpt lat="57.7846614" lon="14.2126279"></trkpt>
    <trkpt lat="57.7849485" lon="14.2123464"></trkpt>
    <trkpt lat="57.7852567" lon="14.2121353"></trkpt>
    <trkpt lat="57.7854543" lon="14.2121078"></trkpt>
    <trkpt lat="57.7856186" lon="14.2122382"></trkpt>
    <trkpt lat="57.7858137" lon="14.2126361"></trkpt>
    <trkpt lat="57.7861171" lon="14.2131079"></trkpt>
    <trkpt lat="57.7863263" lon="14.2135036"></trkpt>
    <trkpt lat="57.7865430" lon="14.2136107"></trkpt>
    <trkpt lat="57.7866778" lon="14.2137191"></trkpt>
    <trkpt lat="57.7867870" lon="14.2139479"></trkpt>
    <trkpt lat="57.7869774" lon="14.2147670"></trkpt>
    <trkpt lat="57.7871793" lon="14.2160629"></trkpt>
    <trkpt lat="57.7872774" lon="14.2165602"></trkpt>
    <trkpt lat="57.7877774" lon="14.2177535"></trkpt>
    <trkpt lat="57.7877859" lon="14.2180095"></trkpt>
    <trkpt lat="57.7878590" lon="14.2181717"></trkpt>
    <trkpt lat="57.7879100" lon="14.2182348"></trkpt>
    <trkpt lat="57.7880552" lon="14.2182796"></trkpt>
    <trkpt lat="57.7883665" lon="14.2187102"></trkpt>
    <trkpt lat="57.7884717" lon="14.2189585"></trkpt>
    <trkpt lat="57.7885369" lon="14.2192987"></trkpt>
    <trkpt lat="57.7890939" lon="14.2201544"></trkpt>
    <trkpt lat="57.7896509" lon="14.2210101"></trkpt>
    <trkpt lat="57.7902173" lon="14.2214332"></trkpt>
    <trkpt lat="57.7907499" lon="14.2221207"></trkpt>
    <trkpt lat="57.7912824" lon="14.2228082"></trkpt>
    <trkpt lat="57.7913560" lon="14.2231609"></trkpt>
    <trkpt lat="57.7914434" lon="14.2233667"></trkpt>
    <trkpt lat="57.7914617" lon="14.2234635"></trkpt>
    <trkpt lat="57.7914696" lon="14.2235622"></trkpt>
    <trkpt lat="57.7914493" lon="14.2237959"></trkpt>
    <trkpt lat="57.7914594" lon="14.2238670"></trkpt>
    <trkpt lat="57.7918536" lon="14.2248858"></trkpt>
    <trkpt lat="57.7920356" lon="14.2251038"></trkpt>
    <trkpt lat="57.7921443" lon="14.2253800"></trkpt>
    <trkpt lat="57.7924064" lon="14.2262323"></trkpt>
    <trkpt lat="57.7926686" lon="14.2270847"></trkpt>
    <trkpt lat="57.7928129" lon="14.2277780"></trkpt>
    <trkpt lat="57.7928994" lon="14.2282567"></trkpt>
    <trkpt lat="57.7930771" lon="14.2296009"></trkpt>
    <trkpt lat="57.7930975" lon="14.2307370"></trkpt>
    <trkpt lat="57.7933821" lon="14.2320402"></trkpt>
    <trkpt lat="57.7936668" lon="14.2333434"></trkpt>
    <trkpt lat="57.7937125" lon="14.2336636"></trkpt>
    <trkpt lat="57.7937814" lon="14.2345765"></trkpt>
    <trkpt lat="57.7938504" lon="14.2354894"></trkpt>
    <trkpt lat="57.7938957" lon="14.2356638"></trkpt>
    <trkpt lat="57.7939021" lon="14.2357996"></trkpt>
    <trkpt lat="57.7938829" lon="14.2360217"></trkpt>
    <trkpt lat="57.7938902" lon="14.2364078"></trkpt>
    <trkpt lat="57.7937918" lon="14.2380063"></trkpt>
    <trkpt lat="57.7936934" lon="14.2396048"></trkpt>
    <trkpt lat="57.7935950" lon="14.2412033"></trkpt>
    <trkpt lat="57.7934794" lon="14.2414098"></trkpt>
    <trkpt lat="57.7934058" lon="14.2415961"></trkpt>
    <trkpt lat="57.7933784" lon="14.2416224"></trkpt>
    <trkpt lat="57.7933322" lon="14.2417938"></trkpt>
    <trkpt lat="57.7932908" lon="14.2421978"></trkpt>
    <trkpt lat="57.7932027" lon="14.2426374"></trkpt>
    <trkpt lat="57.7931145" lon="14.2428466"></trkpt>
    <trkpt lat="57.7928891" lon="14.2430216"></trkpt>
    <trkpt lat="57.7926710" lon="14.2433090"></trkpt>
    <trkpt lat="57.7926000" lon="14.2434615"></trkpt>
    <trkpt lat="57.7925748" lon="14.2436260"></trkpt>
    <trkpt lat="57.7925740" lon="14.2437392"></trkpt>
    <trkpt lat="57.7925991" lon="14.2440022"></trkpt>
    <trkpt lat="57.7925824" lon="14.2441518"></trkpt>
    <trkpt lat="57.7925192" lon="14.2442497"></trkpt>
    <trkpt lat="57.7923233" lon="14.2443463"></trkpt>
    <trkpt lat="57.7915807" lon="14.2447980"></trkpt>
    <trkpt lat="57.7908382" lon="14.2452497"></trkpt>
    <trkpt lat="57.7912505" lon="14.2465364"></trkpt>
    <trkpt lat="57.7916628" lon="14.2478230"></trkpt>
    <trkpt lat="57.7920751" lon="14.2491097"></trkpt>
    <trkpt lat="57.7924874" lon="14.2503964"></trkpt>
    <trkpt lat="57.7926995" lon="14.2510843"></trkpt>
    <trkpt lat="57.7928259" lon="14.2515932"></trkpt>
    <trkpt lat="57.7929342" lon="14.2523100"></trkpt>
    <trkpt lat="57.7929294" lon="14.2535709"></trkpt>
    <trkpt lat="57.7929095" lon="14.2546718"></trkpt>
    <trkpt lat="57.7928897" lon="14.2557726"></trkpt>
    <trkpt lat="57.7929036" lon="14.2568513"></trkpt>
    <trkpt lat="57.7930079" lon="14.2581066"></trkpt>
    <trkpt lat="57.7931985" lon="14.2597443"></trkpt>
    <trkpt lat="57.7933890" lon="14.2613821"></trkpt>
    <trkpt lat="57.7935198" lon="14.2622996"></trkpt>
    <trkpt lat="57.7936336" lon="14.2628105"></trkpt>
    <trkpt lat="57.7939494" lon="14.2635393"></trkpt>
    <trkpt lat="57.7942652" lon="14.2642682"></trkpt>
    <trkpt lat="57.7947746" lon="14.2653479"></trkpt>
    <trkpt lat="57.7948354" lon="14.2657195"></trkpt>
    <trkpt lat="57.7951991" lon="14.2667492"></trkpt>
    <trkpt lat="57.7954722" lon="14.2669857"></trkpt>
    <trkpt lat="57.7956230" lon="14.2672196"></trkpt>
    <trkpt lat="57.7958223" lon="14.2674273"></trkpt>
    <trkpt lat="57.7965423" lon="14.2680458"></trkpt>
    <trkpt lat="57.7971942" lon="14.2685403"></trkpt>
    <trkpt lat="57.7978462" lon="14.2690348"></trkpt>
    <trkpt lat="57.7984981" lon="14.2695293"></trkpt>
    <trkpt lat="57.7992095" lon="14.2699817"></trkpt>
    <trkpt lat="57.7999209" lon="14.2704340"></trkpt>
    <trkpt lat="57.8005948" lon="14.2707616"></trkpt>
    <trkpt lat="57.8012686" lon="14.2710891"></trkpt>
    <trkpt lat="57.8019978" lon="14.2713488"></trkpt>
    <trkpt lat="57.8024728" lon="14.2714599"></trkpt>
    <trkpt lat="57.8029478" lon="14.2715710"></trkpt>
    <trkpt lat="57.8034704" lon="14.2716582"></trkpt>
    <trkpt lat="57.8039799" lon="14.2716985"></trkpt>
    <trkpt lat="57.8044894" lon="14.2717388"></trkpt>
    <trkpt lat="57.8049684" lon="14.2717408"></trkpt>
    <trkpt lat="57.8055034" lon="14.2717006"></trkpt>
    <trkpt lat="57.8060384" lon="14.2716604"></trkpt>
    <trkpt lat="57.8067299" lon="14.2715074"></trkpt>
    <trkpt lat="57.8074214" lon="14.2713544"></trkpt>
    <trkpt lat="57.8081130" lon="14.2712014"></trkpt>
    <trkpt lat="57.8088045" lon="14.2710484"></trkpt>
    <trkpt lat="57.8095532" lon="14.2709276"></trkpt>
    <trkpt lat="57.8103018" lon="14.2708069"></trkpt>
    <trkpt lat="57.8103917" lon="14.2708116"></trkpt>
    <trkpt lat="57.8105425" lon="14.2709033"></trkpt>
    <trkpt lat="57.8107000" lon="14.2707561"></trkpt>
    <trkpt lat="57.8107760" lon="14.2707200"></trkpt>
    <trkpt lat="57.8115221" lon="14.2704414"></trkpt>
    <trkpt lat="57.8122682" lon="14.2701628"></trkpt>
    <trkpt lat="57.8123429" lon="14.2700353"></trkpt>
    <trkpt lat="57.8124119" lon="14.2699633"></trkpt>
    <trkpt lat="57.8124890" lon="14.2699317"></trkpt>
    <trkpt lat="57.8126557" lon="14.2699280"></trkpt>
    <trkpt lat="57.8127689" lon="14.2698727"></trkpt>
    <trkpt lat="57.8131179" lon="14.2695905"></trkpt>
    <trkpt lat="57.8132543" lon="14.2695269"></trkpt>
    <trkpt lat="57.8141458" lon="14.2693845"></trkpt>
    <trkpt lat="57.8149594" lon="14.2692197"></trkpt>
    <trkpt lat="57.8157430" lon="14.2689338"></trkpt>
    <trkpt lat="57.8158374" lon="14.2689454"></trkpt>
    <trkpt lat="57.8160402" lon="14.2690953"></trkpt>
    <trkpt lat="57.8161615" lon="14.2691473"></trkpt>
    <trkpt lat="57.8164175" lon="14.2691047"></trkpt>
    <trkpt lat="57.8165604" lon="14.2689938"></trkpt>
    <trkpt lat="57.8165975" lon="14.2690316"></trkpt>
    <trkpt lat="57.8166648" lon="14.2694161"></trkpt>
    <trkpt lat="57.8167060" lon="14.2695063"></trkpt>
    <trkpt lat="57.8167422" lon="14.2695267"></trkpt>
    <trkpt lat="57.8175678" lon="14.2692676"></trkpt>
    <trkpt lat="57.8183935" lon="14.2690084"></trkpt>
    <trkpt lat="57.8192191" lon="14.2687493"></trkpt>
    <trkpt lat="57.8200447" lon="14.2684902"></trkpt>
    <trkpt lat="57.8202150" lon="14.2684786"></trkpt>
    <trkpt lat="57.8203008" lon="14.2686296"></trkpt>
    <trkpt lat="57.8203728" lon="14.2686244"></trkpt>
    <trkpt lat="57.8204462" lon="14.2686631"></trkpt>
    <trkpt lat="57.8204938" lon="14.2687536"></trkpt>
    <trkpt lat="57.8206667" lon="14.2692877"></trkpt>
    <trkpt lat="57.8207467" lon="14.2693906"></trkpt>
    <trkpt lat="57.8208490" lon="14.2694585"></trkpt>
    <trkpt lat="57.8212230" lon="14.2694069"></trkpt>
    <trkpt lat="57.8212807" lon="14.2696144"></trkpt>
    <trkpt lat="57.8215096" lon="14.2698926"></trkpt>
    <trkpt lat="57.8216082" lon="14.2710230"></trkpt>
    <trkpt lat="57.8216046" lon="14.2711114"></trkpt>
    <trkpt lat="57.8215234" lon="14.2712033"></trkpt>
    <trkpt lat="57.8214114" lon="14.2712609"></trkpt>
    <trkpt lat="57.8213268" lon="14.2714747"></trkpt>
    <trkpt lat="57.8213001" lon="14.2716674"></trkpt>
    <trkpt lat="57.8218665" lon="14.2714289"></trkpt>
    <trkpt lat="57.8224329" lon="14.2711904"></trkpt>
    <trkpt lat="57.8229352" lon="14.2710028"></trkpt>
    <trkpt lat="57.8235512" lon="14.2708243"></trkpt>
    <trkpt lat="57.8243282" lon="14.2707106"></trkpt>
    <trkpt lat="57.8249508" lon="14.2706736"></trkpt>
    <trkpt lat="57.8256903" lon="14.2706749"></trkpt>
    <trkpt lat="57.8264298" lon="14.2706762"></trkpt>
    <trkpt lat="57.8269404" lon="14.2707219"></trkpt>
    <trkpt lat="57.8274510" lon="14.2707676"></trkpt>
    <trkpt lat="57.8281151" lon="14.2708731"></trkpt>
    <trkpt lat="57.8287792" lon="14.2709786"></trkpt>
    <trkpt lat="57.8290525" lon="14.2710473"></trkpt>
    <trkpt lat="57.8297439" lon="14.2711599"></trkpt>
    <trkpt lat="57.8304354" lon="14.2712725"></trkpt>
    <trkpt lat="57.8312587" lon="14.2714352"></trkpt>
    <trkpt lat="57.8320821" lon="14.2715979"></trkpt>
    <trkpt lat="57.8329054" lon="14.2717606"></trkpt>
    <trkpt lat="57.8337288" lon="14.2719232"></trkpt>
    <trkpt lat="57.8344350" lon="14.2721263"></trkpt>
    <trkpt lat="57.8351412" lon="14.2723293"></trkpt>
    <trkpt lat="57.8358474" lon="14.2725324"></trkpt>
    <trkpt lat="57.8364535" lon="14.2726836"></trkpt>
    <trkpt lat="57.8370597" lon="14.2728349"></trkpt>
    <trkpt lat="57.8372484" lon="14.2727311"></trkpt>
    <trkpt lat="57.8375197" lon="14.2726710"></trkpt>
    <trkpt lat="57.8377623" lon="14.2725451"></trkpt>
    <trkpt lat="57.8383881" lon="14.2720799"></trkpt>
    <trkpt lat="57.8390138" lon="14.2716147"></trkpt>
    <trkpt lat="57.8396396" lon="14.2711495"></trkpt>
    <trkpt lat="57.8401353" lon="14.2709707"></trkpt>
    <trkpt lat="57.8408375" lon="14.2709167"></trkpt>
    <trkpt lat="57.8415398" lon="14.2708627"></trkpt>
    <trkpt lat="57.8422421" lon="14.2708087"></trkpt>
    <trkpt lat="57.8429443" lon="14.2707546"></trkpt>
    <trkpt lat="57.8438306" lon="14.2707013"></trkpt>
    <trkpt lat="57.8447168" lon="14.2706480"></trkpt>
    <trkpt lat="57.8456031" lon="14.2705947"></trkpt>
    <trkpt lat="57.8464894" lon="14.2705414"></trkpt>
    <trkpt lat="57.8469080" lon="14.2704386"></trkpt>
    <trkpt lat="57.8474408" lon="14.2701987"></trkpt>
    <trkpt lat="57.8483010" lon="14.2697600"></trkpt>
    <trkpt lat="57.8488457" lon="14.2695606"></trkpt>
    <trkpt lat="57.8493705" lon="14.2694256"></trkpt>
    <trkpt lat="57.8498954" lon="14.2692906"></trkpt>
    <trkpt lat="57.8506417" lon="14.2688821"></trkpt>
    <trkpt lat="57.8509755" lon="14.2688043"></trkpt>
    <trkpt lat="57.8513027" lon="14.2687941"></trkpt>
    <trkpt lat="57.8516033" lon="14.2687432"></trkpt>
    <trkpt lat="57.8520846" lon="14.2685869"></trkpt>
    <trkpt lat="57.8525992" lon="14.2683494"></trkpt>
    <trkpt lat="57.8530753" lon="14.2681991"></trkpt>
    <trkpt lat="57.8534005" lon="14.2682109"></trkpt>
    <trkpt lat="57.8539705" lon="14.2683224"></trkpt>
    <trkpt lat="57.8543895" lon="14.2683231"></trkpt>
    <trkpt lat="57.8546781" lon="14.2684579"></trkpt>
    <trkpt lat="57.8549314" lon="14.2686714"></trkpt>
    <trkpt lat="57.8554434" lon="14.2686525"></trkpt>
    <trkpt lat="57.8559554" lon="14.2686337"></trkpt>
    <trkpt lat="57.8562899" lon="14.2687552"></trkpt>
    <trkpt lat="57.8565303" lon="14.2689528"></trkpt>
    <trkpt lat="57.8567918" lon="14.2693288"></trkpt>
    <trkpt lat="57.8569725" lon="14.2696899"></trkpt>
    <trkpt lat="57.8571544" lon="14.2704751"></trkpt>
    <trkpt lat="57.8573363" lon="14.2712604"></trkpt>
    <trkpt lat="57.8573555" lon="14.2717008"></trkpt>
    <trkpt lat="57.8573373" lon="14.2721203"></trkpt>
    <trkpt lat="57.8572583" lon="14.2729742"></trkpt>
    <trkpt lat="57.8570575" lon="14.2744358"></trkpt>
    <trkpt lat="57.8568566" lon="14.2758973"></trkpt>
    <trkpt lat="57.8566557" lon="14.2773588"></trkpt>
    <trkpt lat="57.8564548" lon="14.2788204"></trkpt>
    <trkpt lat="57.8562788" lon="14.2801550"></trkpt>
    <trkpt lat="57.8561028" lon="14.2814896"></trkpt>
    <trkpt lat="57.8559734" lon="14.2830193"></trkpt>
    <trkpt lat="57.8558440" lon="14.2845489"></trkpt>
    <trkpt lat="57.8557146" lon="14.2860785"></trkpt>
    <trkpt lat="57.8555852" lon="14.2876082"></trkpt>
    <trkpt lat="57.8554558" lon="14.2891378"></trkpt>
    <trkpt lat="57.8553415" lon="14.2906512"></trkpt>
    <trkpt lat="57.8552272" lon="14.2921645"></trkpt>
    <trkpt lat="57.8552331" lon="14.2932227"></trkpt>
    <trkpt lat="57.8553169" lon="14.2942062"></trkpt>
    <trkpt lat="57.8554007" lon="14.2951896"></trkpt>
    <trkpt lat="57.8555289" lon="14.2964326"></trkpt>
    <trkpt lat="57.8556572" lon="14.2976756"></trkpt>
    <trkpt lat="57.8558272" lon="14.2985723"></trkpt>
    <trkpt lat="57.8561156" lon="14.2996030"></trkpt>
    <trkpt lat="57.8565261" lon="14.3006881"></trkpt>
    <trkpt lat="57.8569366" lon="14.3017732"></trkpt>
    <trkpt lat="57.8573471" lon="14.3028582"></trkpt>
    <trkpt lat="57.8577576" lon="14.3039433"></trkpt>
    <trkpt lat="57.8580210" lon="14.3048269"></trkpt>
    <trkpt lat="57.8582801" lon="14.3059675"></trkpt>
    <trkpt lat="57.8585392" lon="14.3071081"></trkpt>
    <trkpt lat="57.8587813" lon="14.3080332"></trkpt>
    <trkpt lat="57.8590235" lon="14.3089583"></trkpt>
    <trkpt lat="57.8590579" lon="14.3092610"></trkpt>
    <trkpt lat="57.8590088" lon="14.3094715"></trkpt>
    <trkpt lat="57.8589039" lon="14.3096005"></trkpt>
    <trkpt lat="57.8589018" lon="14.3099803"></trkpt>
    <trkpt lat="57.8590451" lon="14.3105398"></trkpt>
    <trkpt lat="57.8591532" lon="14.3107784"></trkpt>
    <trkpt lat="57.8592765" lon="14.3114287"></trkpt>
    <trkpt lat="57.8595660" lon="14.3125624"></trkpt>
    <trkpt lat="57.8595551" lon="14.3127089"></trkpt>
    <trkpt lat="57.8598829" lon="14.3139751"></trkpt>
    <trkpt lat="57.8602107" lon="14.3152414"></trkpt>
    <trkpt lat="57.8602942" lon="14.3153828"></trkpt>
    <trkpt lat="57.8606369" lon="14.3166627"></trkpt>
    <trkpt lat="57.8609796" lon="14.3179427"></trkpt>
    <trkpt lat="57.8610699" lon="14.3181721"></trkpt>
    <trkpt lat="57.8610946" lon="14.3183866"></trkpt>
    <trkpt lat="57.8614109" lon="14.3196028"></trkpt>
    <trkpt lat="57.8617273" lon="14.3208190"></trkpt>
    <trkpt lat="57.8619511" lon="14.3215698"></trkpt>
    <trkpt lat="57.8621756" lon="14.3221715"></trkpt>
    <trkpt lat="57.8624790" lon="14.3228032"></trkpt>
    <trkpt lat="57.8629417" lon="14.3236767"></trkpt>
    <trkpt lat="57.8633409" lon="14.3243562"></trkpt>
    <trkpt lat="57.8637402" lon="14.3250357"></trkpt>
    <trkpt lat="57.8638589" lon="14.3253600"></trkpt>
    <trkpt lat="57.8641816" lon="14.3266160"></trkpt>
    <trkpt lat="57.8645043" lon="14.3278720"></trkpt>
    <trkpt lat="57.8648550" lon="14.3292934"></trkpt>
    <trkpt lat="57.8652057" lon="14.3307148"></trkpt>
    <trkpt lat="57.8655564" lon="14.3321363"></trkpt>
    <trkpt lat="57.8659070" lon="14.3335577"></trkpt>
    <trkpt lat="57.8660050" lon="14.3337798"></trkpt>
    <trkpt lat="57.8663799" lon="14.3352488"></trkpt>
    <trkpt lat="57.8667421" lon="14.3365877"></trkpt>
    <trkpt lat="57.8671043" lon="14.3379266"></trkpt>
    <trkpt lat="57.8674665" lon="14.3392656"></trkpt>
    <trkpt lat="57.8678287" lon="14.3406045"></trkpt>
    <trkpt lat="57.8681909" lon="14.3419435"></trkpt>
    <trkpt lat="57.8683624" lon="14.3424131"></trkpt>
    <trkpt lat="57.8686557" lon="14.3430124"></trkpt>
    <trkpt lat="57.8687657" lon="14.3431636"></trkpt>
    <trkpt lat="57.8692534" lon="14.3437150"></trkpt>
    <trkpt lat="57.8694385" lon="14.3438700"></trkpt>
    <trkpt lat="57.8695619" lon="14.3439178"></trkpt>
    <trkpt lat="57.8698827" lon="14.3443193"></trkpt>
    <trkpt lat="57.8704113" lon="14.3448327"></trkpt>
    <trkpt lat="57.8709399" lon="14.3453461"></trkpt>
    <trkpt lat="57.8714428" lon="14.3459831"></trkpt>
    <trkpt lat="57.8719068" lon="14.3469034"></trkpt>
    <trkpt lat="57.8723708" lon="14.3478236"></trkpt>
    <trkpt lat="57.8728349" lon="14.3487439"></trkpt>
    <trkpt lat="57.8731691" lon="14.3493604"></trkpt>
    <trkpt lat="57.8733698" lon="14.3496400"></trkpt>
    <trkpt lat="57.8736027" lon="14.3499104"></trkpt>
    <trkpt lat="57.8740315" lon="14.3502262"></trkpt>
    <trkpt lat="57.8743456" lon="14.3503503"></trkpt>
    <trkpt lat="57.8751614" lon="14.3505186"></trkpt>
    <trkpt lat="57.8759773" lon="14.3506869"></trkpt>
    <trkpt lat="57.8767932" lon="14.3508552"></trkpt>
    <trkpt lat="57.8768693" lon="14.3509100"></trkpt>
    <trkpt lat="57.8772697" lon="14.3509854"></trkpt>
    <trkpt lat="57.8773781" lon="14.3509535"></trkpt>
    <trkpt lat="57.8775527" lon="14.3510478"></trkpt>
    <trkpt lat="57.8780444" lon="14.3511494"></trkpt>
    <trkpt lat="57.8785361" lon="14.3512510"></trkpt>
    <trkpt lat="57.8785972" lon="14.3513711"></trkpt>
    <trkpt lat="57.8786098" lon="14.3515404"></trkpt>
    <trkpt lat="57.8783412" lon="14.3526932"></trkpt>
    <trkpt lat="57.8780726" lon="14.3538460"></trkpt>
    <trkpt lat="57.8779524" lon="14.3545366"></trkpt>
    <trkpt lat="57.8778484" lon="14.3553201"></trkpt>
    <trkpt lat="57.8777531" lon="14.3556566"></trkpt>
    <trkpt lat="57.8771415" lon="14.3568680"></trkpt>
    <trkpt lat="57.8765300" lon="14.3580794"></trkpt>
    <trkpt lat="57.8759184" lon="14.3592907"></trkpt>
    <trkpt lat="57.8753069" lon="14.3605021"></trkpt>
    <trkpt lat="57.8746953" lon="14.3617135"></trkpt>
    <trkpt lat="57.8740838" lon="14.3629249"></trkpt>
    <trkpt lat="57.8734722" lon="14.3641363"></trkpt>
    <trkpt lat="57.8734553" lon="14.3642615"></trkpt>
    <trkpt lat="57.8734652" lon="14.3643873"></trkpt>
    <trkpt lat="57.8737145" lon="14.3651995"></trkpt>
    <trkpt lat="57.8739639" lon="14.3660117"></trkpt>
    <trkpt lat="57.8742433" lon="14.3667430"></trkpt>
    <trkpt lat="57.8742258" lon="14.3669734"></trkpt>
    <trkpt lat="57.8740701" lon="14.3673330"></trkpt>
    <trkpt lat="57.8747971" lon="14.3682433"></trkpt>
    <trkpt lat="57.8755241" lon="14.3691535"></trkpt>
    <trkpt lat="57.8762511" lon="14.3700638"></trkpt>
    <trkpt lat="57.8769781" lon="14.3709740"></trkpt>
    <trkpt lat="57.8777051" lon="14.3718842"></trkpt>
    <trkpt lat="57.8784413" lon="14.3725226"></trkpt>
    <trkpt lat="57.8791775" lon="14.3731609"></trkpt>
    <trkpt lat="57.8799286" lon="14.3740714"></trkpt>
    <trkpt lat="57.8803944" lon="14.3748472"></trkpt>
    <trkpt lat="57.8808977" lon="14.3739423"></trkpt>
    <trkpt lat="57.8810427" lon="14.3737619"></trkpt>
    <trkpt lat="57.8815414" lon="14.3737994"></trkpt>
    <trkpt lat="57.8816119" lon="14.3738868"></trkpt>
    <trkpt lat="57.8818786" lon="14.3745574"></trkpt>
    <trkpt lat="57.8821612" lon="14.3749072"></trkpt>
    <trkpt lat="57.8824507" lon="14.3753218"></trkpt>
    <trkpt lat="57.8830113" lon="14.3761932"></trkpt>
    <trkpt lat="57.8835719" lon="14.3770646"></trkpt>
    <trkpt lat="57.8839181" lon="14.3778402"></trkpt>
    <trkpt lat="57.8842642" lon="14.3786158"></trkpt>
    <trkpt lat="57.8846953" lon="14.3793009"></trkpt>
    <trkpt lat="57.8851264" lon="14.3799860"></trkpt>
    <trkpt lat="57.8854754" lon="14.3807662"></trkpt>
    <trkpt lat="57.8857255" lon="14.3814528"></trkpt>
    <trkpt lat="57.8859707" lon="14.3822628"></trkpt>
    <trkpt lat="57.8862158" lon="14.3830728"></trkpt>
    <trkpt lat="57.8863594" lon="14.3836531"></trkpt>
    <trkpt lat="57.8865804" lon="14.3849392"></trkpt>
    <trkpt lat="57.8867164" lon="14.3855004"></trkpt>
    <trkpt lat="57.8870506" lon="14.3863544"></trkpt>
    <trkpt lat="57.8873848" lon="14.3872084"></trkpt>
    <trkpt lat="57.8876640" lon="14.3881039"></trkpt>
    <trkpt lat="57.8878674" lon="14.3890086"></trkpt>
    <trkpt lat="57.8880173" lon="14.3902289"></trkpt>
    <trkpt lat="57.8881672" lon="14.3914491"></trkpt>
    <trkpt lat="57.8883694" lon="14.3927955"></trkpt>
    <trkpt lat="57.8885300" lon="14.3933820"></trkpt>
    <trkpt lat="57.8887601" lon="14.3939367"></trkpt>
    <trkpt lat="57.8893820" lon="14.3933674"></trkpt>
    <trkpt lat="57.8900039" lon="14.3927980"></trkpt>
    <trkpt lat="57.8900915" lon="14.3925907"></trkpt>
    <trkpt lat="57.8901013" lon="14.3924452"></trkpt>
    <trkpt lat="57.8900899" lon="14.3922691"></trkpt>
    <trkpt lat="57.8899963" lon="14.3914336"></trkpt>
    <trkpt lat="57.8899026" lon="14.3905981"></trkpt>
    <trkpt lat="57.8898264" lon="14.3897496"></trkpt>
    <trkpt lat="57.8898399" lon="14.3887298"></trkpt>
    <trkpt lat="57.8898801" lon="14.3883238"></trkpt>
    <trkpt lat="57.8901598" lon="14.3873345"></trkpt>
    <trkpt lat="57.8904396" lon="14.3863452"></trkpt>
    <trkpt lat="57.8905718" lon="14.3857237"></trkpt>
    <trkpt lat="57.8906644" lon="14.3845805"></trkpt>
    <trkpt lat="57.8907129" lon="14.3842220"></trkpt>
    <trkpt lat="57.8908616" lon="14.3837575"></trkpt>
    <trkpt lat="57.8910105" lon="14.3833625"></trkpt>
    <trkpt lat="57.8912957" lon="14.3830124"></trkpt>
    <trkpt lat="57.8915446" lon="14.3827505"></trkpt>
    <trkpt lat="57.8918640" lon="14.3825714"></trkpt>
    <trkpt lat="57.8921309" lon="14.3823485"></trkpt>
    <trkpt lat="57.8922372" lon="14.3821112"></trkpt>
    <trkpt lat="57.8923024" lon="14.3815435"></trkpt>
    <trkpt lat="57.8922572" lon="14.3812005"></trkpt>
    <trkpt lat="57.8921498" lon="14.3809001"></trkpt>
    <trkpt lat="57.8920065" lon="14.3803518"></trkpt>
    <trkpt lat="57.8919064" lon="14.3796974"></trkpt>
    <trkpt lat="57.8919153" lon="14.3795518"></trkpt>
    <trkpt lat="57.8919565" lon="14.3793768"></trkpt>
    <trkpt lat="57.8924748" lon="14.3784318"></trkpt>
    <trkpt lat="57.8929931" lon="14.3774867"></trkpt>
    <trkpt lat="57.8935114" lon="14.3765417"></trkpt>
    <trkpt lat="57.8940124" lon="14.3755730"></trkpt>
    <trkpt lat="57.8945134" lon="14.3746044"></trkpt>
    <trkpt lat="57.8945880" lon="14.3745915"></trkpt>
    <trkpt lat="57.8952756" lon="14.3756379"></trkpt>
    <trkpt lat="57.8959632" lon="14.3766843"></trkpt>
    <trkpt lat="57.8966508" lon="14.3777307"></trkpt>
    <trkpt lat="57.8969182" lon="14.3780524"></trkpt>
    <trkpt lat="57.8971837" lon="14.3776715"></trkpt>
    <trkpt lat="57.8972129" lon="14.3775820"></trkpt>
    <trkpt lat="57.8972262" lon="14.3774618"></trkpt>
    <trkpt lat="57.8970067" lon="14.3768441"></trkpt>
    <trkpt lat="57.8968649" lon="14.3763196"></trkpt>
    <trkpt lat="57.8968510" lon="14.3759780"></trkpt>
    <trkpt lat="57.8968933" lon="14.3753880"></trkpt>
    <trkpt lat="57.8969050" lon="14.3748491"></trkpt>
    <trkpt lat="57.8968776" lon="14.3740632"></trkpt>
    <trkpt lat="57.8968848" lon="14.3738507"></trkpt>
    <trkpt lat="57.8969383" lon="14.3735643"></trkpt>
    <trkpt lat="57.8973201" lon="14.3724980"></trkpt>
    <trkpt lat="57.8974842" lon="14.3719535"></trkpt>
    <trkpt lat="57.8976082" lon="14.3716428"></trkpt>
    <trkpt lat="57.8979682" lon="14.3712100"></trkpt>
    <trkpt lat="57.8981604" lon="14.3709114"></trkpt>
    <trkpt lat="57.8982775" lon="14.3708522"></trkpt>
    <trkpt lat="57.8986639" lon="14.3708770"></trkpt>
    <trkpt lat="57.8994354" lon="14.3710005"></trkpt>
    <trkpt lat="57.9002069" lon="14.3711241"></trkpt>
    <trkpt lat="57.9010066" lon="14.3710237"></trkpt>
    <trkpt lat="57.9018062" lon="14.3709234"></trkpt>
    <trkpt lat="57.9020825" lon="14.3710022"></trkpt>
    <trkpt lat="57.9022837" lon="14.3711790"></trkpt>
    <trkpt lat="57.9029820" lon="14.3719720"></trkpt>
    <trkpt lat="57.9036964" lon="14.3726250"></trkpt>
    <trkpt lat="57.9044108" lon="14.3732780"></trkpt>
    <trkpt lat="57.9051252" lon="14.3739309"></trkpt>
    <trkpt lat="57.9053411" lon="14.3738878"></trkpt>
    <trkpt lat="57.9059107" lon="14.3735308"></trkpt>
    <trkpt lat="57.9065211" lon="14.3732834"></trkpt>
    <trkpt lat="57.9071315" lon="14.3730361"></trkpt>
    <trkpt lat="57.9077419" lon="14.3727887"></trkpt>
    <trkpt lat="57.9083693" lon="14.3723376"></trkpt>
    <trkpt lat="57.9090682" lon="14.3720566"></trkpt>
    <trkpt lat="57.9096834" lon="14.3719160"></trkpt>
    <trkpt lat="57.9102987" lon="14.3717754"></trkpt>
    <trkpt lat="57.9107770" lon="14.3717459"></trkpt>
    <trkpt lat="57.9115598" lon="14.3718836"></trkpt>
    <trkpt lat="57.9119497" lon="14.3720983"></trkpt>
    <trkpt lat="57.9125068" lon="14.3724605"></trkpt>
    <trkpt lat="57.9130639" lon="14.3728227"></trkpt>
    <trkpt lat="57.9139363" lon="14.3731808"></trkpt>
    <trkpt lat="57.9142066" lon="14.3733564"></trkpt>
    <trkpt lat="57.9143631" lon="14.3736081"></trkpt>
    <trkpt lat="57.9146160" lon="14.3741594"></trkpt>
    <trkpt lat="57.9148343" lon="14.3745005"></trkpt>
    <trkpt lat="57.9151120" lon="14.3747826"></trkpt>
    <trkpt lat="57.9156843" lon="14.3750510"></trkpt>
    <trkpt lat="57.9159785" lon="14.3751229"></trkpt>
    <trkpt lat="57.9165797" lon="14.3751187"></trkpt>
    <trkpt lat="57.9171809" lon="14.3751144"></trkpt>
    <trkpt lat="57.9174427" lon="14.3750702"></trkpt>
    <trkpt lat="57.9183005" lon="14.3755007"></trkpt>
    <trkpt lat="57.9185912" lon="14.3755637"></trkpt>
    <trkpt lat="57.9193882" lon="14.3754183"></trkpt>
    <trkpt lat="57.9198172" lon="14.3755967"></trkpt>
    <trkpt lat="57.9202674" lon="14.3757057"></trkpt>
    <trkpt lat="57.9207176" lon="14.3758147"></trkpt>
    <trkpt lat="57.9209019" lon="14.3758935"></trkpt>
    <trkpt lat="57.9211161" lon="14.3761137"></trkpt>
    <trkpt lat="57.9214205" lon="14.3767607"></trkpt>
    <trkpt lat="57.9217958" lon="14.3774023"></trkpt>
    <trkpt lat="57.9219218" lon="14.3777465"></trkpt>
    <trkpt lat="57.9220768" lon="14.3783015"></trkpt>
    <trkpt lat="57.9222024" lon="14.3786576"></trkpt>
    <trkpt lat="57.9223428" lon="14.3789291"></trkpt>
    <trkpt lat="57.9225733" lon="14.3792036"></trkpt>
    <trkpt lat="57.9232213" lon="14.3797538"></trkpt>
    <trkpt lat="57.9239444" lon="14.3805259"></trkpt>
    <trkpt lat="57.9240602" lon="14.3807534"></trkpt>
    <trkpt lat="57.9241317" lon="14.3810060"></trkpt>
    <trkpt lat="57.9242911" lon="14.3821125"></trkpt>
    <trkpt lat="57.9244053" lon="14.3825719"></trkpt>
    <trkpt lat="57.9245578" lon="14.3829861"></trkpt>
    <trkpt lat="57.9249303" lon="14.3836541"></trkpt>
    <trkpt lat="57.9254181" lon="14.3844787"></trkpt>
    <trkpt lat="57.9259058" lon="14.3853034"></trkpt>
    <trkpt lat="57.9260170" lon="14.3855604"></trkpt>
    <trkpt lat="57.9262911" lon="14.3864067"></trkpt>
    <trkpt lat="57.9265651" lon="14.3872530"></trkpt>
    <trkpt lat="57.9267965" lon="14.3878205"></trkpt>
    <trkpt lat="57.9272397" lon="14.3864796"></trkpt>
    <trkpt lat="57.9276011" lon="14.3853209"></trkpt>
    <trkpt lat="57.9279625" lon="14.3841621"></trkpt>
    <trkpt lat="57.9283239" lon="14.3830034"></trkpt>
    <trkpt lat="57.9286852" lon="14.3818446"></trkpt>
    <trkpt lat="57.9288801" lon="14.3818276"></trkpt>
    <trkpt lat="57.9296646" lon="14.3813800"></trkpt>
    <trkpt lat="57.9304490" lon="14.3809324"></trkpt>
    <trkpt lat="57.9308311" lon="14.3803881"></trkpt>
    <trkpt lat="57.9312131" lon="14.3798438"></trkpt>
    <trkpt lat="57.9317530" lon="14.3792522"></trkpt>
    <trkpt lat="57.9324321" lon="14.3786977"></trkpt>
    <trkpt lat="57.9328328" lon="14.3785243"></trkpt>
    <trkpt lat="57.9331719" lon="14.3784682"></trkpt>
    <trkpt lat="57.9338213" lon="14.3784833"></trkpt>
    <trkpt lat="57.9344708" lon="14.3784984"></trkpt>
    <trkpt lat="57.9347274" lon="14.3786180"></trkpt>
    <trkpt lat="57.9348759" lon="14.3787412"></trkpt>
    <trkpt lat="57.9349731" lon="14.3787533"></trkpt>
    <trkpt lat="57.9350749" lon="14.3787123"></trkpt>
    <trkpt lat="57.9355282" lon="14.3783194"></trkpt>
    <trkpt lat="57.9357456" lon="14.3781953"></trkpt>
    <trkpt lat="57.9358919" lon="14.3781721"></trkpt>
    <trkpt lat="57.9360267" lon="14.3782048"></trkpt>
    <trkpt lat="57.9361561" lon="14.3783068"></trkpt>
    <trkpt lat="57.9367529" lon="14.3783933"></trkpt>
    <trkpt lat="57.9371541" lon="14.3782518"></trkpt>
    <trkpt lat="57.9372908" lon="14.3783210"></trkpt>
    <trkpt lat="57.9377450" lon="14.3790760"></trkpt>
    <trkpt lat="57.9382902" lon="14.3798455"></trkpt>
    <trkpt lat="57.9384656" lon="14.3800079"></trkpt>
    <trkpt lat="57.9388030" lon="14.3801923"></trkpt>
    <trkpt lat="57.9388984" lon="14.3801706"></trkpt>
    <trkpt lat="57.9394313" lon="14.3794191"></trkpt>
    <trkpt lat="57.9395785" lon="14.3793480"></trkpt>
    <trkpt lat="57.9401066" lon="14.3795051"></trkpt>
    <trkpt lat="57.9402701" lon="14.3795296"></trkpt>
    <trkpt lat="57.9404612" lon="14.3795046"></trkpt>
    <trkpt lat="57.9407755" lon="14.3797278"></trkpt>
    <trkpt lat="57.9413798" lon="14.3803063"></trkpt>
    <trkpt lat="57.9415899" lon="14.3804104"></trkpt>
    <trkpt lat="57.9416866" lon="14.3804216"></trkpt>
    <trkpt lat="57.9417890" lon="14.3803826"></trkpt>
    <trkpt lat="57.9421080" lon="14.3801772"></trkpt>
    <trkpt lat="57.9424563" lon="14.3800626"></trkpt>
    <trkpt lat="57.9426526" lon="14.3799581"></trkpt>
    <trkpt lat="57.9430938" lon="14.3793852"></trkpt>
    <trkpt lat="57.9431801" lon="14.3793462"></trkpt>
    <trkpt lat="57.9436353" lon="14.3793893"></trkpt>
    <trkpt lat="57.9437808" lon="14.3792559"></trkpt>
    <trkpt lat="57.9441733" lon="14.3787121"></trkpt>
    <trkpt lat="57.9445251" lon="14.3784001"></trkpt>
    <trkpt lat="57.9446698" lon="14.3786207"></trkpt>
    <trkpt lat="57.9450188" lon="14.3789581"></trkpt>
    <trkpt lat="57.9452295" lon="14.3791194"></trkpt>
    <trkpt lat="57.9456582" lon="14.3792921"></trkpt>
    <trkpt lat="57.9459769" lon="14.3793465"></trkpt>
    <trkpt lat="57.9461395" lon="14.3794091"></trkpt>
    <trkpt lat="57.9462631" lon="14.3793943"></trkpt>
    <trkpt lat="57.9463740" lon="14.3794204"></trkpt>
    <trkpt lat="57.9466089" lon="14.3797189"></trkpt>
    <trkpt lat="57.9469387" lon="14.3800408"></trkpt>
    <trkpt lat="57.9470667" lon="14.3801260"></trkpt>
    <trkpt lat="57.9478749" lon="14.3801492"></trkpt>
    <trkpt lat="57.9485982" lon="14.3805697"></trkpt>
    <trkpt lat="57.9487969" lon="14.3806507"></trkpt>
    <trkpt lat="57.9491286" lon="14.3806712"></trkpt>
    <trkpt lat="57.9497661" lon="14.3808812"></trkpt>
    <trkpt lat="57.9501382" lon="14.3808316"></trkpt>
    <trkpt lat="57.9505006" lon="14.3806097"></trkpt>
    <trkpt lat="57.9506062" lon="14.3806243"></trkpt>
    <trkpt lat="57.9506566" lon="14.3805333"></trkpt>
    <trkpt lat="57.9509530" lon="14.3797432"></trkpt>
    <trkpt lat="57.9512493" lon="14.3789531"></trkpt>
    <trkpt lat="57.9514207" lon="14.3781317"></trkpt>
    <trkpt lat="57.9516167" lon="14.3769986"></trkpt>
    <trkpt lat="57.9518469" lon="14.3758391"></trkpt>
    <trkpt lat="57.9520770" lon="14.3746795"></trkpt>
    <trkpt lat="57.9523140" lon="14.3738170"></trkpt>
    <trkpt lat="57.9525509" lon="14.3729545"></trkpt>
    <trkpt lat="57.9527482" lon="14.3725184"></trkpt>
    <trkpt lat="57.9529091" lon="14.3722163"></trkpt>
    <trkpt lat="57.9530523" lon="14.3720538"></trkpt>
    <trkpt lat="57.9532220" lon="14.3719182"></trkpt>
    <trkpt lat="57.9534252" lon="14.3718007"></trkpt>
    <trkpt lat="57.9536201" lon="14.3717912"></trkpt>
    <trkpt lat="57.9538350" lon="14.3719329"></trkpt>
    <trkpt lat="57.9540774" lon="14.3720351"></trkpt>
    <trkpt lat="57.9542037" lon="14.3721166"></trkpt>
    <trkpt lat="57.9550089" lon="14.3727030"></trkpt>
    <trkpt lat="57.9553801" lon="14.3728053"></trkpt>
    <trkpt lat="57.9560779" lon="14.3731757"></trkpt>
    <trkpt lat="57.9567757" lon="14.3735461"></trkpt>
    <trkpt lat="57.9569183" lon="14.3735117"></trkpt>
    <trkpt lat="57.9569935" lon="14.3733868"></trkpt>
    <trkpt lat="57.9572610" lon="14.3726807"></trkpt>
    <trkpt lat="57.9575553" lon="14.3717279"></trkpt>
    <trkpt lat="57.9576617" lon="14.3709640"></trkpt>
    <trkpt lat="57.9577678" lon="14.3706422"></trkpt>
    <trkpt lat="57.9579005" lon="14.3703973"></trkpt>
    <trkpt lat="57.9579844" lon="14.3701791"></trkpt>
    <trkpt lat="57.9582004" lon="14.3691634"></trkpt>
    <trkpt lat="57.9583143" lon="14.3689705"></trkpt>
    <trkpt lat="57.9583831" lon="14.3689309"></trkpt>
    <trkpt lat="57.9588902" lon="14.3690166"></trkpt>
    <trkpt lat="57.9593371" lon="14.3689943"></trkpt>
    <trkpt lat="57.9594612" lon="14.3689408"></trkpt>
    <trkpt lat="57.9596311" lon="14.3687567"></trkpt>
    <trkpt lat="57.9596945" lon="14.3686123"></trkpt>
    <trkpt lat="57.9597298" lon="14.3684308"></trkpt>
    <trkpt lat="57.9597511" lon="14.3681913"></trkpt>
    <trkpt lat="57.9597643" lon="14.3672455"></trkpt>
    <trkpt lat="57.9597531" lon="14.3670345"></trkpt>
    <trkpt lat="57.9596804" lon="14.3665265"></trkpt>
    <trkpt lat="57.9594611" lon="14.3655331"></trkpt>
    <trkpt lat="57.9594552" lon="14.3653356"></trkpt>
    <trkpt lat="57.9594761" lon="14.3651850"></trkpt>
    <trkpt lat="57.9595264" lon="14.3650412"></trkpt>
    <trkpt lat="57.9598220" lon="14.3647141"></trkpt>
    <trkpt lat="57.9598700" lon="14.3645685"></trkpt>
    <trkpt lat="57.9598670" lon="14.3644182"></trkpt>
    <trkpt lat="57.9596444" lon="14.3636498"></trkpt>
    <trkpt lat="57.9596291" lon="14.3634547"></trkpt>
    <trkpt lat="57.9596500" lon="14.3622416"></trkpt>
    <trkpt lat="57.9596740" lon="14.3621772"></trkpt>
    <trkpt lat="57.9597214" lon="14.3621765"></trkpt>
    <trkpt lat="57.9599597" lon="14.3624842"></trkpt>
    <trkpt lat="57.9604224" lon="14.3631761"></trkpt>
    <trkpt lat="57.9610554" lon="14.3638810"></trkpt>
    <trkpt lat="57.9616884" lon="14.3645858"></trkpt>
    <trkpt lat="57.9623213" lon="14.3652906"></trkpt>
    <trkpt lat="57.9625324" lon="14.3654250"></trkpt>
    <trkpt lat="57.9630398" lon="14.3655477"></trkpt>
    <trkpt lat="57.9635472" lon="14.3656704"></trkpt>
    <trkpt lat="57.9638269" lon="14.3657762"></trkpt>
    <trkpt lat="57.9642233" lon="14.3659948"></trkpt>
    <trkpt lat="57.9643995" lon="14.3661315"></trkpt>
    <trkpt lat="57.9645699" lon="14.3663337"></trkpt>
    <trkpt lat="57.9650951" lon="14.3669895"></trkpt>
    <trkpt lat="57.9655565" lon="14.3676079"></trkpt>
    <trkpt lat="57.9657912" lon="14.3680908"></trkpt>
    <trkpt lat="57.9661654" lon="14.3691817"></trkpt>
    <trkpt lat="57.9665396" lon="14.3702727"></trkpt>
    <trkpt lat="57.9669137" lon="14.3713637"></trkpt>
    <trkpt lat="57.9673543" lon="14.3724148"></trkpt>
    <trkpt lat="57.9676233" lon="14.3729197"></trkpt>
    <trkpt lat="57.9681175" lon="14.3736454"></trkpt>
    <trkpt lat="57.9686117" lon="14.3743711"></trkpt>
    <trkpt lat="57.9689589" lon="14.3749215"></trkpt>
    <trkpt lat="57.9693061" lon="14.3754719"></trkpt>
    <trkpt lat="57.9696756" lon="14.3761561"></trkpt>
    <trkpt lat="57.9697548" lon="14.3764049"></trkpt>
    <trkpt lat="57.9698481" lon="14.3768652"></trkpt>
    <trkpt lat="57.9700713" lon="14.3780929"></trkpt>
    <trkpt lat="57.9702946" lon="14.3793205"></trkpt>
    <trkpt lat="57.9705350" lon="14.3808818"></trkpt>
    <trkpt lat="57.9706514" lon="14.3814789"></trkpt>
    <trkpt lat="57.9707984" lon="14.3818672"></trkpt>
    <trkpt lat="57.9711015" lon="14.3823850"></trkpt>
    <trkpt lat="57.9716869" lon="14.3832888"></trkpt>
    <trkpt lat="57.9722723" lon="14.3841927"></trkpt>
    <trkpt lat="57.9729797" lon="14.3846376"></trkpt>
    <trkpt lat="57.9736871" lon="14.3850825"></trkpt>
    <trkpt lat="57.9738426" lon="14.3853083"></trkpt>
    <trkpt lat="57.9739556" lon="14.3855730"></trkpt>
    <trkpt lat="57.9740864" lon="14.3859541"></trkpt>
    <trkpt lat="57.9742516" lon="14.3875946"></trkpt>
    <trkpt lat="57.9744168" lon="14.3892351"></trkpt>
    <trkpt lat="57.9745820" lon="14.3908757"></trkpt>
    <trkpt lat="57.9747472" lon="14.3925162"></trkpt>
    <trkpt lat="57.9748086" lon="14.3927836"></trkpt>
    <trkpt lat="57.9751745" lon="14.3935150"></trkpt>
    <trkpt lat="57.9752961" lon="14.3938537"></trkpt>
    <trkpt lat="57.9755624" lon="14.3949151"></trkpt>
    <trkpt lat="57.9758287" lon="14.3959765"></trkpt>
    <trkpt lat="57.9761197" lon="14.3975806"></trkpt>
    <trkpt lat="57.9763564" lon="14.3991068"></trkpt>
    <trkpt lat="57.9765930" lon="14.4006330"></trkpt>
    <trkpt lat="57.9766364" lon="14.4009662"></trkpt>
    <trkpt lat="57.9766584" lon="14.4012987"></trkpt>
    <trkpt lat="57.9766290" lon="14.4015371"></trkpt>
    <trkpt lat="57.9765942" lon="14.4017653"></trkpt>
    <trkpt lat="57.9762932" lon="14.4027108"></trkpt>
    <trkpt lat="57.9764809" lon="14.4026028"></trkpt>
    <trkpt lat="57.9769065" lon="14.4021999"></trkpt>
    <trkpt lat="57.9773182" lon="14.4015425"></trkpt>
    <trkpt lat="57.9773876" lon="14.4012445"></trkpt>
    <trkpt lat="57.9774232" lon="14.4006238"></trkpt>
    <trkpt lat="57.9774231" lon="14.3996582"></trkpt>
    <trkpt lat="57.9774231" lon="14.3986927"></trkpt>
    <trkpt lat="57.9775666" lon="14.3986368"></trkpt>
    <trkpt lat="57.9777300" lon="14.3987944"></trkpt>
    <trkpt lat="57.9780560" lon="14.3986058"></trkpt>
    <trkpt lat="57.9782015" lon="14.3986601"></trkpt>
    <trkpt lat="57.9784286" lon="14.3980868"></trkpt>
    <trkpt lat="57.9785844" lon="14.3980295"></trkpt>
    <trkpt lat="57.9786501" lon="14.3979679"></trkpt>
    <trkpt lat="57.9787573" lon="14.3977244"></trkpt>
    <trkpt lat="57.9789874" lon="14.3975119"></trkpt>
    <trkpt lat="57.9792178" lon="14.3976286"></trkpt>
    <trkpt lat="57.9794574" lon="14.3978221"></trkpt>
    <trkpt lat="57.9798407" lon="14.3982875"></trkpt>
    <trkpt lat="57.9803680" lon="14.3990374"></trkpt>
    <trkpt lat="57.9807611" lon="14.3996978"></trkpt>
    <trkpt lat="57.9811541" lon="14.4003582"></trkpt>
    <trkpt lat="57.9814167" lon="14.4010172"></trkpt>
    <trkpt lat="57.9815824" lon="14.4018245"></trkpt>
    <trkpt lat="57.9816429" lon="14.4019618"></trkpt>
    <trkpt lat="57.9817266" lon="14.4019733"></trkpt>
    <trkpt lat="57.9818107" lon="14.4017842"></trkpt>
    <trkpt lat="57.9818459" lon="14.4015973"></trkpt>
    <trkpt lat="57.9818564" lon="14.4010774"></trkpt>
    <trkpt lat="57.9818872" lon="14.4009912"></trkpt>
    <trkpt lat="57.9821792" lon="14.4005633"></trkpt>
    <trkpt lat="57.9824467" lon="14.3995550"></trkpt>
    <trkpt lat="57.9825620" lon="14.3996648"></trkpt>
    <trkpt lat="57.9829236" lon="14.4003339"></trkpt>
    <trkpt lat="57.9831444" lon="14.4006512"></trkpt>
    <trkpt lat="57.9833301" lon="14.4008437"></trkpt>
    <trkpt lat="57.9837611" lon="14.4013762"></trkpt>
    <trkpt lat="57.9839957" lon="14.4014593"></trkpt>
    <trkpt lat="57.9842277" lon="14.4011387"></trkpt>
    <trkpt lat="57.9844673" lon="14.4006594"></trkpt>
    <trkpt lat="57.9848290" lon="14.3998375"></trkpt>
    <trkpt lat="57.9854602" lon="14.3999749"></trkpt>
    <trkpt lat="57.9861963" lon="14.4005269"></trkpt>
    <trkpt lat="57.9866159" lon="14.4009135"></trkpt>
    <trkpt lat="57.9870355" lon="14.4013001"></trkpt>
    <trkpt lat="57.9872850" lon="14.4017998"></trkpt>
    <trkpt lat="57.9876459" lon="14.4028893"></trkpt>
    <trkpt lat="57.9880068" lon="14.4039788"></trkpt>
    <trkpt lat="57.9883677" lon="14.4050683"></trkpt>
    <trkpt lat="57.9887286" lon="14.4061578"></trkpt>
    <trkpt lat="57.9893052" lon="14.4074460"></trkpt>
    <trkpt lat="57.9897650" lon="14.4085326"></trkpt>
    <trkpt lat="57.9902249" lon="14.4096191"></trkpt>
    <trkpt lat="57.9905499" lon="14.4106312"></trkpt>
    <trkpt lat="57.9909422" lon="14.4114345"></trkpt>
    <trkpt lat="57.9913345" lon="14.4122377"></trkpt>
    <trkpt lat="57.9916021" lon="14.4131821"></trkpt>
    <trkpt lat="57.9918999" lon="14.4140616"></trkpt>
    <trkpt lat="57.9921976" lon="14.4149411"></trkpt>
    <trkpt lat="57.9924607" lon="14.4158605"></trkpt>
    <trkpt lat="57.9928635" lon="14.4163316"></trkpt>
    <trkpt lat="57.9932207" lon="14.4172761"></trkpt>
    <trkpt lat="57.9935779" lon="14.4182206"></trkpt>
    <trkpt lat="57.9939351" lon="14.4191651"></trkpt>
    <trkpt lat="57.9943556" lon="14.4203328"></trkpt>
    <trkpt lat="57.9947761" lon="14.4215005"></trkpt>
    <trkpt lat="57.9950622" lon="14.4225053"></trkpt>
    <trkpt lat="57.9953482" lon="14.4235101"></trkpt>
    <trkpt lat="57.9956342" lon="14.4245148"></trkpt>
    <trkpt lat="57.9957488" lon="14.4249406"></trkpt>
    <trkpt lat="57.9957221" lon="14.4255272"></trkpt>
    <trkpt lat="57.9956043" lon="14.4265951"></trkpt>
    <trkpt lat="57.9954244" lon="14.4277082"></trkpt>
    <trkpt lat="57.9953880" lon="14.4278247"></trkpt>
    <trkpt lat="57.9953820" lon="14.4281746"></trkpt>
    <trkpt lat="57.9953628" lon="14.4283299"></trkpt>
    <trkpt lat="57.9951763" lon="14.4293749"></trkpt>
    <trkpt lat="57.9951688" lon="14.4308673"></trkpt>
    <trkpt lat="57.9952321" lon="14.4312282"></trkpt>
    <trkpt lat="57.9953259" lon="14.4316224"></trkpt>
    <trkpt lat="57.9944929" lon="14.4310000"></trkpt>
    <trkpt lat="57.9936598" lon="14.4303776"></trkpt>
    <trkpt lat="57.9928268" lon="14.4297552"></trkpt>
    <trkpt lat="57.9919937" lon="14.4291327"></trkpt>
    <trkpt lat="57.9911607" lon="14.4285103"></trkpt>
    <trkpt lat="57.9903276" lon="14.4278879"></trkpt>
    <trkpt lat="57.9894946" lon="14.4272654"></trkpt>
    <trkpt lat="57.9886616" lon="14.4266430"></trkpt>
    <trkpt lat="57.9878285" lon="14.4260206"></trkpt>
    <trkpt lat="57.9869955" lon="14.4253981"></trkpt>
    <trkpt lat="57.9861624" lon="14.4247757"></trkpt>
    <trkpt lat="57.9853294" lon="14.4241533"></trkpt>
    <trkpt lat="57.9844963" lon="14.4235309"></trkpt>
    <trkpt lat="57.9836633" lon="14.4229084"></trkpt>
    <trkpt lat="57.9828303" lon="14.4222860"></trkpt>
    <trkpt lat="57.9819972" lon="14.4216636"></trkpt>
    <trkpt lat="57.9811642" lon="14.4210411"></trkpt>
    <trkpt lat="57.9803311" lon="14.4204187"></trkpt>
    <trkpt lat="57.9794981" lon="14.4197963"></trkpt>
    <trkpt lat="57.9786651" lon="14.4191739"></trkpt>
    <trkpt lat="57.9778320" lon="14.4185514"></trkpt>
    <trkpt lat="57.9769990" lon="14.4179290"></trkpt>
    <trkpt lat="57.9761659" lon="14.4173066"></trkpt>
    <trkpt lat="57.9753329" lon="14.4166841"></trkpt>
    <trkpt lat="57.9744998" lon="14.4160617"></trkpt>
    <trkpt lat="57.9736668" lon="14.4154393"></trkpt>
    <trkpt lat="57.9728338" lon="14.4148168"></trkpt>
    <trkpt lat="57.9720007" lon="14.4141944"></trkpt>
    <trkpt lat="57.9711677" lon="14.4135720"></trkpt>
    <trkpt lat="57.9703346" lon="14.4129496"></trkpt>
    <trkpt lat="57.9695016" lon="14.4123271"></trkpt>
    <trkpt lat="57.9686685" lon="14.4117047"></trkpt>
    <trkpt lat="57.9678355" lon="14.4110823"></trkpt>
    <trkpt lat="57.9670025" lon="14.4104598"></trkpt>
    <trkpt lat="57.9661694" lon="14.4098374"></trkpt>
    <trkpt lat="57.9653364" lon="14.4092150"></trkpt>
    <trkpt lat="57.9645033" lon="14.4085925"></trkpt>
    <trkpt lat="57.9636703" lon="14.4079701"></trkpt>
    <trkpt lat="57.9628372" lon="14.4073477"></trkpt>
    <trkpt lat="57.9620042" lon="14.4067253"></trkpt>
    <trkpt lat="57.9611712" lon="14.4061028"></trkpt>
    <trkpt lat="57.9603381" lon="14.4054804"></trkpt>
    <trkpt lat="57.9595051" lon="14.4048580"></trkpt>
    <trkpt lat="57.9586720" lon="14.4042355"></trkpt>
    <trkpt lat="57.9578390" lon="14.4036131"></trkpt>
    <trkpt lat="57.9570060" lon="14.4029907"></trkpt>
    <trkpt lat="57.9561729" lon="14.4023683"></trkpt>
    <trkpt lat="57.9553399" lon="14.4017458"></trkpt>
    <trkpt lat="57.9545068" lon="14.4011234"></trkpt>
    <trkpt lat="57.9536738" lon="14.4005010"></trkpt>
    <trkpt lat="57.9528407" lon="14.3998785"></trkpt>
    <trkpt lat="57.9520077" lon="14.3992561"></trkpt>
    <trkpt lat="57.9511747" lon="14.3986337"></trkpt>
    <trkpt lat="57.9503416" lon="14.3980112"></trkpt>
    <trkpt lat="57.9495086" lon="14.3973888"></trkpt>
    <trkpt lat="57.9486755" lon="14.3967664"></trkpt>
    <trkpt lat="57.9478425" lon="14.3961440"></trkpt>
    <trkpt lat="57.9470094" lon="14.3955215"></trkpt>
    <trkpt lat="57.9461764" lon="14.3948991"></trkpt>
    <trkpt lat="57.9453434" lon="14.3942767"></trkpt>
    <trkpt lat="57.9445103" lon="14.3936542"></trkpt>
    <trkpt lat="57.9436773" lon="14.3930318"></trkpt>
    <trkpt lat="57.9428442" lon="14.3924094"></trkpt>
    <trkpt lat="57.9420112" lon="14.3917870"></trkpt>
    <trkpt lat="57.9411781" lon="14.3911645"></trkpt>
    <trkpt lat="57.9403451" lon="14.3905421"></trkpt>
    <trkpt lat="57.9395121" lon="14.3899197"></trkpt>
    <trkpt lat="57.9386790" lon="14.3892972"></trkpt>
    <trkpt lat="57.9378460" lon="14.3886748"></trkpt>
    <trkpt lat="57.9370129" lon="14.3880524"></trkpt>
    <trkpt lat="57.9361799" lon="14.3874299"></trkpt>
    <trkpt lat="57.9353468" lon="14.3868075"></trkpt>
    <trkpt lat="57.9345138" lon="14.3861851"></trkpt>
    <trkpt lat="57.9336808" lon="14.3855627"></trkpt>
    <trkpt lat="57.9328477" lon="14.3849402"></trkpt>
    <trkpt lat="57.9320147" lon="14.3843178"></trkpt>
    <trkpt lat="57.9311816" lon="14.3836954"></trkpt>
    <trkpt lat="57.9303486" lon="14.3830729"></trkpt>
    <trkpt lat="57.9295156" lon="14.3824505"></trkpt>
    <trkpt lat="57.9286825" lon="14.3818281"></trkpt>
    <trkpt lat="57.9289720" lon="14.3808668"></trkpt>
    <trkpt lat="57.9292615" lon="14.3799055"></trkpt>
    <trkpt lat="57.9295414" lon="14.3787279"></trkpt>
    <trkpt lat="57.9297455" lon="14.3775267"></trkpt>
    <trkpt lat="57.9305652" lon="14.3782029"></trkpt>
    <trkpt lat="57.9313850" lon="14.3788791"></trkpt>
    <trkpt lat="57.9322047" lon="14.3795553"></trkpt>
    <trkpt lat="57.9330245" lon="14.3802315"></trkpt>
    <trkpt lat="57.9338442" lon="14.3809077"></trkpt>
    <trkpt lat="57.9346640" lon="14.3815839"></trkpt>
    <trkpt lat="57.9354837" lon="14.3822601"></trkpt>
    <trkpt lat="57.9363035" lon="14.3829363"></trkpt>
    <trkpt lat="57.9371233" lon="14.3836125"></trkpt>
    <trkpt lat="57.9379430" lon="14.3842887"></trkpt>
    <trkpt lat="57.9387628" lon="14.3849649"></trkpt>
    <trkpt lat="57.9395825" lon="14.3856411"></trkpt>
    <trkpt lat="57.9404023" lon="14.3863172"></trkpt>
    <trkpt lat="57.9412220" lon="14.3869934"></trkpt>
    <trkpt lat="57.9420418" lon="14.3876696"></trkpt>
    <trkpt lat="57.9428615" lon="14.3883458"></trkpt>
    <trkpt lat="57.9436813" lon="14.3890220"></trkpt>
    <trkpt lat="57.9445011" lon="14.3896982"></trkpt>
    <trkpt lat="57.9453208" lon="14.3903744"></trkpt>
    <trkpt lat="57.9461406" lon="14.3910506"></trkpt>
    <trkpt lat="57.9469603" lon="14.3917268"></trkpt>
    <trkpt lat="57.9477801" lon="14.3924030"></trkpt>
    <trkpt lat="57.9485998" lon="14.3930792"></trkpt>
    <trkpt lat="57.9494196" lon="14.3937554"></trkpt>
    <trkpt lat="57.9502393" lon="14.3944316"></trkpt>
    <trkpt lat="57.9510591" lon="14.3951078"></trkpt>
    <trkpt lat="57.9518789" lon="14.3957840"></trkpt>
    <trkpt lat="57.9526986" lon="14.3964602"></trkpt>
    <trkpt lat="57.9535184" lon="14.3971364"></trkpt>
    <trkpt lat="57.9543381" lon="14.3978126"></trkpt>
    <trkpt lat="57.9551579" lon="14.3984888"></trkpt>
    <trkpt lat="57.9559776" lon="14.3991650"></trkpt>
    <trkpt lat="57.9567974" lon="14.3998412"></trkpt>
    <trkpt lat="57.9576171" lon="14.4005174"></trkpt>
    <trkpt lat="57.9584369" lon="14.4011936"></trkpt>
    <trkpt lat="57.9592567" lon="14.4018698"></trkpt>
    <trkpt lat="57.9600764" lon="14.4025460"></trkpt>
    <trkpt lat="57.9608962" lon="14.4032222"></trkpt>
    <trkpt lat="57.9617159" lon="14.4038984"></trkpt>
    <trkpt lat="57.9625357" lon="14.4045746"></trkpt>
    <trkpt lat="57.9633554" lon="14.4052508"></trkpt>
    <trkpt lat="57.9641752" lon="14.4059270"></trkpt>
    <trkpt lat="57.9649949" lon="14.4066032"></trkpt>
    <trkpt lat="57.9658147" lon="14.4072794"></trkpt>
    <trkpt lat="57.9666345" lon="14.4079555"></trkpt>
    <trkpt lat="57.9674542" lon="14.4086317"></trkpt>
    <trkpt lat="57.9682740" lon="14.4093079"></trkpt>
    <trkpt lat="57.9690937" lon="14.4099841"></trkpt>
    <trkpt lat="57.9699135" lon="14.4106603"></trkpt>
    <trkpt lat="57.9707332" lon="14.4113365"></trkpt>
    <trkpt lat="57.9715530" lon="14.4120127"></trkpt>
    <trkpt lat="57.9723727" lon="14.4126889"></trkpt>
    <trkpt lat="57.9731925" lon="14.4133651"></trkpt>
    <trkpt lat="57.9740123" lon="14.4140413"></trkpt>
    <trkpt lat="57.9748320" lon="14.4147175"></trkpt>
    <trkpt lat="57.9756518" lon="14.4153937"></trkpt>
    <trkpt lat="57.9764715" lon="14.4160699"></trkpt>
    <trkpt lat="57.9772913" lon="14.4167461"></trkpt>
    <trkpt lat="57.9781110" lon="14.4174223"></trkpt>
    <trkpt lat="57.9789308" lon="14.4180985"></trkpt>
    <trkpt lat="57.9797505" lon="14.4187747"></trkpt>
    <trkpt lat="57.9805703" lon="14.4194509"></trkpt>
    <trkpt lat="57.9813901" lon="14.4201271"></trkpt>
    <trkpt lat="57.9822098" lon="14.4208033"></trkpt>
    <trkpt lat="57.9830296" lon="14.4214795"></trkpt>
    <trkpt lat="57.9838493" lon="14.4221557"></trkpt>
    <trkpt lat="57.9846691" lon="14.4228319"></trkpt>
    <trkpt lat="57.9854888" lon="14.4235081"></trkpt>
    <trkpt lat="57.9863086" lon="14.4241843"></trkpt>
    <trkpt lat="57.9871283" lon="14.4248605"></trkpt>
    <trkpt lat="57.9879481" lon="14.4255367"></trkpt>
    <trkpt lat="57.9887679" lon="14.4262129"></trkpt>
    <trkpt lat="57.9895876" lon="14.4268891"></trkpt>
    <trkpt lat="57.9904074" lon="14.4275653"></trkpt>
    <trkpt lat="57.9912271" lon="14.4282415"></trkpt>
    <trkpt lat="57.9920469" lon="14.4289177"></trkpt>
    <trkpt lat="57.9928666" lon="14.4295939"></trkpt>
    <trkpt lat="57.9936864" lon="14.4302700"></trkpt>
    <trkpt lat="57.9945061" lon="14.4309462"></trkpt>
    <trkpt lat="57.9953259" lon="14.4316224"></trkpt>
    <trkpt lat="57.9954416" lon="14.4316711"></trkpt>
    <trkpt lat="57.9960586" lon="14.4316156"></trkpt>
    <trkpt lat="57.9962104" lon="14.4314987"></trkpt>
    <trkpt lat="57.9963219" lon="14.4313729"></trkpt>
    <trkpt lat="57.9963879" lon="14.4313374"></trkpt>
    <trkpt lat="57.9966953" lon="14.4314797"></trkpt>
    <trkpt lat="57.9967820" lon="14.4314889"></trkpt>
    <trkpt lat="57.9970143" lon="14.4313616"></trkpt>
    <trkpt lat="57.9975022" lon="14.4312468"></trkpt>
    <trkpt lat="57.9977233" lon="14.4312603"></trkpt>
    <trkpt lat="57.9978988" lon="14.4313653"></trkpt>
    <trkpt lat="57.9981030" lon="14.4315575"></trkpt>
    <trkpt lat="57.9985512" lon="14.4317228"></trkpt>
    <trkpt lat="57.9989993" lon="14.4318880"></trkpt>
    <trkpt lat="57.9990938" lon="14.4318397"></trkpt>
    <trkpt lat="57.9994566" lon="14.4311587"></trkpt>
    <trkpt lat="57.9986304" lon="14.4312514"></trkpt>
    <trkpt lat="57.9978043" lon="14.4313442"></trkpt>
    <trkpt lat="57.9969782" lon="14.4314369"></trkpt>
    <trkpt lat="57.9961520" lon="14.4315297"></trkpt>
    <trkpt lat="57.9953259" lon="14.4316224"></trkpt>
    <trkpt lat="57.9954161" lon="14.4319870"></trkpt>
    <trkpt lat="57.9955046" lon="14.4322461"></trkpt>
    <trkpt lat="57.9957084" lon="14.4325543"></trkpt>
    <trkpt lat="57.9958321" lon="14.4326990"></trkpt>
    <trkpt lat="57.9963402" lon="14.4330381"></trkpt>
    <trkpt lat="57.9964789" lon="14.4331559"></trkpt>
    <trkpt lat="57.9966563" lon="14.4333456"></trkpt>
    <trkpt lat="57.9967806" lon="14.4335152"></trkpt>
    <trkpt lat="57.9969177" lon="14.4335974"></trkpt>
    <trkpt lat="57.9970605" lon="14.4336292"></trkpt>
    <trkpt lat="57.9973850" lon="14.4336358"></trkpt>
    <trkpt lat="57.9977230" lon="14.4337745"></trkpt>
    <trkpt lat="57.9981428" lon="14.4339923"></trkpt>
    <trkpt lat="57.9987124" lon="14.4343801"></trkpt>
    <trkpt lat="57.9991435" lon="14.4348337"></trkpt>
    <trkpt lat="57.9993746" lon="14.4352481"></trkpt>
    <trkpt lat="57.9994379" lon="14.4355508"></trkpt>
    <trkpt lat="57.9995092" lon="14.4364915"></trkpt>
    <trkpt lat="57.9996702" lon="14.4375801"></trkpt>
    <trkpt lat="57.9997844" lon="14.4385484"></trkpt>
    <trkpt lat="57.9998384" lon="14.4388511"></trkpt>
    <trkpt lat="58.0000428" lon="14.4393500"></trkpt>
    <trkpt lat="58.0003516" lon="14.4399625"></trkpt>
    <trkpt lat="58.0005378" lon="14.4402604"></trkpt>
    <trkpt lat="58.0007084" lon="14.4404134"></trkpt>
    <trkpt lat="58.0009213" lon="14.4405031"></trkpt>
    <trkpt lat="58.0012323" lon="14.4407013"></trkpt>
    <trkpt lat="58.0015464" lon="14.4411360"></trkpt>
    <trkpt lat="58.0020703" lon="14.4421021"></trkpt>
    <trkpt lat="58.0025224" lon="14.4430881"></trkpt>
    <trkpt lat="58.0027770" lon="14.4438117"></trkpt>
    <trkpt lat="58.0031743" lon="14.4452333"></trkpt>
    <trkpt lat="58.0033673" lon="14.4456793"></trkpt>
    <trkpt lat="58.0035782" lon="14.4459609"></trkpt>
    <trkpt lat="58.0037468" lon="14.4460752"></trkpt>
    <trkpt lat="58.0042217" lon="14.4461373"></trkpt>
    <trkpt lat="58.0049632" lon="14.4461677"></trkpt>
    <trkpt lat="58.0053376" lon="14.4462566"></trkpt>
    <trkpt lat="58.0060016" lon="14.4465795"></trkpt>
    <trkpt lat="58.0066657" lon="14.4469024"></trkpt>
    <trkpt lat="58.0067881" lon="14.4470410"></trkpt>
    <trkpt lat="58.0073342" lon="14.4475269"></trkpt>
    <trkpt lat="58.0078804" lon="14.4480128"></trkpt>
    <trkpt lat="58.0084265" lon="14.4484987"></trkpt>
    <trkpt lat="58.0088688" lon="14.4488383"></trkpt>
    <trkpt lat="58.0093111" lon="14.4491779"></trkpt>
    <trkpt lat="58.0098479" lon="14.4495116"></trkpt>
    <trkpt lat="58.0101848" lon="14.4497828"></trkpt>
    <trkpt lat="58.0105007" lon="14.4500950"></trkpt>
    <trkpt lat="58.0109931" lon="14.4506833"></trkpt>
    <trkpt lat="58.0114854" lon="14.4512717"></trkpt>
    <trkpt lat="58.0117980" lon="14.4515807"></trkpt>
    <trkpt lat="58.0125051" lon="14.4522112"></trkpt>
    <trkpt lat="58.0129368" lon="14.4527214"></trkpt>
    <trkpt lat="58.0133684" lon="14.4532315"></trkpt>
    <trkpt lat="58.0140684" lon="14.4541466"></trkpt>
    <trkpt lat="58.0147684" lon="14.4550617"></trkpt>
    <trkpt lat="58.0153491" lon="14.4558381"></trkpt>
    <trkpt lat="58.0159298" lon="14.4566145"></trkpt>
    <trkpt lat="58.0165105" lon="14.4573909"></trkpt>
    <trkpt lat="58.0170912" lon="14.4581673"></trkpt>
    <trkpt lat="58.0175301" lon="14.4587985"></trkpt>
    <trkpt lat="58.0179691" lon="14.4594297"></trkpt>
    <trkpt lat="58.0177683" lon="14.4602152"></trkpt>
    <trkpt lat="58.0177829" lon="14.4604122"></trkpt>
    <trkpt lat="58.0181404" lon="14.4613537"></trkpt>
    <trkpt lat="58.0184979" lon="14.4622952"></trkpt>
    <trkpt lat="58.0185118" lon="14.4625169"></trkpt>
    <trkpt lat="58.0190516" lon="14.4631259"></trkpt>
    <trkpt lat="58.0195915" lon="14.4637350"></trkpt>
    <trkpt lat="58.0202801" lon="14.4645522"></trkpt>
    <trkpt lat="58.0209687" lon="14.4653695"></trkpt>
    <trkpt lat="58.0216574" lon="14.4661868"></trkpt>
    <trkpt lat="58.0223460" lon="14.4670041"></trkpt>
    <trkpt lat="58.0230346" lon="14.4678214"></trkpt>
    <trkpt lat="58.0237233" lon="14.4686387"></trkpt>
    <trkpt lat="58.0242955" lon="14.4693239"></trkpt>
    <trkpt lat="58.0248677" lon="14.4700091"></trkpt>
    <trkpt lat="58.0254713" lon="14.4707559"></trkpt>
    <trkpt lat="58.0260748" lon="14.4715026"></trkpt>
    <trkpt lat="58.0266784" lon="14.4722494"></trkpt>
    <trkpt lat="58.0272820" lon="14.4729962"></trkpt>
    <trkpt lat="58.0280376" lon="14.4738313"></trkpt>
    <trkpt lat="58.0287932" lon="14.4746664"></trkpt>
    <trkpt lat="58.0295489" lon="14.4755015"></trkpt>
    <trkpt lat="58.0303045" lon="14.4763366"></trkpt>
    <trkpt lat="58.0310601" lon="14.4771718"></trkpt>
    <trkpt lat="58.0318157" lon="14.4780069"></trkpt>
    <trkpt lat="58.0325714" lon="14.4788420"></trkpt>
    <trkpt lat="58.0333270" lon="14.4796771"></trkpt>
    <trkpt lat="58.0339710" lon="14.4803686"></trkpt>
    <trkpt lat="58.0346150" lon="14.4810601"></trkpt>
    <trkpt lat="58.0352591" lon="14.4817516"></trkpt>
    <trkpt lat="58.0359788" lon="14.4825360"></trkpt>
    <trkpt lat="58.0366985" lon="14.4833204"></trkpt>
    <trkpt lat="58.0374182" lon="14.4841048"></trkpt>
    <trkpt lat="58.0381379" lon="14.4848893"></trkpt>
    <trkpt lat="58.0388576" lon="14.4856737"></trkpt>
    <trkpt lat="58.0395773" lon="14.4864581"></trkpt>
    <trkpt lat="58.0402970" lon="14.4872425"></trkpt>
    <trkpt lat="58.0410167" lon="14.4880270"></trkpt>
    <trkpt lat="58.0417365" lon="14.4888114"></trkpt>
    <trkpt lat="58.0424562" lon="14.4895958"></trkpt>
    <trkpt lat="58.0431759" lon="14.4903802"></trkpt>
    <trkpt lat="58.0438956" lon="14.4911647"></trkpt>
    <trkpt lat="58.0446153" lon="14.4919491"></trkpt>
    <trkpt lat="58.0453801" lon="14.4927422"></trkpt>
    <trkpt lat="58.0461449" lon="14.4935353"></trkpt>
    <trkpt lat="58.0467759" lon="14.4942123"></trkpt>
    <trkpt lat="58.0474068" lon="14.4948893"></trkpt>
    <trkpt lat="58.0480377" lon="14.4955662"></trkpt>
    <trkpt lat="58.0486687" lon="14.4962432"></trkpt>
    <trkpt lat="58.0491034" lon="14.4965323"></trkpt>
    <trkpt lat="58.0496040" lon="14.4966635"></trkpt>
    <trkpt lat="58.0501046" lon="14.4967948"></trkpt>
    <trkpt lat="58.0508880" lon="14.4970876"></trkpt>
    <trkpt lat="58.0516714" lon="14.4973803"></trkpt>
    <trkpt lat="58.0522856" lon="14.4975024"></trkpt>
    <trkpt lat="58.0528998" lon="14.4976245"></trkpt>
    <trkpt lat="58.0535140" lon="14.4977466"></trkpt>
    <trkpt lat="58.0541434" lon="14.4979014"></trkpt>
    <trkpt lat="58.0547728" lon="14.4980561"></trkpt>
    <trkpt lat="58.0554022" lon="14.4982109"></trkpt>
    <trkpt lat="58.0560803" lon="14.4984740"></trkpt>
    <trkpt lat="58.0567870" lon="14.4989751"></trkpt>
    <trkpt lat="58.0573920" lon="14.4995473"></trkpt>
    <trkpt lat="58.0579969" lon="14.5001194"></trkpt>
    <trkpt lat="58.0584685" lon="14.5007939"></trkpt>
    <trkpt lat="58.0589400" lon="14.5014683"></trkpt>
    <trkpt lat="58.0593262" lon="14.5023645"></trkpt>
    <trkpt lat="58.0597125" lon="14.5032607"></trkpt>
    <trkpt lat="58.0600987" lon="14.5041570"></trkpt>
    <trkpt lat="58.0604476" lon="14.5047741"></trkpt>
    <trkpt lat="58.0607965" lon="14.5053911"></trkpt>
    <trkpt lat="58.0614676" lon="14.5061782"></trkpt>
    <trkpt lat="58.0621388" lon="14.5069652"></trkpt>
    <trkpt lat="58.0628100" lon="14.5077522"></trkpt>
    <trkpt lat="58.0635085" lon="14.5086207"></trkpt>
    <trkpt lat="58.0642069" lon="14.5094893"></trkpt>
    <trkpt lat="58.0649054" lon="14.5103578"></trkpt>
    <trkpt lat="58.0656039" lon="14.5112263"></trkpt>
    <trkpt lat="58.0658235" lon="14.5115062"></trkpt>
    <trkpt lat="58.0655782" lon="14.5112072"></trkpt>
    <trkpt lat="58.0659912" lon="14.5117372"></trkpt>
    <trkpt lat="58.0664041" lon="14.5122672"></trkpt>
    <trkpt lat="58.0666460" lon="14.5127433"></trkpt>
    <trkpt lat="58.0669076" lon="14.5135539"></trkpt>
    <trkpt lat="58.0671692" lon="14.5143645"></trkpt>
    <trkpt lat="58.0673973" lon="14.5149063"></trkpt>
    <trkpt lat="58.0676624" lon="14.5152341"></trkpt>
    <trkpt lat="58.0679693" lon="14.5153596"></trkpt>
    <trkpt lat="58.0683665" lon="14.5154793"></trkpt>
    <trkpt lat="58.0686216" lon="14.5156907"></trkpt>
    <trkpt lat="58.0690797" lon="14.5161861"></trkpt>
    <trkpt lat="58.0693918" lon="14.5164101"></trkpt>
    <trkpt lat="58.0696663" lon="14.5164285"></trkpt>
    <trkpt lat="58.0703255" lon="14.5161543"></trkpt>
    <trkpt lat="58.0709848" lon="14.5158801"></trkpt>
    <trkpt lat="58.0712792" lon="14.5158444"></trkpt>
    <trkpt lat="58.0720299" lon="14.5158573"></trkpt>
    <trkpt lat="58.0727806" lon="14.5158702"></trkpt>
    <trkpt lat="58.0735313" lon="14.5158831"></trkpt>
    <trkpt lat="58.0738690" lon="14.5159633"></trkpt>
    <trkpt lat="58.0741145" lon="14.5161615"></trkpt>
    <trkpt lat="58.0746365" lon="14.5170745"></trkpt>
    <trkpt lat="58.0751585" lon="14.5179875"></trkpt>
    <trkpt lat="58.0756805" lon="14.5189005"></trkpt>
    <trkpt lat="58.0762743" lon="14.5196025"></trkpt>
    <trkpt lat="58.0768681" lon="14.5203045"></trkpt>
    <trkpt lat="58.0773226" lon="14.5210781"></trkpt>
    <trkpt lat="58.0777237" lon="14.5218749"></trkpt>
    <trkpt lat="58.0781248" lon="14.5226718"></trkpt>
    <trkpt lat="58.0785908" lon="14.5233466"></trkpt>
    <trkpt lat="58.0788731" lon="14.5238313"></trkpt>
    <trkpt lat="58.0792984" lon="14.5250269"></trkpt>
    <trkpt lat="58.0794933" lon="14.5253559"></trkpt>
    <trkpt lat="58.0800611" lon="14.5259531"></trkpt>
    <trkpt lat="58.0804150" lon="14.5265198"></trkpt>
    <trkpt lat="58.0807688" lon="14.5270864"></trkpt>
    <trkpt lat="58.0813924" lon="14.5278107"></trkpt>
    <trkpt lat="58.0820159" lon="14.5285350"></trkpt>
    <trkpt lat="58.0822860" lon="14.5289571"></trkpt>
    <trkpt lat="58.0825116" lon="14.5295324"></trkpt>
    <trkpt lat="58.0827022" lon="14.5305312"></trkpt>
    <trkpt lat="58.0828928" lon="14.5315300"></trkpt>
    <trkpt lat="58.0830480" lon="14.5320143"></trkpt>
    <trkpt lat="58.0836706" lon="14.5330191"></trkpt>
    <trkpt lat="58.0842932" lon="14.5340238"></trkpt>
    <trkpt lat="58.0845688" lon="14.5345844"></trkpt>
    <trkpt lat="58.0848672" lon="14.5355623"></trkpt>
    <trkpt lat="58.0851640" lon="14.5355178"></trkpt>
    <trkpt lat="58.0857338" lon="14.5357340"></trkpt>
    <trkpt lat="58.0862669" lon="14.5360045"></trkpt>
    <trkpt lat="58.0864174" lon="14.5362042"></trkpt>
    <trkpt lat="58.0866973" lon="14.5366981"></trkpt>
    <trkpt lat="58.0870038" lon="14.5370257"></trkpt>
    <trkpt lat="58.0872728" lon="14.5371609"></trkpt>
    <trkpt lat="58.0877386" lon="14.5372059"></trkpt>
    <trkpt lat="58.0882043" lon="14.5372509"></trkpt>
    <trkpt lat="58.0886090" lon="14.5374650"></trkpt>
    <trkpt lat="58.0889002" lon="14.5378018"></trkpt>
    <trkpt lat="58.0891887" lon="14.5385468"></trkpt>
    <trkpt lat="58.0894773" lon="14.5392918"></trkpt>
    <trkpt lat="58.0897831" lon="14.5397316"></trkpt>
    <trkpt lat="58.0901335" lon="14.5400272"></trkpt>
    <trkpt lat="58.0904973" lon="14.5406024"></trkpt>
    <trkpt lat="58.0908611" lon="14.5411776"></trkpt>
    <trkpt lat="58.0910167" lon="14.5415800"></trkpt>
    <trkpt lat="58.0910982" lon="14.5420759"></trkpt>
    <trkpt lat="58.0912917" lon="14.5425212"></trkpt>
    <trkpt lat="58.0915518" lon="14.5427930"></trkpt>
    <trkpt lat="58.0918725" lon="14.5427930"></trkpt>
    <trkpt lat="58.0923091" lon="14.5426748"></trkpt>
    <trkpt lat="58.0928155" lon="14.5426912"></trkpt>
    <trkpt lat="58.0930983" lon="14.5428208"></trkpt>
    <trkpt lat="58.0934874" lon="14.5433962"></trkpt>
    <trkpt lat="58.0938765" lon="14.5439717"></trkpt>
    <trkpt lat="58.0940270" lon="14.5442927"></trkpt>
    <trkpt lat="58.0941328" lon="14.5448720"></trkpt>
    <trkpt lat="58.0942779" lon="14.5462940"></trkpt>
    <trkpt lat="58.0944064" lon="14.5468496"></trkpt>
    <trkpt lat="58.0946912" lon="14.5477244"></trkpt>
    <trkpt lat="58.0951269" lon="14.5485977"></trkpt>
    <trkpt lat="58.0954533" lon="14.5497820"></trkpt>
    <trkpt lat="58.0958999" lon="14.5503815"></trkpt>
    <trkpt lat="58.0964875" lon="14.5512281"></trkpt>
    <trkpt lat="58.0970751" lon="14.5520747"></trkpt>
    <trkpt lat="58.0973351" lon="14.5523538"></trkpt>
    <trkpt lat="58.0977407" lon="14.5525053"></trkpt>
    <trkpt lat="58.0981401" lon="14.5525806"></trkpt>
    <trkpt lat="58.0987234" lon="14.5526332"></trkpt>
    <trkpt lat="58.0993068" lon="14.5526858"></trkpt>
    <trkpt lat="58.0996851" lon="14.5525371"></trkpt>
    <trkpt lat="58.1001361" lon="14.5521248"></trkpt>
    <trkpt lat="58.1005870" lon="14.5517126"></trkpt>
    <trkpt lat="58.1011118" lon="14.5510503"></trkpt>
    <trkpt lat="58.1016233" lon="14.5509356"></trkpt>
    <trkpt lat="58.1017938" lon="14.5508031"></trkpt>
    <trkpt lat="58.1023722" lon="14.5498574"></trkpt>
    <trkpt lat="58.1025993" lon="14.5496209"></trkpt>
    <trkpt lat="58.1027322" lon="14.5495922"></trkpt>
    <trkpt lat="58.1031511" lon="14.5497973"></trkpt>
    <trkpt lat="58.1034233" lon="14.5498564"></trkpt>
    <trkpt lat="58.1036630" lon="14.5497948"></trkpt>
    <trkpt lat="58.1039930" lon="14.5496526"></trkpt>
    <trkpt lat="58.1045279" lon="14.5498637"></trkpt>
    <trkpt lat="58.1047630" lon="14.5498335"></trkpt>
    <trkpt lat="58.1054790" lon="14.5491685"></trkpt>
    <trkpt lat="58.1057352" lon="14.5490707"></trkpt>
    <trkpt lat="58.1060775" lon="14.5491288"></trkpt>
    <trkpt lat="58.1063063" lon="14.5493187"></trkpt>
    <trkpt lat="58.1067338" lon="14.5499231"></trkpt>
    <trkpt lat="58.1073583" lon="14.5506303"></trkpt>
    <trkpt lat="58.1079828" lon="14.5513375"></trkpt>
    <trkpt lat="58.1082483" lon="14.5515086"></trkpt>
  </trkseg></trk>
</gpx>
