<?xml version="1.0" encoding="UTF-8"?>
<gpx version="1.1" creator="Naturkartan" xmlns="http://www.topografix.com/GPX/1/1">
  <metadata><name>Franciskusleden</name></metadata>
  
  <trk><name>Franciskusleden</name><trkseg><trkpt lon="14.069090341" lat="57.619146742"></trkpt><trkpt lon="14.068985788" lat="57.619616908"></trkpt><trkpt lon="14.068432006" lat="57.62080766"></trkpt><trkpt lon="14.068344807" lat="57.621112999"></trkpt><trkpt lon="14.068116843" lat="57.622511815"></trkpt><trkpt lon="14.068168066" lat="57.623031018"></trkpt><trkpt lon="14.068426221" lat="57.623420708"></trkpt><trkpt lon="14.068937684" lat="57.623855339"></trkpt><trkpt lon="14.075080069" lat="57.628202859"></trkpt><trkpt lon="14.075328253" lat="57.628319947"></trkpt><trkpt lon="14.075199934" lat="57.628350141"></trkpt><trkpt lon="14.074837855" lat="57.628484642"></trkpt><trkpt lon="14.074622804" lat="57.628704438"></trkpt><trkpt lon="14.074484411" lat="57.62916615"></trkpt><trkpt lon="14.074380265" lat="57.629326556"></trkpt><trkpt lon="14.074173172" lat="57.629543384"></trkpt><trkpt lon="14.073784803" lat="57.62965143"></trkpt><trkpt lon="14.073513017" lat="57.62969252"></trkpt><trkpt lon="14.073144577" lat="57.629886829"></trkpt><trkpt lon="14.072781328" lat="57.630182004"></trkpt><trkpt lon="14.072437847" lat="57.630574307"></trkpt><trkpt lon="14.072292322" lat="57.630814026"></trkpt><trkpt lon="14.07222121" lat="57.63101695"></trkpt><trkpt lon="14.072245694" lat="57.631325412"></trkpt><trkpt lon="14.072179589" lat="57.631913904"></trkpt><trkpt lon="14.072220289" lat="57.632139572"></trkpt><trkpt lon="14.072341402" lat="57.632336546"></trkpt><trkpt lon="14.072548683" lat="57.632546612"></trkpt><trkpt lon="14.07258304" lat="57.632762345"></trkpt><trkpt lon="14.072489299" lat="57.63291856"></trkpt><trkpt lon="14.072477682" lat="57.633106171"></trkpt><trkpt lon="14.072615321" lat="57.633519741"></trkpt><trkpt lon="14.072663456" lat="57.633800861"></trkpt><trkpt lon="14.072567128" lat="57.634160785"></trkpt><trkpt lon="14.072545724" lat="57.634616576"></trkpt><trkpt lon="14.072606844" lat="57.634832691"></trkpt><trkpt lon="14.07271865" lat="57.635083357"></trkpt><trkpt lon="14.072667158" lat="57.635887435"></trkpt><trkpt lon="14.072572793" lat="57.636372389"></trkpt><trkpt lon="14.072635503" lat="57.636653444"></trkpt><trkpt lon="14.072661129" lat="57.636936932"></trkpt><trkpt lon="14.072555951" lat="57.637153961"></trkpt><trkpt lon="14.072232045" lat="57.637434173"></trkpt><trkpt lon="14.072175574" lat="57.637984066"></trkpt><trkpt lon="14.072091591" lat="57.638203265"></trkpt><trkpt lon="14.071708735" lat="57.638877081"></trkpt><trkpt lon="14.071827805" lat="57.639079653"></trkpt><trkpt lon="14.072271787" lat="57.63946847"></trkpt><trkpt lon="14.072495401" lat="57.639787871"></trkpt><trkpt lon="14.072627783" lat="57.639932942"></trkpt><trkpt lon="14.072718899" lat="57.640099457"></trkpt><trkpt lon="14.072751755" lat="57.640581788"></trkpt><trkpt lon="14.073095775" lat="57.641600323"></trkpt><trkpt lon="14.073215612" lat="57.641863305"></trkpt><trkpt lon="14.073540058" lat="57.642406536"></trkpt><trkpt lon="14.073709166" lat="57.642525337"></trkpt><trkpt lon="14.074002661" lat="57.642592137"></trkpt><trkpt lon="14.074454689" lat="57.64266851"></trkpt><trkpt lon="14.074732554" lat="57.642815213"></trkpt><trkpt lon="14.074893591" lat="57.64306927"></trkpt><trkpt lon="14.074918303" lat="57.643251956"></trkpt><trkpt lon="14.074829913" lat="57.643377256"></trkpt><trkpt lon="14.074078889" lat="57.643939718"></trkpt><trkpt lon="14.07400632" lat="57.644018196"></trkpt><trkpt lon="14.073984243" lat="57.644102879"></trkpt><trkpt lon="14.074048547" lat="57.644179356"></trkpt><trkpt lon="14.075072307" lat="57.644974393"></trkpt><trkpt lon="14.075362763" lat="57.645096835"></trkpt><trkpt lon="14.076171511" lat="57.645084869"></trkpt><trkpt lon="14.076600788" lat="57.645044307"></trkpt><trkpt lon="14.07703316" lat="57.645039761"></trkpt><trkpt lon="14.077401799" lat="57.645081894"></trkpt><trkpt lon="14.078106457" lat="57.645216051"></trkpt><trkpt lon="14.078432676" lat="57.645295253"></trkpt><trkpt lon="14.07872572" lat="57.645415308"></trkpt><trkpt lon="14.078918919" lat="57.64556504"></trkpt><trkpt lon="14.079559185" lat="57.646281146"></trkpt><trkpt lon="14.080019517" lat="57.646917275"></trkpt><trkpt lon="14.080013632" lat="57.647092212"></trkpt><trkpt lon="14.079969226" lat="57.647259604"></trkpt><trkpt lon="14.078469578" lat="57.651218676"></trkpt><trkpt lon="14.078269231" lat="57.651815806"></trkpt><trkpt lon="14.078230952" lat="57.652086836"></trkpt><trkpt lon="14.078248531" lat="57.652389507"></trkpt><trkpt lon="14.078411718" lat="57.653299588"></trkpt><trkpt lon="14.078681937" lat="57.654511743"></trkpt><trkpt lon="14.078740385" lat="57.654936057"></trkpt><trkpt lon="14.07876439" lat="57.655239675"></trkpt><trkpt lon="14.078702342" lat="57.655397183"></trkpt><trkpt lon="14.078625892" lat="57.655554758"></trkpt><trkpt lon="14.077723639" lat="57.656887979"></trkpt><trkpt lon="14.07687675" lat="57.658107972"></trkpt><trkpt lon="14.076685952" lat="57.658326555"></trkpt><trkpt lon="14.076463419" lat="57.658455354"></trkpt><trkpt lon="14.075607634" lat="57.658724958"></trkpt><trkpt lon="14.075489925" lat="57.658803689"></trkpt><trkpt lon="14.075391542" lat="57.658890054"></trkpt><trkpt lon="14.075144897" lat="57.659185721"></trkpt><trkpt lon="14.074956189" lat="57.659501714"></trkpt><trkpt lon="14.074936869" lat="57.659847222"></trkpt><trkpt lon="14.074960353" lat="57.660204921"></trkpt><trkpt lon="14.074894502" lat="57.6603539"></trkpt><trkpt lon="14.076094369" lat="57.661694023"></trkpt><trkpt lon="14.076105098" lat="57.661772906"></trkpt><trkpt lon="14.075949844" lat="57.661825292"></trkpt><trkpt lon="14.076518211" lat="57.662526592"></trkpt><trkpt lon="14.076514853" lat="57.662639241"></trkpt><trkpt lon="14.076719328" lat="57.662883788"></trkpt><trkpt lon="14.076641148" lat="57.662989495"></trkpt><trkpt lon="14.073641134" lat="57.663847378"></trkpt><trkpt lon="14.072965374" lat="57.663958733"></trkpt><trkpt lon="14.071717844" lat="57.664108643"></trkpt><trkpt lon="14.071463368" lat="57.664168929"></trkpt><trkpt lon="14.07131653" lat="57.664528803"></trkpt><trkpt lon="14.07144774" lat="57.66520482"></trkpt><trkpt lon="14.071314036" lat="57.665498113"></trkpt><trkpt lon="14.071024201" lat="57.665786411"></trkpt><trkpt lon="14.070654578" lat="57.665962932"></trkpt><trkpt lon="14.070486531" lat="57.666102432"></trkpt><trkpt lon="14.070179157" lat="57.666213061"></trkpt><trkpt lon="14.070299676" lat="57.666266458"></trkpt><trkpt lon="14.07047395" lat="57.666378806"></trkpt><trkpt lon="14.070602465" lat="57.666570741"></trkpt><trkpt lon="14.070689524" lat="57.66684716"></trkpt><trkpt lon="14.070785822" lat="57.66703421"></trkpt><trkpt lon="14.071115958" lat="57.667583773"></trkpt><trkpt lon="14.071263624" lat="57.667712642"></trkpt><trkpt lon="14.071756265" lat="57.66790796"></trkpt><trkpt lon="14.071879346" lat="57.667921835"></trkpt><trkpt lon="14.071997342" lat="57.667917719"></trkpt><trkpt lon="14.072507629" lat="57.667806642"></trkpt><trkpt lon="14.072928221" lat="57.668322133"></trkpt><trkpt lon="14.073388289" lat="57.669062683"></trkpt><trkpt lon="14.07352629" lat="57.66920086"></trkpt><trkpt lon="14.073724042" lat="57.669297448"></trkpt><trkpt lon="14.074015427" lat="57.669403846"></trkpt><trkpt lon="14.074269609" lat="57.669472955"></trkpt><trkpt lon="14.074808509" lat="57.669567676"></trkpt><trkpt lon="14.075163093" lat="57.669686414"></trkpt><trkpt lon="14.075290586" lat="57.66978817"></trkpt><trkpt lon="14.075595778" lat="57.670173097"></trkpt><trkpt lon="14.075588049" lat="57.670566789"></trkpt><trkpt lon="14.075650738" lat="57.670869113"></trkpt><trkpt lon="14.076138146" lat="57.671428044"></trkpt><trkpt lon="14.076325961" lat="57.671571415"></trkpt><trkpt lon="14.0764581" lat="57.671728787"></trkpt><trkpt lon="14.076419837" lat="57.671875458"></trkpt><trkpt lon="14.076453795" lat="57.672090087"></trkpt><trkpt lon="14.076574012" lat="57.67223577"></trkpt><trkpt lon="14.077002382" lat="57.672544243"></trkpt><trkpt lon="14.077317142" lat="57.672817025"></trkpt><trkpt lon="14.077707021" lat="57.673059795"></trkpt><trkpt lon="14.077962702" lat="57.673314463"></trkpt><trkpt lon="14.078369973" lat="57.673468969"></trkpt><trkpt lon="14.078492966" lat="57.673479954"></trkpt><trkpt lon="14.078732463" lat="57.673567614"></trkpt><trkpt lon="14.078859229" lat="57.673644175"></trkpt><trkpt lon="14.079442033" lat="57.673723788"></trkpt><trkpt lon="14.079733126" lat="57.673826857"></trkpt><trkpt lon="14.079886623" lat="57.673938988"></trkpt><trkpt lon="14.080058022" lat="57.674094386"></trkpt><trkpt lon="14.080099073" lat="57.674159497"></trkpt><trkpt lon="14.080483525" lat="57.674490598"></trkpt><trkpt lon="14.080354415" lat="57.6745392"></trkpt><trkpt lon="14.080866844" lat="57.675082613"></trkpt><trkpt lon="14.081007405" lat="57.675070506"></trkpt><trkpt lon="14.081209902" lat="57.675107266"></trkpt><trkpt lon="14.081317408" lat="57.675187145"></trkpt><trkpt lon="14.081438642" lat="57.675365564"></trkpt><trkpt lon="14.0815825" lat="57.675509659"></trkpt><trkpt lon="14.082111759" lat="57.675963289"></trkpt><trkpt lon="14.082206586" lat="57.676006591"></trkpt><trkpt lon="14.083587981" lat="57.67644274"></trkpt><trkpt lon="14.083589769" lat="57.676481455"></trkpt><trkpt lon="14.08337592" lat="57.676559127"></trkpt><trkpt lon="14.083116784" lat="57.676708799"></trkpt><trkpt lon="14.082894379" lat="57.676865762"></trkpt><trkpt lon="14.082868397" lat="57.67690342"></trkpt><trkpt lon="14.083020691" lat="57.677115195"></trkpt><trkpt lon="14.083475607" lat="57.677425814"></trkpt><trkpt lon="14.083794151" lat="57.677599741"></trkpt><trkpt lon="14.083942306" lat="57.677623327"></trkpt><trkpt lon="14.084090028" lat="57.677620106"></trkpt><trkpt lon="14.084444555" lat="57.677572627"></trkpt><trkpt lon="14.084563802" lat="57.677579424"></trkpt><trkpt lon="14.084652181" lat="57.677626852"></trkpt><trkpt lon="14.084635531" lat="57.677670624"></trkpt><trkpt lon="14.084332557" lat="57.677740617"></trkpt><trkpt lon="14.084255553" lat="57.677802073"></trkpt><trkpt lon="14.084152672" lat="57.678068404"></trkpt><trkpt lon="14.084171271" lat="57.678121177"></trkpt><trkpt lon="14.084239151" lat="57.678155665"></trkpt><trkpt lon="14.08444148" lat="57.678208079"></trkpt><trkpt lon="14.084529281" lat="57.678262319"></trkpt><trkpt lon="14.084574211" lat="57.678323608"></trkpt><trkpt lon="14.084798419" lat="57.67878786"></trkpt><trkpt lon="14.085007507" lat="57.679302254"></trkpt><trkpt lon="14.084982256" lat="57.679565473"></trkpt><trkpt lon="14.084934034" lat="57.679702672"></trkpt><trkpt lon="14.08494028" lat="57.6798562"></trkpt><trkpt lon="14.085001564" lat="57.679975363"></trkpt><trkpt lon="14.08496793" lat="57.680296447"></trkpt><trkpt lon="14.08504618" lat="57.680436404"></trkpt><trkpt lon="14.085088471" lat="57.680619172"></trkpt><trkpt lon="14.085445489" lat="57.680650344"></trkpt><trkpt lon="14.085904754" lat="57.680724003"></trkpt><trkpt lon="14.086172604" lat="57.680832046"></trkpt><trkpt lon="14.086834631" lat="57.681180586"></trkpt><trkpt lon="14.087066546" lat="57.681260286"></trkpt><trkpt lon="14.087130171" lat="57.681355019"></trkpt><trkpt lon="14.086989945" lat="57.681460202"></trkpt><trkpt lon="14.086726268" lat="57.681610618"></trkpt><trkpt lon="14.086472234" lat="57.681809459"></trkpt><trkpt lon="14.086352124" lat="57.682061843"></trkpt><trkpt lon="14.086401536" lat="57.68237521"></trkpt><trkpt lon="14.086701151" lat="57.682801452"></trkpt><trkpt lon="14.086794612" lat="57.683095609"></trkpt><trkpt lon="14.086735363" lat="57.683271688"></trkpt><trkpt lon="14.086525317" lat="57.683448465"></trkpt><trkpt lon="14.086340655" lat="57.683549102"></trkpt><trkpt lon="14.086542814" lat="57.683672552"></trkpt><trkpt lon="14.087001124" lat="57.683755172"></trkpt><trkpt lon="14.087373442" lat="57.683781887"></trkpt><trkpt lon="14.087717921" lat="57.68369001"></trkpt><trkpt lon="14.088773071" lat="57.684218027"></trkpt><trkpt lon="14.088345502" lat="57.684456884"></trkpt><trkpt lon="14.08831482" lat="57.684509969"></trkpt><trkpt lon="14.088752576" lat="57.684672252"></trkpt><trkpt lon="14.088933805" lat="57.68470597"></trkpt><trkpt lon="14.089094406" lat="57.684702251"></trkpt><trkpt lon="14.089363194" lat="57.68475551"></trkpt><trkpt lon="14.0896023" lat="57.684830355"></trkpt><trkpt lon="14.089780982" lat="57.684895538"></trkpt><trkpt lon="14.089966166" lat="57.685036647"></trkpt><trkpt lon="14.090001915" lat="57.686022079"></trkpt><trkpt lon="14.090110497" lat="57.686392636"></trkpt><trkpt lon="14.090303608" lat="57.686888098"></trkpt><trkpt lon="14.090599937" lat="57.687540401"></trkpt><trkpt lon="14.090561947" lat="57.689868021"></trkpt><trkpt lon="14.090615806" lat="57.690044895"></trkpt><trkpt lon="14.090978461" lat="57.690786437"></trkpt><trkpt lon="14.090992503" lat="57.690946117"></trkpt><trkpt lon="14.09092464" lat="57.69150076"></trkpt><trkpt lon="14.090773142" lat="57.691863606"></trkpt><trkpt lon="14.090531961" lat="57.691998551"></trkpt><trkpt lon="14.090794586" lat="57.692124674"></trkpt><trkpt lon="14.090960317" lat="57.692231607"></trkpt><trkpt lon="14.091149598" lat="57.692412501"></trkpt><trkpt lon="14.091636085" lat="57.693073056"></trkpt><trkpt lon="14.091994509" lat="57.693825994"></trkpt><trkpt lon="14.092063338" lat="57.69452987"></trkpt><trkpt lon="14.091761512" lat="57.694820025"></trkpt><trkpt lon="14.091511311" lat="57.694878547"></trkpt><trkpt lon="14.091306668" lat="57.694862986"></trkpt><trkpt lon="14.090828609" lat="57.694860834"></trkpt><trkpt lon="14.090667154" lat="57.694901686"></trkpt><trkpt lon="14.090580512" lat="57.69497685"></trkpt><trkpt lon="14.090634583" lat="57.695727386"></trkpt><trkpt lon="14.090563907" lat="57.695880798"></trkpt><trkpt lon="14.090090076" lat="57.696162511"></trkpt><trkpt lon="14.089696368" lat="57.696342032"></trkpt><trkpt lon="14.089480573" lat="57.696504575"></trkpt><trkpt lon="14.089177641" lat="57.697039449"></trkpt><trkpt lon="14.089106828" lat="57.697244945"></trkpt><trkpt lon="14.089299647" lat="57.697704696"></trkpt><trkpt lon="14.089620446" lat="57.698357628"></trkpt><trkpt lon="14.089529279" lat="57.698390778"></trkpt><trkpt lon="14.08932909" lat="57.69838382"></trkpt><trkpt lon="14.088997364" lat="57.698311959"></trkpt><trkpt lon="14.088783877" lat="57.698339967"></trkpt><trkpt lon="14.088496403" lat="57.698499151"></trkpt><trkpt lon="14.087885649" lat="57.69871211"></trkpt><trkpt lon="14.087713765" lat="57.698712164"></trkpt><trkpt lon="14.087087457" lat="57.698643376"></trkpt><trkpt lon="14.086642273" lat="57.698704288"></trkpt><trkpt lon="14.08627336" lat="57.698719031"></trkpt><trkpt lon="14.086121174" lat="57.698703903"></trkpt><trkpt lon="14.08598299" lat="57.69863376"></trkpt><trkpt lon="14.085896922" lat="57.698532548"></trkpt><trkpt lon="14.085824976" lat="57.698375405"></trkpt><trkpt lon="14.085728038" lat="57.698303867"></trkpt><trkpt lon="14.085481608" lat="57.698282231"></trkpt><trkpt lon="14.08519944" lat="57.698331766"></trkpt><trkpt lon="14.085112567" lat="57.698378839"></trkpt><trkpt lon="14.08494139" lat="57.698396804"></trkpt><trkpt lon="14.084192603" lat="57.698119077"></trkpt><trkpt lon="14.083842576" lat="57.698427501"></trkpt><trkpt lon="14.083524198" lat="57.69880265"></trkpt><trkpt lon="14.083405091" lat="57.698999226"></trkpt><trkpt lon="14.083273965" lat="57.699091617"></trkpt><trkpt lon="14.082991897" lat="57.6992167"></trkpt><trkpt lon="14.082716392" lat="57.69957531"></trkpt><trkpt lon="14.082468885" lat="57.699849895"></trkpt><trkpt lon="14.082595494" lat="57.700205952"></trkpt><trkpt lon="14.082769573" lat="57.70040005"></trkpt><trkpt lon="14.083420456" lat="57.700721372"></trkpt><trkpt lon="14.083634278" lat="57.700921952"></trkpt><trkpt lon="14.083950956" lat="57.701155993"></trkpt><trkpt lon="14.084014756" lat="57.701295561"></trkpt><trkpt lon="14.084098003" lat="57.701611148"></trkpt><trkpt lon="14.084071397" lat="57.70189809"></trkpt><trkpt lon="14.084012257" lat="57.702002794"></trkpt><trkpt lon="14.084161514" lat="57.702437844"></trkpt><trkpt lon="14.084160222" lat="57.702589931"></trkpt><trkpt lon="14.084068082" lat="57.702696357"></trkpt><trkpt lon="14.083863065" lat="57.702766221"></trkpt><trkpt lon="14.083385364" lat="57.702884901"></trkpt><trkpt lon="14.083107655" lat="57.702982643"></trkpt><trkpt lon="14.082528803" lat="57.703373462"></trkpt><trkpt lon="14.0836218" lat="57.704081691"></trkpt><trkpt lon="14.084192665" lat="57.704530443"></trkpt><trkpt lon="14.084390428" lat="57.704718514"></trkpt><trkpt lon="14.084591984" lat="57.704992357"></trkpt><trkpt lon="14.085191328" lat="57.706148629"></trkpt><trkpt lon="14.085912763" lat="57.70679428"></trkpt><trkpt lon="14.085986503" lat="57.706919643"></trkpt><trkpt lon="14.08603028" lat="57.707050506"></trkpt><trkpt lon="14.086023565" lat="57.707693245"></trkpt><trkpt lon="14.086101404" lat="57.707919454"></trkpt><trkpt lon="14.086229067" lat="57.708129346"></trkpt><trkpt lon="14.086401881" lat="57.708367189"></trkpt><trkpt lon="14.086793271" lat="57.708786407"></trkpt><trkpt lon="14.087365899" lat="57.709268138"></trkpt><trkpt lon="14.087199278" lat="57.709301746"></trkpt><trkpt lon="14.086795007" lat="57.709740879"></trkpt><trkpt lon="14.086347076" lat="57.71015274"></trkpt><trkpt lon="14.084524408" lat="57.711540203"></trkpt><trkpt lon="14.084161401" lat="57.711711539"></trkpt><trkpt lon="14.083337492" lat="57.712032907"></trkpt><trkpt lon="14.083056938" lat="57.712277815"></trkpt><trkpt lon="14.083077609" lat="57.712495269"></trkpt><trkpt lon="14.08319849" lat="57.713035153"></trkpt><trkpt lon="14.082952081" lat="57.713339764"></trkpt><trkpt lon="14.082703189" lat="57.713532321"></trkpt><trkpt lon="14.082591702" lat="57.713676393"></trkpt><trkpt lon="14.082551942" lat="57.71409652"></trkpt><trkpt lon="14.082351149" lat="57.714675118"></trkpt><trkpt lon="14.081957747" lat="57.71505704"></trkpt><trkpt lon="14.081078708" lat="57.715607492"></trkpt><trkpt lon="14.080473669" lat="57.715819583"></trkpt><trkpt lon="14.080408942" lat="57.715948556"></trkpt><trkpt lon="14.080525109" lat="57.716095933"></trkpt><trkpt lon="14.080887784" lat="57.716407489"></trkpt><trkpt lon="14.08100807" lat="57.716965137"></trkpt><trkpt lon="14.080872025" lat="57.717432661"></trkpt><trkpt lon="14.080749434" lat="57.717718771"></trkpt><trkpt lon="14.080679102" lat="57.718289264"></trkpt><trkpt lon="14.080352434" lat="57.71887262"></trkpt><trkpt lon="14.080295404" lat="57.719109811"></trkpt><trkpt lon="14.080331917" lat="57.719410172"></trkpt><trkpt lon="14.080432212" lat="57.719633163"></trkpt><trkpt lon="14.080545211" lat="57.719769799"></trkpt><trkpt lon="14.080774815" lat="57.72046742"></trkpt><trkpt lon="14.080740893" lat="57.720634047"></trkpt><trkpt lon="14.080751087" lat="57.721192891"></trkpt><trkpt lon="14.081003873" lat="57.721446803"></trkpt><trkpt lon="14.081309191" lat="57.72190798"></trkpt><trkpt lon="14.081782702" lat="57.722783278"></trkpt><trkpt lon="14.08277055" lat="57.724007258"></trkpt><trkpt lon="14.083815393" lat="57.725237126"></trkpt><trkpt lon="14.08456139" lat="57.726072222"></trkpt><trkpt lon="14.085089908" lat="57.726746704"></trkpt><trkpt lon="14.085260859" lat="57.727106932"></trkpt><trkpt lon="14.085302743" lat="57.727381288"></trkpt><trkpt lon="14.084441765" lat="57.731322741"></trkpt><trkpt lon="14.084388489" lat="57.731710296"></trkpt><trkpt lon="14.085823459" lat="57.732136601"></trkpt><trkpt lon="14.08791065" lat="57.732802116"></trkpt><trkpt lon="14.090716518" lat="57.73393296"></trkpt><trkpt lon="14.090991924" lat="57.734088308"></trkpt><trkpt lon="14.091349517" lat="57.734385667"></trkpt><trkpt lon="14.091581348" lat="57.734453408"></trkpt><trkpt lon="14.09199026" lat="57.734496589"></trkpt><trkpt lon="14.092241728" lat="57.734544064"></trkpt><trkpt lon="14.095702465" lat="57.735951777"></trkpt><trkpt lon="14.096808915" lat="57.736267799"></trkpt><trkpt lon="14.097914676" lat="57.73654092"></trkpt><trkpt lon="14.099820153" lat="57.736802743"></trkpt><trkpt lon="14.103271885" lat="57.737130895"></trkpt><trkpt lon="14.104384499" lat="57.737292133"></trkpt><trkpt lon="14.105308972" lat="57.737480102"></trkpt><trkpt lon="14.106174518" lat="57.737740733"></trkpt><trkpt lon="14.106869301" lat="57.737993141"></trkpt><trkpt lon="14.107671472" lat="57.738371034"></trkpt><trkpt lon="14.10849813" lat="57.738887101"></trkpt><trkpt lon="14.109267455" lat="57.739569657"></trkpt><trkpt lon="14.109610502" lat="57.740066426"></trkpt><trkpt lon="14.109803389" lat="57.740392455"></trkpt><trkpt lon="14.110075747" lat="57.741258015"></trkpt><trkpt lon="14.110090466" lat="57.741825906"></trkpt><trkpt lon="14.109940427" lat="57.743185236"></trkpt><trkpt lon="14.110100508" lat="57.743826858"></trkpt><trkpt lon="14.110282891" lat="57.744128964"></trkpt><trkpt lon="14.110510036" lat="57.744409405"></trkpt><trkpt lon="14.11061306" lat="57.744405068"></trkpt><trkpt lon="14.110767226" lat="57.744474008"></trkpt><trkpt lon="14.11107659" lat="57.744796715"></trkpt><trkpt lon="14.111218896" lat="57.744870269"></trkpt><trkpt lon="14.111332703" lat="57.744900604"></trkpt><trkpt lon="14.111597658" lat="57.744936149"></trkpt><trkpt lon="14.11220966" lat="57.745000901"></trkpt><trkpt lon="14.112360908" lat="57.745012049"></trkpt><trkpt lon="14.112476276" lat="57.745003177"></trkpt><trkpt lon="14.112557962" lat="57.744973085"></trkpt><trkpt lon="14.112673481" lat="57.744841863"></trkpt><trkpt lon="14.112963336" lat="57.744379573"></trkpt><trkpt lon="14.113063544" lat="57.744262678"></trkpt><trkpt lon="14.113259333" lat="57.744167724"></trkpt><trkpt lon="14.11348204" lat="57.744116922"></trkpt><trkpt lon="14.114061966" lat="57.744124803"></trkpt><trkpt lon="14.11457661" lat="57.744081921"></trkpt><trkpt lon="14.114925163" lat="57.744069538"></trkpt><trkpt lon="14.115483196" lat="57.744083222"></trkpt><trkpt lon="14.115877496" lat="57.744069902"></trkpt><trkpt lon="14.116414323" lat="57.743973213"></trkpt><trkpt lon="14.11663253" lat="57.74395077"></trkpt><trkpt lon="14.116907292" lat="57.743962261"></trkpt><trkpt lon="14.118498117" lat="57.744161192"></trkpt><trkpt lon="14.118743488" lat="57.744168547"></trkpt><trkpt lon="14.118980499" lat="57.74415456"></trkpt><trkpt lon="14.119642528" lat="57.744090371"></trkpt><trkpt lon="14.119773981" lat="57.744138632"></trkpt><trkpt lon="14.11971575" lat="57.74431907"></trkpt><trkpt lon="14.119746274" lat="57.744867145"></trkpt><trkpt lon="14.119726468" lat="57.745063869"></trkpt><trkpt lon="14.11978016" lat="57.745152643"></trkpt><trkpt lon="14.120231441" lat="57.745605164"></trkpt><trkpt lon="14.121109947" lat="57.746571361"></trkpt><trkpt lon="14.121701796" lat="57.747326323"></trkpt><trkpt lon="14.121860826" lat="57.747483285"></trkpt><trkpt lon="14.122090373" lat="57.747639703"></trkpt><trkpt lon="14.122923719" lat="57.748051595"></trkpt><trkpt lon="14.123477309" lat="57.74827738"></trkpt><trkpt lon="14.123922968" lat="57.748501045"></trkpt><trkpt lon="14.12411531" lat="57.748563866"></trkpt><trkpt lon="14.124511181" lat="57.748781804"></trkpt><trkpt lon="14.124659773" lat="57.748891929"></trkpt><trkpt lon="14.124715761" lat="57.749028995"></trkpt><trkpt lon="14.124756615" lat="57.749530065"></trkpt><trkpt lon="14.124831219" lat="57.749663329"></trkpt><trkpt lon="14.124937783" lat="57.749760984"></trkpt><trkpt lon="14.125058792" lat="57.749823715"></trkpt><trkpt lon="14.125433069" lat="57.749939607"></trkpt><trkpt lon="14.125756559" lat="57.750018215"></trkpt><trkpt lon="14.125748388" lat="57.750060825"></trkpt><trkpt lon="14.125690073" lat="57.750103683"></trkpt><trkpt lon="14.125258667" lat="57.750296818"></trkpt><trkpt lon="14.124828267" lat="57.750465369"></trkpt><trkpt lon="14.124334225" lat="57.750511897"></trkpt><trkpt lon="14.123914477" lat="57.750682069"></trkpt><trkpt lon="14.123830203" lat="57.750777101"></trkpt><trkpt lon="14.12381043" lat="57.750926014"></trkpt><trkpt lon="14.123902151" lat="57.751163482"></trkpt><trkpt lon="14.124102589" lat="57.751427972"></trkpt><trkpt lon="14.124462703" lat="57.751685245"></trkpt><trkpt lon="14.124474088" lat="57.751747654"></trkpt><trkpt lon="14.124425268" lat="57.751905895"></trkpt><trkpt lon="14.124235363" lat="57.752153018"></trkpt><trkpt lon="14.124081401" lat="57.752292486"></trkpt><trkpt lon="14.124051423" lat="57.752547088"></trkpt><trkpt lon="14.124147915" lat="57.752861695"></trkpt><trkpt lon="14.124265875" lat="57.753125674"></trkpt><trkpt lon="14.124455026" lat="57.753233138"></trkpt><trkpt lon="14.124843537" lat="57.753342374"></trkpt><trkpt lon="14.125104438" lat="57.753524809"></trkpt><trkpt lon="14.125143815" lat="57.753640284"></trkpt><trkpt lon="14.125253107" lat="57.753807925"></trkpt><trkpt lon="14.126919847" lat="57.755399234"></trkpt><trkpt lon="14.127405744" lat="57.756009635"></trkpt><trkpt lon="14.127897436" lat="57.75678497"></trkpt><trkpt lon="14.128137759" lat="57.757087113"></trkpt><trkpt lon="14.128658728" lat="57.757491372"></trkpt><trkpt lon="14.12889522" lat="57.757605999"></trkpt><trkpt lon="14.129877215" lat="57.757946789"></trkpt><trkpt lon="14.130258329" lat="57.758134124"></trkpt><trkpt lon="14.130573536" lat="57.758335428"></trkpt><trkpt lon="14.130941598" lat="57.758677699"></trkpt><trkpt lon="14.132045152" lat="57.759825468"></trkpt><trkpt lon="14.132704115" lat="57.760334525"></trkpt><trkpt lon="14.13426492" lat="57.761898046"></trkpt><trkpt lon="14.134601953" lat="57.762177402"></trkpt><trkpt lon="14.136394483" lat="57.764070777"></trkpt><trkpt lon="14.136893374" lat="57.764631256"></trkpt><trkpt lon="14.137993791" lat="57.765726909"></trkpt><trkpt lon="14.138384965" lat="57.766056726"></trkpt><trkpt lon="14.139240629" lat="57.766661821"></trkpt><trkpt lon="14.139855918" lat="57.767046184"></trkpt><trkpt lon="14.141433259" lat="57.767880462"></trkpt><trkpt lon="14.141601554" lat="57.76801404"></trkpt><trkpt lon="14.14160216" lat="57.768198359"></trkpt><trkpt lon="14.141703936" lat="57.768354347"></trkpt><trkpt lon="14.141755785" lat="57.768523994"></trkpt><trkpt lon="14.142115149" lat="57.768603507"></trkpt><trkpt lon="14.145626856" lat="57.769901552"></trkpt><trkpt lon="14.149157419" lat="57.771173303"></trkpt><trkpt lon="14.150587638" lat="57.771543521"></trkpt><trkpt lon="14.151670963" lat="57.771655225"></trkpt><trkpt lon="14.151887126" lat="57.771768523"></trkpt><trkpt lon="14.152446416" lat="57.772689134"></trkpt><trkpt lon="14.158552465" lat="57.781723382"></trkpt><trkpt lon="14.160937087" lat="57.781297997"></trkpt><trkpt lon="14.163973785" lat="57.780726549"></trkpt><trkpt lon="14.166442585" lat="57.780295229"></trkpt><trkpt lon="14.166565142" lat="57.78024213"></trkpt><trkpt lon="14.168018261" lat="57.779977533"></trkpt><trkpt lon="14.168310624" lat="57.780534282"></trkpt><trkpt lon="14.168429232" lat="57.781122444"></trkpt><trkpt lon="14.168304819" lat="57.781203813"></trkpt><trkpt lon="14.168395347" lat="57.78160556"></trkpt><trkpt lon="14.168575226" lat="57.781663801"></trkpt><trkpt lon="14.169192265" lat="57.781665927"></trkpt><trkpt lon="14.169024822" lat="57.783940852"></trkpt><trkpt lon="14.169163977" lat="57.783990083"></trkpt><trkpt lon="14.170790634" lat="57.783800184"></trkpt><trkpt lon="14.17157151" lat="57.783683107"></trkpt><trkpt lon="14.173115221" lat="57.783512646"></trkpt><trkpt lon="14.176098642" lat="57.783146461"></trkpt><trkpt lon="14.178081158" lat="57.782873026"></trkpt><trkpt lon="14.17991703" lat="57.782675692"></trkpt><trkpt lon="14.18195643" lat="57.782490977"></trkpt><trkpt lon="14.183776868" lat="57.782358503"></trkpt><trkpt lon="14.184881891" lat="57.78232312"></trkpt><trkpt lon="14.186466239" lat="57.782233999"></trkpt><trkpt lon="14.187457206" lat="57.782136689"></trkpt><trkpt lon="14.188865439" lat="57.781939685"></trkpt><trkpt lon="14.193082009" lat="57.781946389"></trkpt><trkpt lon="14.193763512" lat="57.78196245"></trkpt><trkpt lon="14.194061495" lat="57.781938767"></trkpt><trkpt lon="14.196026062" lat="57.781957502"></trkpt><trkpt lon="14.199095329" lat="57.782051882"></trkpt><trkpt lon="14.201413572" lat="57.7821622"></trkpt><trkpt lon="14.202562897" lat="57.782194128"></trkpt><trkpt lon="14.203818562" lat="57.782254053"></trkpt><trkpt lon="14.204202782" lat="57.782287056"></trkpt><trkpt lon="14.205265566" lat="57.782418346"></trkpt><trkpt lon="14.205904443" lat="57.782504355"></trkpt><trkpt lon="14.206913309" lat="57.782715055"></trkpt><trkpt lon="14.207797887" lat="57.782790932"></trkpt><trkpt lon="14.209536349" lat="57.783114806"></trkpt><trkpt lon="14.209879716" lat="57.78316656"></trkpt><trkpt lon="14.210178534" lat="57.783231169"></trkpt><trkpt lon="14.210808352" lat="57.783459224"></trkpt><trkpt lon="14.211582757" lat="57.783688806"></trkpt><trkpt lon="14.211772926" lat="57.783723999"></trkpt><trkpt lon="14.21223323" lat="57.783737304"></trkpt><trkpt lon="14.21256262" lat="57.783723924"></trkpt><trkpt lon="14.212597844" lat="57.783743705"></trkpt><trkpt lon="14.212696256" lat="57.783933794"></trkpt><trkpt lon="14.212627931" lat="57.784661355"></trkpt><trkpt lon="14.212346391" lat="57.784948538"></trkpt><trkpt lon="14.212135252" lat="57.785256708"></trkpt><trkpt lon="14.212107752" lat="57.785454267"></trkpt><trkpt lon="14.212238198" lat="57.785618645"></trkpt><trkpt lon="14.212636051" lat="57.785813654"></trkpt><trkpt lon="14.213107912" lat="57.786117112"></trkpt><trkpt lon="14.213503551" lat="57.786326293"></trkpt><trkpt lon="14.21361073" lat="57.786542992"></trkpt><trkpt lon="14.213719134" lat="57.786677787"></trkpt><trkpt lon="14.213947929" lat="57.786786951"></trkpt><trkpt lon="14.214767029" lat="57.786977424"></trkpt><trkpt lon="14.216062932" lat="57.78717933"></trkpt><trkpt lon="14.216560201" lat="57.787277354"></trkpt><trkpt lon="14.217753464" lat="57.787777432"></trkpt><trkpt lon="14.21800953" lat="57.78778587"></trkpt><trkpt lon="14.218171689" lat="57.787859041"></trkpt><trkpt lon="14.21823483" lat="57.787909966"></trkpt><trkpt lon="14.218279595" lat="57.788055232"></trkpt><trkpt lon="14.218710163" lat="57.788366513"></trkpt><trkpt lon="14.218958493" lat="57.788471719"></trkpt><trkpt lon="14.219298734" lat="57.78853689"></trkpt><trkpt lon="14.221010093" lat="57.78965088"></trkpt><trkpt lon="14.22143324" lat="57.790217292"></trkpt><trkpt lon="14.2228082" lat="57.791282431"></trkpt><trkpt lon="14.223160921" lat="57.79135599"></trkpt><trkpt lon="14.22336668" lat="57.791443388"></trkpt><trkpt lon="14.223463454" lat="57.79146169"></trkpt><trkpt lon="14.223562205" lat="57.791469622"></trkpt><trkpt lon="14.22379587" lat="57.791449326"></trkpt><trkpt lon="14.223866989" lat="57.791459355"></trkpt><trkpt lon="14.224885829" lat="57.791853572"></trkpt><trkpt lon="14.225103785" lat="57.79203564"></trkpt><trkpt lon="14.225380011" lat="57.792144293"></trkpt><trkpt lon="14.227084657" lat="57.792668592"></trkpt><trkpt lon="14.227778024" lat="57.792812858"></trkpt><trkpt lon="14.228256689" lat="57.792899437"></trkpt><trkpt lon="14.229600897" lat="57.793077082"></trkpt><trkpt lon="14.230737046" lat="57.793097455"></trkpt><trkpt lon="14.233343426" lat="57.793666834"></trkpt><trkpt lon="14.233663568" lat="57.793712497"></trkpt><trkpt lon="14.235489352" lat="57.793850402"></trkpt><trkpt lon="14.235663784" lat="57.793895717"></trkpt><trkpt lon="14.23579961" lat="57.793902056"></trkpt><trkpt lon="14.23602167" lat="57.793882949"></trkpt><trkpt lon="14.236407772" lat="57.79389021"></trkpt><trkpt lon="14.241203326" lat="57.793595001"></trkpt><trkpt lon="14.241409841" lat="57.793479399"></trkpt><trkpt lon="14.241596108" lat="57.793405772"></trkpt><trkpt lon="14.241622449" lat="57.793378399"></trkpt><trkpt lon="14.241793778" lat="57.793332221"></trkpt><trkpt lon="14.242197811" lat="57.793290759"></trkpt><trkpt lon="14.242637436" lat="57.793202711"></trkpt><trkpt lon="14.242846634" lat="57.793114453"></trkpt><trkpt lon="14.243021617" lat="57.792889089"></trkpt><trkpt lon="14.243308975" lat="57.792671032"></trkpt><trkpt lon="14.243461548" lat="57.792600042"></trkpt><trkpt lon="14.243626013" lat="57.792574802"></trkpt><trkpt lon="14.243739211" lat="57.792573994"></trkpt><trkpt lon="14.24400218" lat="57.792599145"></trkpt><trkpt lon="14.244151784" lat="57.792582368"></trkpt><trkpt lon="14.244249693" lat="57.792519154"></trkpt><trkpt lon="14.244346282" lat="57.792323262"></trkpt><trkpt lon="14.245249683" lat="57.790838225"></trkpt><trkpt lon="14.25039637" lat="57.792487425"></trkpt><trkpt lon="14.25108432" lat="57.79269949"></trkpt><trkpt lon="14.25159319" lat="57.792825887"></trkpt><trkpt lon="14.252310039" lat="57.792934248"></trkpt><trkpt lon="14.253570934" lat="57.79292939"></trkpt><trkpt lon="14.255772568" lat="57.792889708"></trkpt><trkpt lon="14.256851268" lat="57.792903604"></trkpt><trkpt lon="14.258106588" lat="57.793007893"></trkpt><trkpt lon="14.261382075" lat="57.793389007"></trkpt><trkpt lon="14.262299578" lat="57.793519762"></trkpt><trkpt lon="14.262810494" lat="57.793633598"></trkpt><trkpt lon="14.264268179" lat="57.794265191"></trkpt><trkpt lon="14.265347862" lat="57.794774565"></trkpt><trkpt lon="14.265719537" lat="57.794835372"></trkpt><trkpt lon="14.266749164" lat="57.795199055"></trkpt><trkpt lon="14.266985691" lat="57.795472211"></trkpt><trkpt lon="14.267219568" lat="57.795623047"></trkpt><trkpt lon="14.267427252" lat="57.795822344"></trkpt><trkpt lon="14.268045785" lat="57.79654227"></trkpt><trkpt lon="14.26952933" lat="57.798498103"></trkpt><trkpt lon="14.270433983" lat="57.799920941"></trkpt><trkpt lon="14.271089143" lat="57.801268649"></trkpt><trkpt lon="14.271348838" lat="57.801997755"></trkpt><trkpt lon="14.271570991" lat="57.802947833"></trkpt><trkpt lon="14.271658174" lat="57.803470391"></trkpt><trkpt lon="14.271738786" lat="57.804489444"></trkpt><trkpt lon="14.271740819" lat="57.804968365"></trkpt><trkpt lon="14.271660444" lat="57.806038408"></trkpt><trkpt lon="14.271048351" lat="57.808804477"></trkpt><trkpt lon="14.270806927" lat="57.810301848"></trkpt><trkpt lon="14.270811645" lat="57.810391654"></trkpt><trkpt lon="14.270903291" lat="57.810542539"></trkpt><trkpt lon="14.270756098" lat="57.810700014"></trkpt><trkpt lon="14.270719965" lat="57.810775961"></trkpt><trkpt lon="14.270162751" lat="57.81226815"></trkpt><trkpt lon="14.27003529" lat="57.812342932"></trkpt><trkpt lon="14.269963265" lat="57.812411904"></trkpt><trkpt lon="14.269931667" lat="57.812488976"></trkpt><trkpt lon="14.269928003" lat="57.812655735"></trkpt><trkpt lon="14.26987275" lat="57.812768913"></trkpt><trkpt lon="14.269590482" lat="57.813117917"></trkpt><trkpt lon="14.269526901" lat="57.813254322"></trkpt><trkpt lon="14.26938447" lat="57.814145781"></trkpt><trkpt lon="14.269219695" lat="57.81495938"></trkpt><trkpt lon="14.268933797" lat="57.815742976"></trkpt><trkpt lon="14.26894542" lat="57.81583743"></trkpt><trkpt lon="14.26909528" lat="57.816040226"></trkpt><trkpt lon="14.269147294" lat="57.816161547"></trkpt><trkpt lon="14.269104686" lat="57.816417534"></trkpt><trkpt lon="14.268993761" lat="57.81656036"></trkpt><trkpt lon="14.269031626" lat="57.8165975"></trkpt><trkpt lon="14.26941615" lat="57.81666478"></trkpt><trkpt lon="14.269506279" lat="57.816706"></trkpt><trkpt lon="14.269526708" lat="57.8167422"></trkpt><trkpt lon="14.268490165" lat="57.820044728"></trkpt><trkpt lon="14.268478584" lat="57.820215044"></trkpt><trkpt lon="14.268629588" lat="57.820300824"></trkpt><trkpt lon="14.268624398" lat="57.820372835"></trkpt><trkpt lon="14.268663122" lat="57.820446191"></trkpt><trkpt lon="14.268753627" lat="57.820493808"></trkpt><trkpt lon="14.269287696" lat="57.820666685"></trkpt><trkpt lon="14.269390564" lat="57.820746742"></trkpt><trkpt lon="14.269458474" lat="57.82084901"></trkpt><trkpt lon="14.269406864" lat="57.821222994"></trkpt><trkpt lon="14.269614405" lat="57.821280667"></trkpt><trkpt lon="14.269892629" lat="57.821509646"></trkpt><trkpt lon="14.27102297" lat="57.821608218"></trkpt><trkpt lon="14.271111411" lat="57.821604634"></trkpt><trkpt lon="14.271203293" lat="57.821523391"></trkpt><trkpt lon="14.271260938" lat="57.821411419"></trkpt><trkpt lon="14.27147472" lat="57.821326815"></trkpt><trkpt lon="14.271667416" lat="57.821300138"></trkpt><trkpt lon="14.27119043" lat="57.822432878"></trkpt><trkpt lon="14.271002822" lat="57.822935209"></trkpt><trkpt lon="14.270824323" lat="57.823551209"></trkpt><trkpt lon="14.270710592" lat="57.824328191"></trkpt><trkpt lon="14.270673584" lat="57.824950834"></trkpt><trkpt lon="14.270676246" lat="57.826429751"></trkpt><trkpt lon="14.270767574" lat="57.827451043"></trkpt><trkpt lon="14.270978608" lat="57.828779235"></trkpt><trkpt lon="14.271047263" lat="57.829052522"></trkpt><trkpt lon="14.271272541" lat="57.830435362"></trkpt><trkpt lon="14.271923249" lat="57.833728753"></trkpt><trkpt lon="14.272532374" lat="57.835847383"></trkpt><trkpt lon="14.272834924" lat="57.837059675"></trkpt><trkpt lon="14.272731072" lat="57.837248427"></trkpt><trkpt lon="14.272671027" lat="57.837519713"></trkpt><trkpt lon="14.272545086" lat="57.837762314"></trkpt><trkpt lon="14.271149482" lat="57.839639601"></trkpt><trkpt lon="14.270970732" lat="57.840135277"></trkpt><trkpt lon="14.270754644" lat="57.842944311"></trkpt><trkpt lon="14.27054142" lat="57.846489388"></trkpt><trkpt lon="14.27043858" lat="57.84690801"></trkpt><trkpt lon="14.270198715" lat="57.84744085"></trkpt><trkpt lon="14.269759977" lat="57.848301002"></trkpt><trkpt lon="14.269560591" lat="57.848845693"></trkpt><trkpt lon="14.269290639" lat="57.849895371"></trkpt><trkpt lon="14.268882075" lat="57.850641745"></trkpt><trkpt lon="14.268804258" lat="57.850975469"></trkpt><trkpt lon="14.268794133" lat="57.851302681"></trkpt><trkpt lon="14.268743211" lat="57.85160333"></trkpt><trkpt lon="14.268586883" lat="57.85208464"></trkpt><trkpt lon="14.268349424" lat="57.852599208"></trkpt><trkpt lon="14.268199136" lat="57.853075259"></trkpt><trkpt lon="14.268210901" lat="57.853400523"></trkpt><trkpt lon="14.268322379" lat="57.853970462"></trkpt><trkpt lon="14.268323119" lat="57.854389478"></trkpt><trkpt lon="14.268457945" lat="57.854678117"></trkpt><trkpt lon="14.268671373" lat="57.85493136"></trkpt><trkpt lon="14.26863369" lat="57.855955375"></trkpt><trkpt lon="14.268755154" lat="57.85628986"></trkpt><trkpt lon="14.26895282" lat="57.856530293"></trkpt><trkpt lon="14.269328787" lat="57.856791805"></trkpt><trkpt lon="14.269689895" lat="57.856972516"></trkpt><trkpt lon="14.271260353" lat="57.85733631"></trkpt><trkpt lon="14.271700784" lat="57.857355521"></trkpt><trkpt lon="14.272120297" lat="57.857337323"></trkpt><trkpt lon="14.272974229" lat="57.85725834"></trkpt><trkpt lon="14.278820366" lat="57.856454802"></trkpt><trkpt lon="14.281489605" lat="57.856102771"></trkpt><trkpt lon="14.289137839" lat="57.855455804"></trkpt><trkpt lon="14.292164511" lat="57.855227164"></trkpt><trkpt lon="14.2932227" lat="57.855233131"></trkpt><trkpt lon="14.295189622" lat="57.855400671"></trkpt><trkpt lon="14.297675605" lat="57.855657163"></trkpt><trkpt lon="14.298572298" lat="57.855827178"></trkpt><trkpt lon="14.299603032" lat="57.856115592"></trkpt><trkpt lon="14.303943276" lat="57.857757572"></trkpt><trkpt lon="14.304826929" lat="57.858020986"></trkpt><trkpt lon="14.307108128" lat="57.858539177"></trkpt><trkpt lon="14.308958337" lat="57.859023487"></trkpt><trkpt lon="14.309260974" lat="57.859057883"></trkpt><trkpt lon="14.309471457" lat="57.859008756"></trkpt><trkpt lon="14.309600469" lat="57.858903867"></trkpt><trkpt lon="14.309980258" lat="57.858901764"></trkpt><trkpt lon="14.31053975" lat="57.859045124"></trkpt><trkpt lon="14.310778424" lat="57.859153152"></trkpt><trkpt lon="14.31142868" lat="57.859276531"></trkpt><trkpt lon="14.312562382" lat="57.859566045"></trkpt><trkpt lon="14.312708885" lat="57.859555082"></trkpt><trkpt lon="14.315241385" lat="57.860210701"></trkpt><trkpt lon="14.315382751" lat="57.860294204"></trkpt><trkpt lon="14.317942683" lat="57.860979562"></trkpt><trkpt lon="14.318172084" lat="57.861069927"></trkpt><trkpt lon="14.318386628" lat="57.861094601"></trkpt><trkpt lon="14.320819016" lat="57.861727297"></trkpt><trkpt lon="14.32156982" lat="57.861951117"></trkpt><trkpt lon="14.32217147" lat="57.862175621"></trkpt><trkpt lon="14.322803203" lat="57.862479018"></trkpt><trkpt lon="14.323676666" lat="57.862941708"></trkpt><trkpt lon="14.325035733" lat="57.863740162"></trkpt><trkpt lon="14.325360025" lat="57.863858885"></trkpt><trkpt lon="14.327871969" lat="57.864504335"></trkpt><trkpt lon="14.333557698" lat="57.865907046"></trkpt><trkpt lon="14.333779763" lat="57.866004973"></trkpt><trkpt lon="14.335248767" lat="57.866379911"></trkpt><trkpt lon="14.341943462" lat="57.868190941"></trkpt><trkpt lon="14.342413119" lat="57.868362373"></trkpt><trkpt lon="14.343012366" lat="57.86865567"></trkpt><trkpt lon="14.343163624" lat="57.868765698"></trkpt><trkpt lon="14.343714951" lat="57.869253387"></trkpt><trkpt lon="14.343869965" lat="57.869438481"></trkpt><trkpt lon="14.343917814" lat="57.869561901"></trkpt><trkpt lon="14.344319316" lat="57.869882679"></trkpt><trkpt lon="14.345346068" lat="57.870939861"></trkpt><trkpt lon="14.345983093" lat="57.871442755"></trkpt><trkpt lon="14.34874388" lat="57.872834894"></trkpt><trkpt lon="14.349360356" lat="57.873169141"></trkpt><trkpt lon="14.349640021" lat="57.873369784"></trkpt><trkpt lon="14.349910385" lat="57.873602659"></trkpt><trkpt lon="14.350226155" lat="57.87403155"></trkpt><trkpt lon="14.350350254" lat="57.874345559"></trkpt><trkpt lon="14.350855243" lat="57.876793225"></trkpt><trkpt lon="14.350909966" lat="57.876869268"></trkpt><trkpt lon="14.350985411" lat="57.877269733"></trkpt><trkpt lon="14.350953476" lat="57.8773781"></trkpt><trkpt lon="14.351047839" lat="57.877552709"></trkpt><trkpt lon="14.351251025" lat="57.87853613"></trkpt><trkpt lon="14.351371129" lat="57.878597243"></trkpt><trkpt lon="14.35154041" lat="57.878609768"></trkpt><trkpt lon="14.353846027" lat="57.878072633"></trkpt><trkpt lon="14.354536552" lat="57.877952378"></trkpt><trkpt lon="14.355320084" lat="57.877848412"></trkpt><trkpt lon="14.355656567" lat="57.877753094"></trkpt><trkpt lon="14.364136319" lat="57.873472246"></trkpt><trkpt lon="14.364261494" lat="57.873455308"></trkpt><trkpt lon="14.364387314" lat="57.873465175"></trkpt><trkpt lon="14.366011725" lat="57.873963899"></trkpt><trkpt lon="14.366742987" lat="57.874243298"></trkpt><trkpt lon="14.366973404" lat="57.874225793"></trkpt><trkpt lon="14.367333026" lat="57.874070123"></trkpt><trkpt lon="14.371884243" lat="57.877705135"></trkpt><trkpt lon="14.373160892" lat="57.879177506"></trkpt><trkpt lon="14.374071403" lat="57.879928591"></trkpt><trkpt lon="14.374847194" lat="57.880394382"></trkpt><trkpt lon="14.373942282" lat="57.880897739"></trkpt><trkpt lon="14.373761909" lat="57.881042666"></trkpt><trkpt lon="14.373799371" lat="57.881541372"></trkpt><trkpt lon="14.373886773" lat="57.881611922"></trkpt><trkpt lon="14.374557363" lat="57.881878614"></trkpt><trkpt lon="14.374907173" lat="57.882161218"></trkpt><trkpt lon="14.375321818" lat="57.882450728"></trkpt><trkpt lon="14.377064648" lat="57.88357193"></trkpt><trkpt lon="14.378615841" lat="57.884264207"></trkpt><trkpt lon="14.379986043" lat="57.885126373"></trkpt><trkpt lon="14.380766175" lat="57.885475395"></trkpt><trkpt lon="14.381452778" lat="57.885725547"></trkpt><trkpt lon="14.383072769" lat="57.886215761"></trkpt><trkpt lon="14.383653144" lat="57.886359378"></trkpt><trkpt lon="14.384939249" lat="57.886580445"></trkpt><trkpt lon="14.385500404" lat="57.886716412"></trkpt><trkpt lon="14.387208353" lat="57.887384752"></trkpt><trkpt lon="14.388103921" lat="57.887664028"></trkpt><trkpt lon="14.389008563" lat="57.887867439"></trkpt><trkpt lon="14.391449145" lat="57.888167224"></trkpt><trkpt lon="14.392795495" lat="57.888369372"></trkpt><trkpt lon="14.39338202" lat="57.88852998"></trkpt><trkpt lon="14.393936729" lat="57.88876012"></trkpt><trkpt lon="14.392798022" lat="57.890003879"></trkpt><trkpt lon="14.392590678" lat="57.890091468"></trkpt><trkpt lon="14.392445245" lat="57.890101311"></trkpt><trkpt lon="14.392269079" lat="57.890089923"></trkpt><trkpt lon="14.390598088" lat="57.889902634"></trkpt><trkpt lon="14.389749566" lat="57.889826443"></trkpt><trkpt lon="14.388729825" lat="57.889839869"></trkpt><trkpt lon="14.388323811" lat="57.88988009"></trkpt><trkpt lon="14.386345207" lat="57.890439578"></trkpt><trkpt lon="14.385723739" lat="57.890571803"></trkpt><trkpt lon="14.384580468" lat="57.89066442"></trkpt><trkpt lon="14.384221989" lat="57.890712872"></trkpt><trkpt lon="14.383757516" lat="57.890861636"></trkpt><trkpt lon="14.383362483" lat="57.891010458"></trkpt><trkpt lon="14.383012437" lat="57.89129575"></trkpt><trkpt lon="14.382750537" lat="57.891544646"></trkpt><trkpt lon="14.382571366" lat="57.891864036"></trkpt><trkpt lon="14.382348459" lat="57.892130894"></trkpt><trkpt lon="14.38211124" lat="57.892237168"></trkpt><trkpt lon="14.381543546" lat="57.892302374"></trkpt><trkpt lon="14.381200501" lat="57.892257184"></trkpt><trkpt lon="14.380900059" lat="57.892149771"></trkpt><trkpt lon="14.3803518" lat="57.892006493"></trkpt><trkpt lon="14.37969737" lat="57.891906375"></trkpt><trkpt lon="14.379551792" lat="57.891915265"></trkpt><trkpt lon="14.3793768" lat="57.891956529"></trkpt><trkpt lon="14.376541654" lat="57.893511449"></trkpt><trkpt lon="14.374604401" lat="57.89451336"></trkpt><trkpt lon="14.374591458" lat="57.894588047"></trkpt><trkpt lon="14.37773069" lat="57.896650815"></trkpt><trkpt lon="14.378052355" lat="57.896918189"></trkpt><trkpt lon="14.377671489" lat="57.897183722"></trkpt><trkpt lon="14.37758196" lat="57.897212912"></trkpt><trkpt lon="14.377461834" lat="57.89722623"></trkpt><trkpt lon="14.376844055" lat="57.897006708"></trkpt><trkpt lon="14.37631965" lat="57.896864945"></trkpt><trkpt lon="14.375978004" lat="57.896850962"></trkpt><trkpt lon="14.375387967" lat="57.896893299"></trkpt><trkpt lon="14.374849128" lat="57.896904975"></trkpt><trkpt lon="14.374063163" lat="57.896877641"></trkpt><trkpt lon="14.373850738" lat="57.89688479"></trkpt><trkpt lon="14.373564338" lat="57.896938327"></trkpt><trkpt lon="14.372498019" lat="57.897320052"></trkpt><trkpt lon="14.371953523" lat="57.8974842"></trkpt><trkpt lon="14.371642804" lat="57.897608247"></trkpt><trkpt lon="14.371210001" lat="57.897968156"></trkpt><trkpt lon="14.37091145" lat="57.898160386"></trkpt><trkpt lon="14.370852176" lat="57.898277481"></trkpt><trkpt lon="14.370876976" lat="57.898663853"></trkpt><trkpt lon="14.371124071" lat="57.900206902"></trkpt><trkpt lon="14.370923362" lat="57.901806204"></trkpt><trkpt lon="14.371002234" lat="57.902082464"></trkpt><trkpt lon="14.371178978" lat="57.902283736"></trkpt><trkpt lon="14.371972024" lat="57.902982025"></trkpt><trkpt lon="14.373930944" lat="57.905125162"></trkpt><trkpt lon="14.37388781" lat="57.905341149"></trkpt><trkpt lon="14.373530796" lat="57.905910687"></trkpt><trkpt lon="14.372788693" lat="57.9077419"></trkpt><trkpt lon="14.372337625" lat="57.908369329"></trkpt><trkpt lon="14.372056564" lat="57.909068188"></trkpt><trkpt lon="14.371775449" lat="57.910298667"></trkpt><trkpt lon="14.371745883" lat="57.910776981"></trkpt><trkpt lon="14.371883621" lat="57.911559787"></trkpt><trkpt lon="14.372098297" lat="57.911949667"></trkpt><trkpt lon="14.372822687" lat="57.913063918"></trkpt><trkpt lon="14.373180794" lat="57.913936308"></trkpt><trkpt lon="14.37335636" lat="57.914206605"></trkpt><trkpt lon="14.373608109" lat="57.914363051"></trkpt><trkpt lon="14.374159358" lat="57.914615988"></trkpt><trkpt lon="14.37450049" lat="57.914834253"></trkpt><trkpt lon="14.374782574" lat="57.915111994"></trkpt><trkpt lon="14.375051028" lat="57.915684271"></trkpt><trkpt lon="14.375122882" lat="57.9159785"></trkpt><trkpt lon="14.375114422" lat="57.917180856"></trkpt><trkpt lon="14.375070217" lat="57.917442722"></trkpt><trkpt lon="14.375500662" lat="57.918300533"></trkpt><trkpt lon="14.3755637" lat="57.918591176"></trkpt><trkpt lon="14.375418327" lat="57.919388248"></trkpt><trkpt lon="14.3755967" lat="57.919817169"></trkpt><trkpt lon="14.375814732" lat="57.920717591"></trkpt><trkpt lon="14.375893455" lat="57.920901944"></trkpt><trkpt lon="14.376113663" lat="57.921116115"></trkpt><trkpt lon="14.376760708" lat="57.921420533"></trkpt><trkpt lon="14.377402262" lat="57.921795831"></trkpt><trkpt lon="14.377746535" lat="57.921921846"></trkpt><trkpt lon="14.378301458" lat="57.922076758"></trkpt><trkpt lon="14.378657554" lat="57.922202378"></trkpt><trkpt lon="14.37892912" lat="57.922342759"></trkpt><trkpt lon="14.379203648" lat="57.922573299"></trkpt><trkpt lon="14.379753777" lat="57.923221334"></trkpt><trkpt lon="14.380525881" lat="57.923944361"></trkpt><trkpt lon="14.380753442" lat="57.924060155"></trkpt><trkpt lon="14.381005976" lat="57.924131681"></trkpt><trkpt lon="14.382112533" lat="57.924291081"></trkpt><trkpt lon="14.38257189" lat="57.924405259"></trkpt><trkpt lon="14.382986111" lat="57.92455783"></trkpt><trkpt lon="14.383654107" lat="57.924930341"></trkpt><trkpt lon="14.385303377" lat="57.925905816"></trkpt><trkpt lon="14.385560415" lat="57.926016998"></trkpt><trkpt lon="14.38725302" lat="57.926565141"></trkpt><trkpt lon="14.387820533" lat="57.926796466"></trkpt><trkpt lon="14.386479588" lat="57.927239711"></trkpt><trkpt lon="14.38184465" lat="57.928685232"></trkpt><trkpt lon="14.381827624" lat="57.928880072"></trkpt><trkpt lon="14.380932374" lat="57.930449047"></trkpt><trkpt lon="14.379843807" lat="57.931213103"></trkpt><trkpt lon="14.37925222" lat="57.931753009"></trkpt><trkpt lon="14.378697659" lat="57.932432121"></trkpt><trkpt lon="14.37852427" lat="57.932832777"></trkpt><trkpt lon="14.378468192" lat="57.933171869"></trkpt><trkpt lon="14.378498442" lat="57.934470829"></trkpt><trkpt lon="14.378618029" lat="57.934727362"></trkpt><trkpt lon="14.378741169" lat="57.934875875"></trkpt><trkpt lon="14.378753327" lat="57.934973056"></trkpt><trkpt lon="14.378712296" lat="57.935074851"></trkpt><trkpt lon="14.378319447" lat="57.935528206"></trkpt><trkpt lon="14.378195288" lat="57.935745591"></trkpt><trkpt lon="14.37817206" lat="57.935891857"></trkpt><trkpt lon="14.378204835" lat="57.93602674"></trkpt><trkpt lon="14.378306775" lat="57.936156123"></trkpt><trkpt lon="14.378393282" lat="57.936752876"></trkpt><trkpt lon="14.378251774" lat="57.937154119"></trkpt><trkpt lon="14.378321042" lat="57.937290788"></trkpt><trkpt lon="14.379075985" lat="57.937745"></trkpt><trkpt lon="14.379845453" lat="57.938290246"></trkpt><trkpt lon="14.380007884" lat="57.938465617"></trkpt><trkpt lon="14.380192316" lat="57.938802983"></trkpt><trkpt lon="14.380170593" lat="57.938898401"></trkpt><trkpt lon="14.379419071" lat="57.939431345"></trkpt><trkpt lon="14.379348001" lat="57.939578487"></trkpt><trkpt lon="14.37950508" lat="57.940106637"></trkpt><trkpt lon="14.379529628" lat="57.940270052"></trkpt><trkpt lon="14.37950457" lat="57.940461164"></trkpt><trkpt lon="14.379727773" lat="57.940775516"></trkpt><trkpt lon="14.380306342" lat="57.941379763"></trkpt><trkpt lon="14.380410407" lat="57.941589935"></trkpt><trkpt lon="14.380421641" lat="57.941686633"></trkpt><trkpt lon="14.380382601" lat="57.941789043"></trkpt><trkpt lon="14.380177186" lat="57.942107959"></trkpt><trkpt lon="14.380062608" lat="57.9424563"></trkpt><trkpt lon="14.379958149" lat="57.942652562"></trkpt><trkpt lon="14.379385203" lat="57.943093806"></trkpt><trkpt lon="14.379346241" lat="57.943180093"></trkpt><trkpt lon="14.379389289" lat="57.94363532"></trkpt><trkpt lon="14.379255946" lat="57.943780755"></trkpt><trkpt lon="14.37871213" lat="57.94417328"></trkpt><trkpt lon="14.37840014" lat="57.94452507"></trkpt><trkpt lon="14.378620653" lat="57.944669818"></trkpt><trkpt lon="14.37895814" lat="57.945018766"></trkpt><trkpt lon="14.379119357" lat="57.945229517"></trkpt><trkpt lon="14.379292111" lat="57.945658185"></trkpt><trkpt lon="14.379346498" lat="57.945976901"></trkpt><trkpt lon="14.379409133" lat="57.946139475"></trkpt><trkpt lon="14.379394287" lat="57.946263114"></trkpt><trkpt lon="14.379420425" lat="57.946374014"></trkpt><trkpt lon="14.379718888" lat="57.946608941"></trkpt><trkpt lon="14.380040807" lat="57.9469387"></trkpt><trkpt lon="14.380126025" lat="57.947066671"></trkpt><trkpt lon="14.380149213" lat="57.947874889"></trkpt><trkpt lon="14.380569653" lat="57.948598172"></trkpt><trkpt lon="14.380650733" lat="57.948796935"></trkpt><trkpt lon="14.380671227" lat="57.949128646"></trkpt><trkpt lon="14.380881173" lat="57.949766084"></trkpt><trkpt lon="14.38083163" lat="57.95013819"></trkpt><trkpt lon="14.380609692" lat="57.950500596"></trkpt><trkpt lon="14.380624272" lat="57.950606179"></trkpt><trkpt lon="14.380533267" lat="57.950656633"></trkpt><trkpt lon="14.378953091" lat="57.951249308"></trkpt><trkpt lon="14.378131743" lat="57.951420671"></trkpt><trkpt lon="14.376998638" lat="57.951616716"></trkpt><trkpt lon="14.374679532" lat="57.952077015"></trkpt><trkpt lon="14.372954459" lat="57.95255091"></trkpt><trkpt lon="14.372518443" lat="57.952748165"></trkpt><trkpt lon="14.372216304" lat="57.952909104"></trkpt><trkpt lon="14.37205378" lat="57.953052317"></trkpt><trkpt lon="14.371918237" lat="57.953221979"></trkpt><trkpt lon="14.371800747" lat="57.953425192"></trkpt><trkpt lon="14.371791192" lat="57.953620087"></trkpt><trkpt lon="14.371932926" lat="57.95383504"></trkpt><trkpt lon="14.372035096" lat="57.954077449"></trkpt><trkpt lon="14.372116563" lat="57.954203683"></trkpt><trkpt lon="14.372702988" lat="57.955008908"></trkpt><trkpt lon="14.372805304" lat="57.955380052"></trkpt><trkpt lon="14.373546088" lat="57.956775657"></trkpt><trkpt lon="14.373511684" lat="57.956918332"></trkpt><trkpt lon="14.373386765" lat="57.956993524"></trkpt><trkpt lon="14.372680694" lat="57.957261009"></trkpt><trkpt lon="14.371727909" lat="57.957555331"></trkpt><trkpt lon="14.370963982" lat="57.957661744"></trkpt><trkpt lon="14.370642174" lat="57.957767757"></trkpt><trkpt lon="14.370397313" lat="57.957900472"></trkpt><trkpt lon="14.370179057" lat="57.957984448"></trkpt><trkpt lon="14.369163416" lat="57.958200426"></trkpt><trkpt lon="14.368970495" lat="57.958314257"></trkpt><trkpt lon="14.368930892" lat="57.958383117"></trkpt><trkpt lon="14.369016623" lat="57.958890247"></trkpt><trkpt lon="14.368994318" lat="57.959337058"></trkpt><trkpt lon="14.368940825" lat="57.959461221"></trkpt><trkpt lon="14.368756736" lat="57.959631149"></trkpt><trkpt lon="14.368612256" lat="57.959694486"></trkpt><trkpt lon="14.368430779" lat="57.959729801"></trkpt><trkpt lon="14.368191278" lat="57.959751139"></trkpt><trkpt lon="14.367245548" lat="57.959764271"></trkpt><trkpt lon="14.367034522" lat="57.959753133"></trkpt><trkpt lon="14.3665265" lat="57.959680353"></trkpt><trkpt lon="14.365533078" lat="57.959461122"></trkpt><trkpt lon="14.365335569" lat="57.95945525"></trkpt><trkpt lon="14.365185018" lat="57.959476068"></trkpt><trkpt lon="14.36504123" lat="57.959526379"></trkpt><trkpt lon="14.364714135" lat="57.959821974"></trkpt><trkpt lon="14.364568456" lat="57.959870005"></trkpt><trkpt lon="14.364418153" lat="57.959866981"></trkpt><trkpt lon="14.363649816" lat="57.959644352"></trkpt><trkpt lon="14.363454744" lat="57.959629103"></trkpt><trkpt lon="14.362241577" lat="57.959650024"></trkpt><trkpt lon="14.362177185" lat="57.959673973"></trkpt><trkpt lon="14.362176495" lat="57.959721373"></trkpt><trkpt lon="14.362484208" lat="57.959959682"></trkpt><trkpt lon="14.363176123" lat="57.960422378"></trkpt><trkpt lon="14.365290605" lat="57.962321339"></trkpt><trkpt lon="14.365424978" lat="57.962532396"></trkpt><trkpt lon="14.365670392" lat="57.963547203"></trkpt><trkpt lon="14.365776155" lat="57.963826907"></trkpt><trkpt lon="14.365994763" lat="57.964223298"></trkpt><trkpt lon="14.366131495" lat="57.964399496"></trkpt><trkpt lon="14.366333666" lat="57.964569887"></trkpt><trkpt lon="14.366989539" lat="57.965095099"></trkpt><trkpt lon="14.367607922" lat="57.965556489"></trkpt><trkpt lon="14.368090754" lat="57.965791194"></trkpt><trkpt lon="14.371363685" lat="57.966913736"></trkpt><trkpt lon="14.372414802" lat="57.967354339"></trkpt><trkpt lon="14.372919708" lat="57.967623263"></trkpt><trkpt lon="14.374371061" lat="57.968611742"></trkpt><trkpt lon="14.375471895" lat="57.969306108"></trkpt><trkpt lon="14.376156066" lat="57.969675585"></trkpt><trkpt lon="14.376404916" lat="57.969754811"></trkpt><trkpt lon="14.376865247" lat="57.969848118"></trkpt><trkpt lon="14.379320545" lat="57.970294577"></trkpt><trkpt lon="14.380881759" lat="57.970534975"></trkpt><trkpt lon="14.38147887" lat="57.970651438"></trkpt><trkpt lon="14.381867191" lat="57.970798353"></trkpt><trkpt lon="14.382384978" lat="57.971101495"></trkpt><trkpt lon="14.3841927" lat="57.97227233"></trkpt><trkpt lon="14.385082524" lat="57.973687067"></trkpt><trkpt lon="14.385308313" lat="57.973842639"></trkpt><trkpt lon="14.385572957" lat="57.973955553"></trkpt><trkpt lon="14.385954102" lat="57.974086423"></trkpt><trkpt lon="14.392516173" lat="57.974747154"></trkpt><trkpt lon="14.392783649" lat="57.97480858"></trkpt><trkpt lon="14.393515019" lat="57.975174508"></trkpt><trkpt lon="14.393853734" lat="57.975296146"></trkpt><trkpt lon="14.39597654" lat="57.975828671"></trkpt><trkpt lon="14.397580646" lat="57.976119725"></trkpt><trkpt lon="14.400633041" lat="57.976592987"></trkpt><trkpt lon="14.400966163" lat="57.976636436"></trkpt><trkpt lon="14.401298747" lat="57.976658441"></trkpt><trkpt lon="14.401537115" lat="57.976628981"></trkpt><trkpt lon="14.401765257" lat="57.976594232"></trkpt><trkpt lon="14.402710762" lat="57.97629321"></trkpt><trkpt lon="14.402602761" lat="57.97648089"></trkpt><trkpt lon="14.402199949" lat="57.976906451"></trkpt><trkpt lon="14.401542464" lat="57.977318171"></trkpt><trkpt lon="14.401244529" lat="57.977387582"></trkpt><trkpt lon="14.400623774" lat="57.977423168"></trkpt><trkpt lon="14.398692716" lat="57.977423083"></trkpt><trkpt lon="14.398636767" lat="57.977566561"></trkpt><trkpt lon="14.398794372" lat="57.977730015"></trkpt><trkpt lon="14.39860577" lat="57.978056003"></trkpt><trkpt lon="14.398660138" lat="57.97820152"></trkpt><trkpt lon="14.398086814" lat="57.978428564"></trkpt><trkpt lon="14.398029462" lat="57.97858437"></trkpt><trkpt lon="14.397967865" lat="57.97865012"></trkpt><trkpt lon="14.39772439" lat="57.978757288"></trkpt><trkpt lon="14.39751191" lat="57.978987395"></trkpt><trkpt lon="14.397628577" lat="57.97921776"></trkpt><trkpt lon="14.397822078" lat="57.979457425"></trkpt><trkpt lon="14.398287503" lat="57.979840731"></trkpt><trkpt lon="14.399037428" lat="57.980367978"></trkpt><trkpt lon="14.400358246" lat="57.98115413"></trkpt><trkpt lon="14.401017171" lat="57.981416749"></trkpt><trkpt lon="14.401824488" lat="57.981582438"></trkpt><trkpt lon="14.401961838" lat="57.981642927"></trkpt><trkpt lon="14.401973273" lat="57.98172659"></trkpt><trkpt lon="14.401784225" lat="57.981810742"></trkpt><trkpt lon="14.40159727" lat="57.981845938"></trkpt><trkpt lon="14.401077423" lat="57.981856422"></trkpt><trkpt lon="14.400991161" lat="57.981887188"></trkpt><trkpt lon="14.400563286" lat="57.982179228"></trkpt><trkpt lon="14.399555025" lat="57.982446695"></trkpt><trkpt lon="14.399664849" lat="57.982561951"></trkpt><trkpt lon="14.400333937" lat="57.982923554"></trkpt><trkpt lon="14.400651164" lat="57.983144386"></trkpt><trkpt lon="14.400843672" lat="57.983330126"></trkpt><trkpt lon="14.401376186" lat="57.983761105"></trkpt><trkpt lon="14.401459264" lat="57.98399571"></trkpt><trkpt lon="14.40113866" lat="57.984227738"></trkpt><trkpt lon="14.400659376" lat="57.984467317"></trkpt><trkpt lon="14.399837509" lat="57.984828978"></trkpt><trkpt lon="14.399974861" lat="57.985460151"></trkpt><trkpt lon="14.400526884" lat="57.986196273"></trkpt><trkpt lon="14.401300073" lat="57.987035527"></trkpt><trkpt lon="14.401799846" lat="57.987284953"></trkpt><trkpt lon="14.406157812" lat="57.988728594"></trkpt><trkpt lon="14.407446043" lat="57.989305165"></trkpt><trkpt lon="14.409619141" lat="57.990224877"></trkpt><trkpt lon="14.410631225" lat="57.990549894"></trkpt><trkpt lon="14.41223772" lat="57.991334477"></trkpt><trkpt lon="14.41318206" lat="57.991602062"></trkpt><trkpt lon="14.414941082" lat="57.992197646"></trkpt><trkpt lon="14.415860493" lat="57.992460737"></trkpt><trkpt lon="14.41633161" lat="57.992863511"></trkpt><trkpt lon="14.419165132" lat="57.993935149"></trkpt><trkpt lon="14.421500506" lat="57.994776147"></trkpt><trkpt lon="14.424514831" lat="57.995634236"></trkpt><trkpt lon="14.424940617" lat="57.995748806"></trkpt><trkpt lon="14.425527184" lat="57.995722085"></trkpt><trkpt lon="14.426595118" lat="57.995604282"></trkpt><trkpt lon="14.427708232" lat="57.995424352"></trkpt><trkpt lon="14.427824674" lat="57.995387958"></trkpt><trkpt lon="14.428174649" lat="57.995381998"></trkpt><trkpt lon="14.428329904" lat="57.995362761"></trkpt><trkpt lon="14.429374914" lat="57.995176316"></trkpt><trkpt lon="14.430867251" lat="57.995168792"></trkpt><trkpt lon="14.431228156" lat="57.995232094"></trkpt><trkpt lon="14.431622441" lat="57.995325901"></trkpt></trkseg><trkseg><trkpt lon="14.381828082" lat="57.928682509"></trkpt><trkpt lon="14.379905491" lat="57.929261507"></trkpt><trkpt lon="14.378727897" lat="57.929541359"></trkpt><trkpt lon="14.377526687" lat="57.929745458"></trkpt></trkseg><trkseg><trkpt lon="14.431622441" lat="57.995325901"></trkpt><trkpt lon="14.431671055" lat="57.995441574"></trkpt><trkpt lon="14.431615587" lat="57.996058594"></trkpt><trkpt lon="14.431498747" lat="57.996210444"></trkpt><trkpt lon="14.431372862" lat="57.996321922"></trkpt><trkpt lon="14.431337425" lat="57.996387876"></trkpt><trkpt lon="14.431479663" lat="57.996695297"></trkpt><trkpt lon="14.431488926" lat="57.996782035"></trkpt><trkpt lon="14.431361634" lat="57.997014346"></trkpt><trkpt lon="14.431246801" lat="57.997502194"></trkpt><trkpt lon="14.431260341" lat="57.99772334"></trkpt><trkpt lon="14.431365339" lat="57.99789883"></trkpt><trkpt lon="14.431557538" lat="57.998103024"></trkpt><trkpt lon="14.431888018" lat="57.998999312"></trkpt><trkpt lon="14.431839698" lat="57.999093817"></trkpt><trkpt lon="14.431158671" lat="57.999456562"></trkpt></trkseg><trkseg><trkpt lon="14.431622441" lat="57.995325901"></trkpt><trkpt lon="14.431986996" lat="57.995416136"></trkpt><trkpt lon="14.432246126" lat="57.995504582"></trkpt><trkpt lon="14.43255427" lat="57.995708363"></trkpt><trkpt lon="14.432698978" lat="57.995832147"></trkpt><trkpt lon="14.43303808" lat="57.996340218"></trkpt><trkpt lon="14.433155857" lat="57.996478862"></trkpt><trkpt lon="14.433345648" lat="57.99665625"></trkpt><trkpt lon="14.433515221" lat="57.996780616"></trkpt><trkpt lon="14.433597387" lat="57.996917677"></trkpt><trkpt lon="14.433629212" lat="57.997060469"></trkpt><trkpt lon="14.43363583" lat="57.997384976"></trkpt><trkpt lon="14.433774499" lat="57.997723048"></trkpt><trkpt lon="14.433992258" lat="57.998142839"></trkpt><trkpt lon="14.434380108" lat="57.998712363"></trkpt><trkpt lon="14.434833693" lat="57.999143504"></trkpt><trkpt lon="14.435248129" lat="57.99937463"></trkpt><trkpt lon="14.435550807" lat="57.999437884"></trkpt><trkpt lon="14.436491498" lat="57.999509197"></trkpt><trkpt lon="14.437580137" lat="57.999670194"></trkpt><trkpt lon="14.438548388" lat="57.9997844"></trkpt><trkpt lon="14.438851144" lat="57.999838398"></trkpt><trkpt lon="14.439349976" lat="58.000042774"></trkpt><trkpt lon="14.439962467" lat="58.000351594"></trkpt><trkpt lon="14.440260448" lat="58.000537812"></trkpt><trkpt lon="14.440413433" lat="58.00070842"></trkpt><trkpt lon="14.440503127" lat="58.000921261"></trkpt><trkpt lon="14.440701341" lat="58.001232297"></trkpt><trkpt lon="14.441135954" lat="58.001546435"></trkpt><trkpt lon="14.442102061" lat="58.002070256"></trkpt><trkpt lon="14.443088057" lat="58.002522425"></trkpt><trkpt lon="14.443811694" lat="58.002777046"></trkpt><trkpt lon="14.445233324" lat="58.003174261"></trkpt><trkpt lon="14.445679257" lat="58.003367254"></trkpt><trkpt lon="14.445960863" lat="58.003578235"></trkpt><trkpt lon="14.446075241" lat="58.003746816"></trkpt><trkpt lon="14.446137269" lat="58.004221716"></trkpt><trkpt lon="14.446167655" lat="58.004963164"></trkpt><trkpt lon="14.446256573" lat="58.005337586"></trkpt><trkpt lon="14.446902357" lat="58.006665656"></trkpt><trkpt lon="14.447040979" lat="58.006788107"></trkpt><trkpt lon="14.448498669" lat="58.008426526"></trkpt><trkpt lon="14.449177941" lat="58.00931114"></trkpt><trkpt lon="14.449511605" lat="58.009847902"></trkpt><trkpt lon="14.449782756" lat="58.010184774"></trkpt><trkpt lon="14.450094985" lat="58.010500741"></trkpt><trkpt lon="14.451271689" lat="58.011485415"></trkpt><trkpt lon="14.451580706" lat="58.011797996"></trkpt><trkpt lon="14.452211201" lat="58.012505149"></trkpt><trkpt lon="14.453231529" lat="58.013368441"></trkpt><trkpt lon="14.455061721" lat="58.014768409"></trkpt><trkpt lon="14.458167259" lat="58.017091188"></trkpt><trkpt lon="14.459429703" lat="58.017969108"></trkpt><trkpt lon="14.460215242" lat="58.017768331"></trkpt><trkpt lon="14.460412198" lat="58.0177829"></trkpt><trkpt lon="14.462295173" lat="58.01849787"></trkpt><trkpt lon="14.462516879" lat="58.018511796"></trkpt><trkpt lon="14.46373496" lat="58.019591456"></trkpt><trkpt lon="14.468638666" lat="58.02372327"></trkpt><trkpt lon="14.4700091" lat="58.024867686"></trkpt><trkpt lon="14.47299618" lat="58.027281987"></trkpt><trkpt lon="14.479677113" lat="58.03332699"></trkpt><trkpt lon="14.481751566" lat="58.03525908"></trkpt><trkpt lon="14.491949082" lat="58.044615284"></trkpt><trkpt lon="14.49353533" lat="58.046144924"></trkpt><trkpt lon="14.496243179" lat="58.048668664"></trkpt><trkpt lon="14.496532265" lat="58.049103433"></trkpt><trkpt lon="14.496794811" lat="58.050104649"></trkpt><trkpt lon="14.497380344" lat="58.051671429"></trkpt><trkpt lon="14.49774665" lat="58.053514016"></trkpt><trkpt lon="14.498210889" lat="58.055402155"></trkpt><trkpt lon="14.498473953" lat="58.056080298"></trkpt><trkpt lon="14.498975135" lat="58.056786959"></trkpt><trkpt lon="14.50011944" lat="58.057996945"></trkpt><trkpt lon="14.50146827" lat="58.058940008"></trkpt><trkpt lon="14.504156984" lat="58.060098678"></trkpt><trkpt lon="14.505391122" lat="58.06079647"></trkpt><trkpt lon="14.50775223" lat="58.062809989"></trkpt><trkpt lon="14.511226305" lat="58.065603872"></trkpt><trkpt lon="14.511506203" lat="58.065823467"></trkpt><trkpt lon="14.511207214" lat="58.0655782"></trkpt><trkpt lon="14.512267204" lat="58.066404118"></trkpt><trkpt lon="14.51274327" lat="58.066646021"></trkpt><trkpt lon="14.514364471" lat="58.067169238"></trkpt><trkpt lon="14.514906304" lat="58.067397324"></trkpt><trkpt lon="14.515234131" lat="58.06766236"></trkpt><trkpt lon="14.515359616" lat="58.067969318"></trkpt><trkpt lon="14.515479293" lat="58.06836652"></trkpt><trkpt lon="14.515690722" lat="58.068621572"></trkpt><trkpt lon="14.516186081" lat="58.06907971"></trkpt><trkpt lon="14.516410131" lat="58.069391825"></trkpt><trkpt lon="14.516428517" lat="58.06966627"></trkpt><trkpt lon="14.515880143" lat="58.070984785"></trkpt><trkpt lon="14.515844434" lat="58.071279199"></trkpt><trkpt lon="14.515883071" lat="58.073531329"></trkpt><trkpt lon="14.515963298" lat="58.073868981"></trkpt><trkpt lon="14.516161452" lat="58.074114474"></trkpt><trkpt lon="14.518900471" lat="58.075680498"></trkpt><trkpt lon="14.520304529" lat="58.076868056"></trkpt><trkpt lon="14.521078122" lat="58.077322561"></trkpt><trkpt lon="14.522671755" lat="58.078124848"></trkpt><trkpt lon="14.523346589" lat="58.078590815"></trkpt><trkpt lon="14.523831276" lat="58.078873092"></trkpt><trkpt lon="14.525026899" lat="58.079298404"></trkpt><trkpt lon="14.525355919" lat="58.07949334"></trkpt><trkpt lon="14.525953111" lat="58.080061123"></trkpt><trkpt lon="14.527086438" lat="58.080768846"></trkpt><trkpt lon="14.528534961" lat="58.082015876"></trkpt><trkpt lon="14.528957126" lat="58.082286004"></trkpt><trkpt lon="14.529532411" lat="58.082511611"></trkpt><trkpt lon="14.531529954" lat="58.082892791"></trkpt><trkpt lon="14.532014341" lat="58.083048041"></trkpt><trkpt lon="14.534023803" lat="58.084293244"></trkpt><trkpt lon="14.534584354" lat="58.084568778"></trkpt><trkpt lon="14.535562325" lat="58.084867223"></trkpt><trkpt lon="14.535517762" lat="58.085163981"></trkpt><trkpt lon="14.535733953" lat="58.085733767"></trkpt><trkpt lon="14.53600449" lat="58.086266947"></trkpt><trkpt lon="14.536204195" lat="58.086417395"></trkpt><trkpt lon="14.536698095" lat="58.086697282"></trkpt><trkpt lon="14.537025673" lat="58.087003828"></trkpt><trkpt lon="14.537160921" lat="58.087272793"></trkpt><trkpt lon="14.537250947" lat="58.088204337"></trkpt><trkpt lon="14.537465026" lat="58.088609015"></trkpt><trkpt lon="14.537801818" lat="58.088900155"></trkpt><trkpt lon="14.539291848" lat="58.089477334"></trkpt><trkpt lon="14.539731623" lat="58.089783126"></trkpt><trkpt lon="14.540027243" lat="58.090133485"></trkpt><trkpt lon="14.541177595" lat="58.090861061"></trkpt><trkpt lon="14.541580026" lat="58.091016692"></trkpt><trkpt lon="14.542075873" lat="58.091098163"></trkpt><trkpt lon="14.54252116" lat="58.091291704"></trkpt><trkpt lon="14.542793017" lat="58.091551801"></trkpt><trkpt lon="14.54279303" lat="58.09187249"></trkpt><trkpt lon="14.542674796" lat="58.092309115"></trkpt><trkpt lon="14.542691229" lat="58.092815508"></trkpt><trkpt lon="14.542820797" lat="58.093098344"></trkpt><trkpt lon="14.543971668" lat="58.093876465"></trkpt><trkpt lon="14.544292739" lat="58.094026963"></trkpt><trkpt lon="14.544871971" lat="58.094132789"></trkpt><trkpt lon="14.546293956" lat="58.094277919"></trkpt><trkpt lon="14.546849561" lat="58.094406395"></trkpt><trkpt lon="14.547724388" lat="58.094691173"></trkpt><trkpt lon="14.548597669" lat="58.095126886"></trkpt><trkpt lon="14.549782027" lat="58.095453334"></trkpt><trkpt lon="14.550381539" lat="58.095899857"></trkpt><trkpt lon="14.552074737" lat="58.097075095"></trkpt><trkpt lon="14.552353829" lat="58.097335093"></trkpt><trkpt lon="14.55250531" lat="58.097740691"></trkpt><trkpt lon="14.552580607" lat="58.098140058"></trkpt><trkpt lon="14.552685798" lat="58.099306816"></trkpt><trkpt lon="14.552537051" lat="58.099685134"></trkpt><trkpt lon="14.551712592" lat="58.100587025"></trkpt><trkpt lon="14.551050309" lat="58.101111835"></trkpt><trkpt lon="14.550935606" lat="58.101623308"></trkpt><trkpt lon="14.550803143" lat="58.101793832"></trkpt><trkpt lon="14.5498574" lat="58.102372182"></trkpt><trkpt lon="14.549620946" lat="58.102599316"></trkpt><trkpt lon="14.549592195" lat="58.102732232"></trkpt><trkpt lon="14.549797333" lat="58.103151104"></trkpt><trkpt lon="14.549856412" lat="58.103423323"></trkpt><trkpt lon="14.549794781" lat="58.103663008"></trkpt><trkpt lon="14.549652607" lat="58.103993025"></trkpt><trkpt lon="14.549863662" lat="58.104527944"></trkpt><trkpt lon="14.549833508" lat="58.104762999"></trkpt><trkpt lon="14.549168488" lat="58.105479014"></trkpt><trkpt lon="14.549070722" lat="58.105735188"></trkpt><trkpt lon="14.549128835" lat="58.10607748"></trkpt><trkpt lon="14.549318653" lat="58.106306257"></trkpt><trkpt lon="14.54992309" lat="58.106733795"></trkpt><trkpt lon="14.551337539" lat="58.107982791"></trkpt><trkpt lon="14.551508632" lat="58.108248289"></trkpt></trkseg></trk>
</gpx>