<?xml version='1.0' encoding='UTF-8'?>
<osm version='0.6' generator='pilegrimsleden-osm-extractor 1.0'>
  <node id='-1' version='0' action='modify' visible='true' lat='63.2639573' lon='10.9732818'>
    <tag k='name' v='Balstad pensjonat'/>
    <tag k='source' v='pilegrimsleden.no'/>
    <tag k='url' v='https://www.pilegrimsleden.no/interessepunkter/balstad-pensjonat'/>
    <tag k='network' v='Pilegrimsleden'/>
    <tag k='note:trail' v='Romboleden'/>
    <tag k='pilegrimsleden:poi_type' v='Pilegrimsherberge;Vandrerhjem'/>
    <tag k='pilegrimsleden:id' v='509136'/>
    <tag k='tourism' v='hostel'/>
    <tag k='hostel:type' v='pilgrim'/>
    <tag k='note:osm_mapping' v='uncertain OSM equivalent for category Pilegrimsherberge'/>
  </node>
  <node id='-2' version='0' action='modify' visible='true' lat='63.1916389' lon='11.1540869'>
    <tag k='name' v='Bekken Pilegrimsherberge'/>
    <tag k='source' v='pilegrimsleden.no'/>
    <tag k='url' v='https://www.pilegrimsleden.no/interessepunkter/bekken-pilegrimsherberge'/>
    <tag k='network' v='Pilegrimsleden'/>
    <tag k='note:trail' v='Romboleden'/>
    <tag k='pilegrimsleden:poi_type' v='Pilegrimsherberge'/>
    <tag k='pilegrimsleden:id' v='257330'/>
    <tag k='tourism' v='hostel'/>
    <tag k='hostel:type' v='pilgrim'/>
    <tag k='note:osm_mapping' v='uncertain OSM equivalent for category Pilegrimsherberge'/>
  </node>
  <node id='-3' version='0' action='modify' visible='true' lat='63.3817267' lon='10.7357765'>
    <tag k='name' v='Erikbu'/>
    <tag k='source' v='pilegrimsleden.no'/>
    <tag k='url' v='https://www.pilegrimsleden.no/interessepunkter/eriksbu'/>
    <tag k='network' v='Pilegrimsleden'/>
    <tag k='note:trail' v='Romboleden'/>
    <tag k='pilegrimsleden:poi_type' v='Gapahuk'/>
    <tag k='pilegrimsleden:id' v='48932'/>
    <tag k='amenity' v='shelter'/>
    <tag k='shelter_type' v='lean_to'/>
  </node>
  <node id='-4' version='0' action='modify' visible='true' lat='63.0617141' lon='11.4537382'>
    <tag k='name' v='Jensgarden'/>
    <tag k='source' v='pilegrimsleden.no'/>
    <tag k='url' v='https://www.pilegrimsleden.no/interessepunkter/jensgarden'/>
    <tag k='network' v='Pilegrimsleden'/>
    <tag k='note:trail' v='Romboleden'/>
    <tag k='pilegrimsleden:poi_type' v='Vandrerhjem'/>
    <tag k='pilegrimsleden:id' v='9713'/>
    <tag k='tourism' v='hostel'/>
  </node>
  <node id='-5' version='0' action='modify' visible='true' lat='62.9148442' lon='11.8905660'>
    <tag k='name' v='Moheim camping'/>
    <tag k='source' v='pilegrimsleden.no'/>
    <tag k='url' v='https://www.pilegrimsleden.no/interessepunkter/moheim-camping'/>
    <tag k='network' v='Pilegrimsleden'/>
    <tag k='note:trail' v='Romboleden'/>
    <tag k='pilegrimsleden:poi_type' v='Rom og hytter'/>
    <tag k='pilegrimsleden:id' v='506995'/>
    <tag k='tourism' v='chalet'/>
  </node>
  <node id='-6' version='0' action='modify' visible='true' lat='63.0314758' lon='11.6767263'>
    <tag k='name' v='Neatun'/>
    <tag k='source' v='pilegrimsleden.no'/>
    <tag k='url' v='https://www.pilegrimsleden.no/interessepunkter/neatun'/>
    <tag k='network' v='Pilegrimsleden'/>
    <tag k='note:trail' v='Romboleden'/>
    <tag k='pilegrimsleden:poi_type' v='Vandrerhjem'/>
    <tag k='pilegrimsleden:id' v='9736'/>
    <tag k='tourism' v='hostel'/>
  </node>
  <node id='-7' version='0' action='modify' visible='true' lat='63.4337714' lon='10.4245614'>
    <tag k='name' v='Rumi Hostel - Trondheim Vandrerhjem'/>
    <tag k='source' v='pilegrimsleden.no'/>
    <tag k='url' v='https://www.pilegrimsleden.no/interessepunkter/rumi-hostel-trondheim-vandrerhjem'/>
    <tag k='network' v='Pilegrimsleden'/>
    <tag k='note:trail' v='Romboleden'/>
    <tag k='pilegrimsleden:poi_type' v='Pilegrimsherberge'/>
    <tag k='pilegrimsleden:id' v='550177'/>
    <tag k='tourism' v='hostel'/>
    <tag k='hostel:type' v='pilgrim'/>
    <tag k='note:osm_mapping' v='uncertain OSM equivalent for category Pilegrimsherberge'/>
  </node>
  <node id='-8' version='0' action='modify' visible='true' lat='63.4322046' lon='10.7085925'>
    <tag k='name' v='Storsand Gård Camping'/>
    <tag k='source' v='pilegrimsleden.no'/>
    <tag k='url' v='https://www.pilegrimsleden.no/interessepunkter/storsand-camping'/>
    <tag k='network' v='Pilegrimsleden'/>
    <tag k='note:trail' v='Romboleden'/>
    <tag k='pilegrimsleden:poi_type' v='Teltplass'/>
    <tag k='pilegrimsleden:id' v='455596'/>
    <tag k='tourism' v='camp_site'/>
    <tag k='tents' v='yes'/>
  </node>
  <node id='-9' version='0' action='modify' visible='true' lat='63.0551441' lon='11.5631962'>
    <tag k='name' v='Trøen gård'/>
    <tag k='source' v='pilegrimsleden.no'/>
    <tag k='url' v='https://www.pilegrimsleden.no/interessepunkter/troen-gard'/>
    <tag k='network' v='Pilegrimsleden'/>
    <tag k='note:trail' v='Romboleden'/>
    <tag k='pilegrimsleden:poi_type' v='Pilegrimsherberge'/>
    <tag k='pilegrimsleden:id' v='10001'/>
    <tag k='tourism' v='hostel'/>
    <tag k='hostel:type' v='pilgrim'/>
    <tag k='note:osm_mapping' v='uncertain OSM equivalent for category Pilegrimsherberge'/>
  </node>
</osm>
