<?xml version="1.0" encoding="UTF-8"?>
<gpx version="1.1" creator="pilegrimsleden-osm-extractor 1.0" xmlns="http://www.topografix.com/GPX/1/1">
  <trk><name>Nutida pilgrimer</name><trkseg>
    <trkpt lat="58.2587130" lon="11.8779070"></trkpt>
    <trkpt lat="58.2588150" lon="11.8778130"></trkpt>
    <trkpt lat="58.2589120" lon="11.8776810"></trkpt>
    <trkpt lat="58.2589670" lon="11.8775650"></trkpt>
    <trkpt lat="58.2590060" lon="11.8773960"></trkpt>
    <trkpt lat="58.2590380" lon="11.8772890"></trkpt>
    <trkpt lat="58.2590940" lon="11.8772000"></trkpt>
    <trkpt lat="58.2591520" lon="11.8771500"></trkpt>
    <trkpt lat="58.2597410" lon="11.8766580"></trkpt>
    <trkpt lat="58.2597640" lon="11.8767840"></trkpt>
    <trkpt lat="58.2599190" lon="11.8776850"></trkpt>
    <trkpt lat="58.2600680" lon="11.8785460"></trkpt>
    <trkpt lat="58.2601830" lon="11.8791190"></trkpt>
    <trkpt lat="58.2603210" lon="11.8795920"></trkpt>
    <trkpt lat="58.2604280" lon="11.8799290"></trkpt>
    <trkpt lat="58.2604990" lon="11.8801630"></trkpt>
    <trkpt lat="58.2605650" lon="11.8803940"></trkpt>
    <trkpt lat="58.2607795" lon="11.8813560"></trkpt>
    <trkpt lat="58.2609940" lon="11.8823180"></trkpt>
    <trkpt lat="58.2611580" lon="11.8837280"></trkpt>
    <trkpt lat="58.2613220" lon="11.8846975"></trkpt>
    <trkpt lat="58.2614860" lon="11.8856670"></trkpt>
    <trkpt lat="58.2616220" lon="11.8866050"></trkpt>
    <trkpt lat="58.2616600" lon="11.8870490"></trkpt>
    <trkpt lat="58.2616590" lon="11.8874300"></trkpt>
    <trkpt lat="58.2616160" lon="11.8878980"></trkpt>
    <trkpt lat="58.2615450" lon="11.8883310"></trkpt>
    <trkpt lat="58.2615180" lon="11.8885620"></trkpt>
    <trkpt lat="58.2614990" lon="11.8888660"></trkpt>
    <trkpt lat="58.2614990" lon="11.8890900"></trkpt>
    <trkpt lat="58.2615110" lon="11.8893310"></trkpt>
    <trkpt lat="58.2615290" lon="11.8895620"></trkpt>
    <trkpt lat="58.2615560" lon="11.8897980"></trkpt>
    <trkpt lat="58.2616310" lon="11.8902980"></trkpt>
    <trkpt lat="58.2617350" lon="11.8907340"></trkpt>
    <trkpt lat="58.2618460" lon="11.8910320"></trkpt>
    <trkpt lat="58.2620930" lon="11.8915030"></trkpt>
    <trkpt lat="58.2621930" lon="11.8917360"></trkpt>
    <trkpt lat="58.2623800" lon="11.8923970"></trkpt>
    <trkpt lat="58.2624190" lon="11.8926150"></trkpt>
    <trkpt lat="58.2624430" lon="11.8927890"></trkpt>
    <trkpt lat="58.2624560" lon="11.8929870"></trkpt>
    <trkpt lat="58.2624580" lon="11.8931540"></trkpt>
    <trkpt lat="58.2624440" lon="11.8932620"></trkpt>
    <trkpt lat="58.2624020" lon="11.8933570"></trkpt>
    <trkpt lat="58.2623490" lon="11.8933990"></trkpt>
    <trkpt lat="58.2617700" lon="11.8935980"></trkpt>
    <trkpt lat="58.2617170" lon="11.8936500"></trkpt>
    <trkpt lat="58.2616890" lon="11.8937300"></trkpt>
    <trkpt lat="58.2616840" lon="11.8938180"></trkpt>
    <trkpt lat="58.2616940" lon="11.8939050"></trkpt>
    <trkpt lat="58.2618735" lon="11.8949965"></trkpt>
    <trkpt lat="58.2620530" lon="11.8960880"></trkpt>
    <trkpt lat="58.2621960" lon="11.8969270"></trkpt>
    <trkpt lat="58.2623150" lon="11.8975950"></trkpt>
    <trkpt lat="58.2624560" lon="11.8982180"></trkpt>
    <trkpt lat="58.2626540" lon="11.8990890"></trkpt>
    <trkpt lat="58.2628050" lon="11.8997570"></trkpt>
    <trkpt lat="58.2629430" lon="11.9004010"></trkpt>
    <trkpt lat="58.2630050" lon="11.9006990"></trkpt>
    <trkpt lat="58.2630290" lon="11.9009450"></trkpt>
    <trkpt lat="58.2630190" lon="11.9011650"></trkpt>
    <trkpt lat="58.2629980" lon="11.9013500"></trkpt>
    <trkpt lat="58.2629790" lon="11.9014500"></trkpt>
    <trkpt lat="58.2629680" lon="11.9015060"></trkpt>
    <trkpt lat="58.2629200" lon="11.9016660"></trkpt>
    <trkpt lat="58.2628810" lon="11.9017630"></trkpt>
    <trkpt lat="58.2628310" lon="11.9018620"></trkpt>
    <trkpt lat="58.2627780" lon="11.9019400"></trkpt>
    <trkpt lat="58.2627170" lon="11.9020090"></trkpt>
    <trkpt lat="58.2626510" lon="11.9020670"></trkpt>
    <trkpt lat="58.2625440" lon="11.9021230"></trkpt>
    <trkpt lat="58.2624300" lon="11.9021590"></trkpt>
    <trkpt lat="58.2623620" lon="11.9021440"></trkpt>
    <trkpt lat="58.2622730" lon="11.9021200"></trkpt>
    <trkpt lat="58.2621270" lon="11.9020130"></trkpt>
    <trkpt lat="58.2620020" lon="11.9018390"></trkpt>
    <trkpt lat="58.2618490" lon="11.9014840"></trkpt>
    <trkpt lat="58.2617640" lon="11.9012780"></trkpt>
    <trkpt lat="58.2617340" lon="11.9011880"></trkpt>
    <trkpt lat="58.2611840" lon="11.9017750"></trkpt>
    <trkpt lat="58.2609280" lon="11.9019890"></trkpt>
    <trkpt lat="58.2604270" lon="11.9022930"></trkpt>
    <trkpt lat="58.2602000" lon="11.9023990"></trkpt>
    <trkpt lat="58.2600880" lon="11.9024490"></trkpt>
    <trkpt lat="58.2599480" lon="11.9025110"></trkpt>
    <trkpt lat="58.2598150" lon="11.9025550"></trkpt>
    <trkpt lat="58.2597240" lon="11.9025840"></trkpt>
    <trkpt lat="58.2594780" lon="11.9026390"></trkpt>
    <trkpt lat="58.2590140" lon="11.9026700"></trkpt>
    <trkpt lat="58.2583670" lon="11.9026527"></trkpt>
    <trkpt lat="58.2577200" lon="11.9026353"></trkpt>
    <trkpt lat="58.2570730" lon="11.9026180"></trkpt>
    <trkpt lat="58.2562040" lon="11.9026180"></trkpt>
    <trkpt lat="58.2556800" lon="11.9027090"></trkpt>
    <trkpt lat="58.2552710" lon="11.9028500"></trkpt>
    <trkpt lat="58.2547030" lon="11.9031520"></trkpt>
    <trkpt lat="58.2540597" lon="11.9035260"></trkpt>
    <trkpt lat="58.2534163" lon="11.9039000"></trkpt>
    <trkpt lat="58.2527730" lon="11.9042740"></trkpt>
    <trkpt lat="58.2520240" lon="11.9047790"></trkpt>
    <trkpt lat="58.2518210" lon="11.9049150"></trkpt>
    <trkpt lat="58.2515890" lon="11.9050300"></trkpt>
    <trkpt lat="58.2512640" lon="11.9051870"></trkpt>
    <trkpt lat="58.2511670" lon="11.9052340"></trkpt>
    <trkpt lat="58.2508120" lon="11.9054250"></trkpt>
    <trkpt lat="58.2502910" lon="11.9057315"></trkpt>
    <trkpt lat="58.2497700" lon="11.9060380"></trkpt>
    <trkpt lat="58.2490025" lon="11.9065650"></trkpt>
    <trkpt lat="58.2482350" lon="11.9070920"></trkpt>
    <trkpt lat="58.2476180" lon="11.9075520"></trkpt>
    <trkpt lat="58.2473940" lon="11.9077200"></trkpt>
    <trkpt lat="58.2466115" lon="11.9083075"></trkpt>
    <trkpt lat="58.2458290" lon="11.9088950"></trkpt>
    <trkpt lat="58.2457450" lon="11.9089560"></trkpt>
    <trkpt lat="58.2449140" lon="11.9095950"></trkpt>
    <trkpt lat="58.2447570" lon="11.9097160"></trkpt>
    <trkpt lat="58.2447030" lon="11.9097580"></trkpt>
    <trkpt lat="58.2443450" lon="11.9100370"></trkpt>
    <trkpt lat="58.2441850" lon="11.9101680"></trkpt>
    <trkpt lat="58.2437050" lon="11.9105610"></trkpt>
    <trkpt lat="58.2432250" lon="11.9109540"></trkpt>
    <trkpt lat="58.2426530" lon="11.9114260"></trkpt>
    <trkpt lat="58.2421875" lon="11.9118100"></trkpt>
    <trkpt lat="58.2417220" lon="11.9121940"></trkpt>
    <trkpt lat="58.2412480" lon="11.9125850"></trkpt>
    <trkpt lat="58.2408550" lon="11.9129090"></trkpt>
    <trkpt lat="58.2401560" lon="11.9134970"></trkpt>
    <trkpt lat="58.2396320" lon="11.9139190"></trkpt>
    <trkpt lat="58.2391390" lon="11.9143300"></trkpt>
    <trkpt lat="58.2384247" lon="11.9149277"></trkpt>
    <trkpt lat="58.2377103" lon="11.9155253"></trkpt>
    <trkpt lat="58.2369960" lon="11.9161230"></trkpt>
    <trkpt lat="58.2365005" lon="11.9165235"></trkpt>
    <trkpt lat="58.2360050" lon="11.9169240"></trkpt>
    <trkpt lat="58.2354630" lon="11.9172870"></trkpt>
    <trkpt lat="58.2353990" lon="11.9173110"></trkpt>
    <trkpt lat="58.2350900" lon="11.9174560"></trkpt>
    <trkpt lat="58.2345570" lon="11.9176580"></trkpt>
    <trkpt lat="58.2343240" lon="11.9177200"></trkpt>
    <trkpt lat="58.2340750" lon="11.9177760"></trkpt>
    <trkpt lat="58.2334320" lon="11.9178890"></trkpt>
    <trkpt lat="58.2334110" lon="11.9178930"></trkpt>
    <trkpt lat="58.2333980" lon="11.9178940"></trkpt>
    <trkpt lat="58.2332690" lon="11.9179080"></trkpt>
    <trkpt lat="58.2332030" lon="11.9179160"></trkpt>
    <trkpt lat="58.2327810" lon="11.9179530"></trkpt>
    <trkpt lat="58.2323300" lon="11.9179880"></trkpt>
    <trkpt lat="58.2319550" lon="11.9179910"></trkpt>
    <trkpt lat="58.2317720" lon="11.9179920"></trkpt>
    <trkpt lat="58.2317480" lon="11.9179850"></trkpt>
    <trkpt lat="58.2315670" lon="11.9179710"></trkpt>
    <trkpt lat="58.2314360" lon="11.9179490"></trkpt>
    <trkpt lat="58.2311980" lon="11.9178980"></trkpt>
    <trkpt lat="58.2309930" lon="11.9178370"></trkpt>
    <trkpt lat="58.2308340" lon="11.9177850"></trkpt>
    <trkpt lat="58.2304730" lon="11.9176210"></trkpt>
    <trkpt lat="58.2304160" lon="11.9175840"></trkpt>
    <trkpt lat="58.2301670" lon="11.9174540"></trkpt>
    <trkpt lat="58.2295940" lon="11.9171370"></trkpt>
    <trkpt lat="58.2295550" lon="11.9171140"></trkpt>
    <trkpt lat="58.2294000" lon="11.9170160"></trkpt>
    <trkpt lat="58.2293160" lon="11.9169710"></trkpt>
    <trkpt lat="58.2291370" lon="11.9168980"></trkpt>
    <trkpt lat="58.2289900" lon="11.9168640"></trkpt>
    <trkpt lat="58.2288020" lon="11.9168480"></trkpt>
    <trkpt lat="58.2286580" lon="11.9168500"></trkpt>
    <trkpt lat="58.2284660" lon="11.9168700"></trkpt>
    <trkpt lat="58.2281930" lon="11.9169180"></trkpt>
    <trkpt lat="58.2278090" lon="11.9170130"></trkpt>
    <trkpt lat="58.2272850" lon="11.9173295"></trkpt>
    <trkpt lat="58.2267610" lon="11.9176460"></trkpt>
    <trkpt lat="58.2264210" lon="11.9178060"></trkpt>
    <trkpt lat="58.2261510" lon="11.9178910"></trkpt>
    <trkpt lat="58.2261550" lon="11.9180000"></trkpt>
    <trkpt lat="58.2261680" lon="11.9181080"></trkpt>
    <trkpt lat="58.2261810" lon="11.9182420"></trkpt>
    <trkpt lat="58.2262150" lon="11.9183780"></trkpt>
    <trkpt lat="58.2262920" lon="11.9185730"></trkpt>
    <trkpt lat="58.2263390" lon="11.9186670"></trkpt>
    <trkpt lat="58.2261660" lon="11.9189590"></trkpt>
    <trkpt lat="58.2258510" lon="11.9194470"></trkpt>
    <trkpt lat="58.2257230" lon="11.9195930"></trkpt>
    <trkpt lat="58.2254010" lon="11.9198750"></trkpt>
    <trkpt lat="58.2252170" lon="11.9200290"></trkpt>
    <trkpt lat="58.2251080" lon="11.9200940"></trkpt>
    <trkpt lat="58.2249920" lon="11.9201290"></trkpt>
    <trkpt lat="58.2249480" lon="11.9201430"></trkpt>
    <trkpt lat="58.2249290" lon="11.9200250"></trkpt>
    <trkpt lat="58.2248840" lon="11.9199770"></trkpt>
    <trkpt lat="58.2246820" lon="11.9199760"></trkpt>
    <trkpt lat="58.2246820" lon="11.9199760"></trkpt>
    <trkpt lat="58.2246490" lon="11.9200200"></trkpt>
    <trkpt lat="58.2246350" lon="11.9201670"></trkpt>
    <trkpt lat="58.2245780" lon="11.9201630"></trkpt>
    <trkpt lat="58.2245120" lon="11.9201520"></trkpt>
    <trkpt lat="58.2245090" lon="11.9196310"></trkpt>
    <trkpt lat="58.2245050" lon="11.9192460"></trkpt>
    <trkpt lat="58.2245020" lon="11.9189400"></trkpt>
    <trkpt lat="58.2245010" lon="11.9185700"></trkpt>
    <trkpt lat="58.2244960" lon="11.9182700"></trkpt>
    <trkpt lat="58.2244950" lon="11.9181710"></trkpt>
    <trkpt lat="58.2244940" lon="11.9180340"></trkpt>
    <trkpt lat="58.2238445" lon="11.9180435"></trkpt>
    <trkpt lat="58.2231950" lon="11.9180530"></trkpt>
    <trkpt lat="58.2226410" lon="11.9180610"></trkpt>
    <trkpt lat="58.2220870" lon="11.9180690"></trkpt>
    <trkpt lat="58.2219300" lon="11.9180720"></trkpt>
    <trkpt lat="58.2213140" lon="11.9180690"></trkpt>
    <trkpt lat="58.2206980" lon="11.9180660"></trkpt>
    <trkpt lat="58.2200870" lon="11.9180935"></trkpt>
    <trkpt lat="58.2194760" lon="11.9181210"></trkpt>
    <trkpt lat="58.2189690" lon="11.9181390"></trkpt>
    <trkpt lat="58.2183720" lon="11.9180970"></trkpt>
    <trkpt lat="58.2179770" lon="11.9179980"></trkpt>
    <trkpt lat="58.2174110" lon="11.9177400"></trkpt>
    <trkpt lat="58.2166980" lon="11.9173150"></trkpt>
    <trkpt lat="58.2163190" lon="11.9170450"></trkpt>
    <trkpt lat="58.2161090" lon="11.9168910"></trkpt>
    <trkpt lat="58.2159320" lon="11.9167780"></trkpt>
    <trkpt lat="58.2157610" lon="11.9167000"></trkpt>
    <trkpt lat="58.2156710" lon="11.9166640"></trkpt>
    <trkpt lat="58.2155150" lon="11.9166130"></trkpt>
    <trkpt lat="58.2153680" lon="11.9165750"></trkpt>
    <trkpt lat="58.2150890" lon="11.9165360"></trkpt>
    <trkpt lat="58.2149350" lon="11.9165130"></trkpt>
    <trkpt lat="58.2145040" lon="11.9164580"></trkpt>
    <trkpt lat="58.2144380" lon="11.9164490"></trkpt>
    <trkpt lat="58.2143930" lon="11.9164430"></trkpt>
    <trkpt lat="58.2142670" lon="11.9164070"></trkpt>
    <trkpt lat="58.2141650" lon="11.9163780"></trkpt>
    <trkpt lat="58.2139750" lon="11.9163070"></trkpt>
    <trkpt lat="58.2138560" lon="11.9162370"></trkpt>
    <trkpt lat="58.2136060" lon="11.9160930"></trkpt>
    <trkpt lat="58.2135040" lon="11.9160290"></trkpt>
    <trkpt lat="58.2133410" lon="11.9159210"></trkpt>
    <trkpt lat="58.2131100" lon="11.9157500"></trkpt>
    <trkpt lat="58.2128690" lon="11.9155640"></trkpt>
    <trkpt lat="58.2125440" lon="11.9152780"></trkpt>
    <trkpt lat="58.2122300" lon="11.9150110"></trkpt>
    <trkpt lat="58.2121130" lon="11.9149650"></trkpt>
    <trkpt lat="58.2116340" lon="11.9145240"></trkpt>
    <trkpt lat="58.2114010" lon="11.9143170"></trkpt>
    <trkpt lat="58.2111850" lon="11.9141600"></trkpt>
    <trkpt lat="58.2110150" lon="11.9140500"></trkpt>
    <trkpt lat="58.2108840" lon="11.9139660"></trkpt>
    <trkpt lat="58.2105800" lon="11.9138090"></trkpt>
    <trkpt lat="58.2102530" lon="11.9136940"></trkpt>
    <trkpt lat="58.2100090" lon="11.9136480"></trkpt>
    <trkpt lat="58.2096650" lon="11.9136300"></trkpt>
    <trkpt lat="58.2094410" lon="11.9136270"></trkpt>
    <trkpt lat="58.2092190" lon="11.9136640"></trkpt>
    <trkpt lat="58.2086610" lon="11.9137720"></trkpt>
    <trkpt lat="58.2079460" lon="11.9139250"></trkpt>
    <trkpt lat="58.2074780" lon="11.9140200"></trkpt>
    <trkpt lat="58.2070170" lon="11.9141150"></trkpt>
    <trkpt lat="58.2063010" lon="11.9142330"></trkpt>
    <trkpt lat="58.2059810" lon="11.9142460"></trkpt>
    <trkpt lat="58.2058220" lon="11.9142380"></trkpt>
    <trkpt lat="58.2055260" lon="11.9142170"></trkpt>
    <trkpt lat="58.2051360" lon="11.9141790"></trkpt>
    <trkpt lat="58.2044660" lon="11.9141200"></trkpt>
    <trkpt lat="58.2037490" lon="11.9140940"></trkpt>
    <trkpt lat="58.2033730" lon="11.9141390"></trkpt>
    <trkpt lat="58.2031650" lon="11.9141790"></trkpt>
    <trkpt lat="58.2028280" lon="11.9142540"></trkpt>
    <trkpt lat="58.2024960" lon="11.9143590"></trkpt>
    <trkpt lat="58.2021920" lon="11.9144800"></trkpt>
    <trkpt lat="58.2019030" lon="11.9146190"></trkpt>
    <trkpt lat="58.2015810" lon="11.9147940"></trkpt>
    <trkpt lat="58.2012130" lon="11.9150310"></trkpt>
    <trkpt lat="58.2006960" lon="11.9154290"></trkpt>
    <trkpt lat="58.2004680" lon="11.9156280"></trkpt>
    <trkpt lat="58.2001970" lon="11.9158910"></trkpt>
    <trkpt lat="58.1999160" lon="11.9162020"></trkpt>
    <trkpt lat="58.1996240" lon="11.9165290"></trkpt>
    <trkpt lat="58.1992800" lon="11.9169580"></trkpt>
    <trkpt lat="58.1989700" lon="11.9174030"></trkpt>
    <trkpt lat="58.1989290" lon="11.9174680"></trkpt>
    <trkpt lat="58.1986430" lon="11.9179340"></trkpt>
    <trkpt lat="58.1984360" lon="11.9182890"></trkpt>
    <trkpt lat="58.1981400" lon="11.9188460"></trkpt>
    <trkpt lat="58.1980310" lon="11.9190660"></trkpt>
    <trkpt lat="58.1979750" lon="11.9191760"></trkpt>
    <trkpt lat="58.1977850" lon="11.9195860"></trkpt>
    <trkpt lat="58.1974340" lon="11.9204400"></trkpt>
    <trkpt lat="58.1972160" lon="11.9210350"></trkpt>
    <trkpt lat="58.1970780" lon="11.9214600"></trkpt>
    <trkpt lat="58.1968120" lon="11.9223520"></trkpt>
    <trkpt lat="58.1965770" lon="11.9232770"></trkpt>
    <trkpt lat="58.1964700" lon="11.9237660"></trkpt>
    <trkpt lat="58.1963440" lon="11.9244040"></trkpt>
    <trkpt lat="58.1961820" lon="11.9253010"></trkpt>
    <trkpt lat="58.1960350" lon="11.9261290"></trkpt>
    <trkpt lat="58.1958910" lon="11.9269320"></trkpt>
    <trkpt lat="58.1958100" lon="11.9273870"></trkpt>
    <trkpt lat="58.1956970" lon="11.9280010"></trkpt>
    <trkpt lat="58.1955850" lon="11.9286320"></trkpt>
    <trkpt lat="58.1954820" lon="11.9292510"></trkpt>
    <trkpt lat="58.1953690" lon="11.9298200"></trkpt>
    <trkpt lat="58.1952330" lon="11.9304490"></trkpt>
    <trkpt lat="58.1950500" lon="11.9311520"></trkpt>
    <trkpt lat="58.1948790" lon="11.9317340"></trkpt>
    <trkpt lat="58.1947390" lon="11.9321610"></trkpt>
    <trkpt lat="58.1946780" lon="11.9323210"></trkpt>
    <trkpt lat="58.1946090" lon="11.9325150"></trkpt>
    <trkpt lat="58.1944250" lon="11.9330060"></trkpt>
    <trkpt lat="58.1942110" lon="11.9334780"></trkpt>
    <trkpt lat="58.1939780" lon="11.9339710"></trkpt>
    <trkpt lat="58.1937460" lon="11.9344460"></trkpt>
    <trkpt lat="58.1935040" lon="11.9348710"></trkpt>
    <trkpt lat="58.1929860" lon="11.9356870"></trkpt>
    <trkpt lat="58.1924360" lon="11.9364820"></trkpt>
    <trkpt lat="58.1922260" lon="11.9368120"></trkpt>
    <trkpt lat="58.1921150" lon="11.9369940"></trkpt>
    <trkpt lat="58.1917350" lon="11.9376170"></trkpt>
    <trkpt lat="58.1911850" lon="11.9386740"></trkpt>
    <trkpt lat="58.1906810" lon="11.9398940"></trkpt>
    <trkpt lat="58.1902730" lon="11.9410360"></trkpt>
    <trkpt lat="58.1899400" lon="11.9421270"></trkpt>
    <trkpt lat="58.1895950" lon="11.9433540"></trkpt>
    <trkpt lat="58.1893860" lon="11.9440460"></trkpt>
    <trkpt lat="58.1891780" lon="11.9446930"></trkpt>
    <trkpt lat="58.1890910" lon="11.9449180"></trkpt>
    <trkpt lat="58.1889460" lon="11.9452270"></trkpt>
    <trkpt lat="58.1887360" lon="11.9457400"></trkpt>
    <trkpt lat="58.1885830" lon="11.9461180"></trkpt>
    <trkpt lat="58.1884010" lon="11.9465730"></trkpt>
    <trkpt lat="58.1880660" lon="11.9473240"></trkpt>
    <trkpt lat="58.1879420" lon="11.9475870"></trkpt>
    <trkpt lat="58.1876410" lon="11.9481920"></trkpt>
    <trkpt lat="58.1875110" lon="11.9484230"></trkpt>
    <trkpt lat="58.1875560" lon="11.9485480"></trkpt>
    <trkpt lat="58.1875840" lon="11.9486260"></trkpt>
    <trkpt lat="58.1876690" lon="11.9488760"></trkpt>
    <trkpt lat="58.1877310" lon="11.9490980"></trkpt>
    <trkpt lat="58.1878230" lon="11.9494760"></trkpt>
    <trkpt lat="58.1878730" lon="11.9496880"></trkpt>
    <trkpt lat="58.1879880" lon="11.9502720"></trkpt>
    <trkpt lat="58.1880440" lon="11.9505390"></trkpt>
    <trkpt lat="58.1881080" lon="11.9508630"></trkpt>
    <trkpt lat="58.1881390" lon="11.9510130"></trkpt>
    <trkpt lat="58.1882170" lon="11.9513920"></trkpt>
    <trkpt lat="58.1882900" lon="11.9517890"></trkpt>
    <trkpt lat="58.1883620" lon="11.9522640"></trkpt>
    <trkpt lat="58.1884030" lon="11.9526530"></trkpt>
    <trkpt lat="58.1884480" lon="11.9526430"></trkpt>
    <trkpt lat="58.1884850" lon="11.9526530"></trkpt>
    <trkpt lat="58.1885300" lon="11.9526840"></trkpt>
    <trkpt lat="58.1889030" lon="11.9530480"></trkpt>
    <trkpt lat="58.1890880" lon="11.9532180"></trkpt>
    <trkpt lat="58.1891150" lon="11.9532440"></trkpt>
    <trkpt lat="58.1892370" lon="11.9533580"></trkpt>
    <trkpt lat="58.1895290" lon="11.9536250"></trkpt>
    <trkpt lat="58.1896460" lon="11.9537400"></trkpt>
    <trkpt lat="58.1898080" lon="11.9539020"></trkpt>
    <trkpt lat="58.1899460" lon="11.9540480"></trkpt>
    <trkpt lat="58.1898800" lon="11.9542700"></trkpt>
    <trkpt lat="58.1898510" lon="11.9543800"></trkpt>
    <trkpt lat="58.1897920" lon="11.9547880"></trkpt>
    <trkpt lat="58.1898510" lon="11.9543800"></trkpt>
    <trkpt lat="58.1898800" lon="11.9542700"></trkpt>
    <trkpt lat="58.1899460" lon="11.9540480"></trkpt>
    <trkpt lat="58.1898080" lon="11.9539020"></trkpt>
    <trkpt lat="58.1896460" lon="11.9537400"></trkpt>
    <trkpt lat="58.1895290" lon="11.9536250"></trkpt>
    <trkpt lat="58.1892370" lon="11.9533580"></trkpt>
    <trkpt lat="58.1891150" lon="11.9532440"></trkpt>
    <trkpt lat="58.1890880" lon="11.9532180"></trkpt>
    <trkpt lat="58.1889030" lon="11.9530480"></trkpt>
    <trkpt lat="58.1885300" lon="11.9526840"></trkpt>
    <trkpt lat="58.1884850" lon="11.9526530"></trkpt>
    <trkpt lat="58.1884480" lon="11.9526430"></trkpt>
    <trkpt lat="58.1884030" lon="11.9526530"></trkpt>
    <trkpt lat="58.1884540" lon="11.9531560"></trkpt>
    <trkpt lat="58.1885170" lon="11.9537290"></trkpt>
    <trkpt lat="58.1885680" lon="11.9540580"></trkpt>
    <trkpt lat="58.1886330" lon="11.9544350"></trkpt>
    <trkpt lat="58.1887260" lon="11.9548980"></trkpt>
    <trkpt lat="58.1887970" lon="11.9552560"></trkpt>
    <trkpt lat="58.1888420" lon="11.9555250"></trkpt>
    <trkpt lat="58.1888730" lon="11.9557740"></trkpt>
    <trkpt lat="58.1889010" lon="11.9560710"></trkpt>
    <trkpt lat="58.1889160" lon="11.9562880"></trkpt>
    <trkpt lat="58.1889340" lon="11.9566600"></trkpt>
    <trkpt lat="58.1889470" lon="11.9570100"></trkpt>
    <trkpt lat="58.1889610" lon="11.9574880"></trkpt>
    <trkpt lat="58.1889650" lon="11.9576280"></trkpt>
    <trkpt lat="58.1889850" lon="11.9582760"></trkpt>
    <trkpt lat="58.1889920" lon="11.9584210"></trkpt>
    <trkpt lat="58.1890180" lon="11.9590230"></trkpt>
    <trkpt lat="58.1890620" lon="11.9597140"></trkpt>
    <trkpt lat="58.1891270" lon="11.9606940"></trkpt>
    <trkpt lat="58.1891530" lon="11.9611140"></trkpt>
    <trkpt lat="58.1891660" lon="11.9613120"></trkpt>
    <trkpt lat="58.1891900" lon="11.9617160"></trkpt>
    <trkpt lat="58.1892480" lon="11.9627170"></trkpt>
    <trkpt lat="58.1892800" lon="11.9633520"></trkpt>
    <trkpt lat="58.1892950" lon="11.9636810"></trkpt>
    <trkpt lat="58.1893010" lon="11.9640420"></trkpt>
    <trkpt lat="58.1893010" lon="11.9643690"></trkpt>
    <trkpt lat="58.1892910" lon="11.9646510"></trkpt>
    <trkpt lat="58.1892690" lon="11.9649560"></trkpt>
    <trkpt lat="58.1892510" lon="11.9651590"></trkpt>
    <trkpt lat="58.1892360" lon="11.9653630"></trkpt>
    <trkpt lat="58.1892050" lon="11.9656030"></trkpt>
    <trkpt lat="58.1891710" lon="11.9659170"></trkpt>
    <trkpt lat="58.1891220" lon="11.9661910"></trkpt>
    <trkpt lat="58.1890920" lon="11.9663660"></trkpt>
    <trkpt lat="58.1890030" lon="11.9667680"></trkpt>
    <trkpt lat="58.1889500" lon="11.9670010"></trkpt>
    <trkpt lat="58.1888400" lon="11.9674250"></trkpt>
    <trkpt lat="58.1886760" lon="11.9680730"></trkpt>
    <trkpt lat="58.1885780" lon="11.9684490"></trkpt>
    <trkpt lat="58.1883660" lon="11.9692640"></trkpt>
    <trkpt lat="58.1882040" lon="11.9698690"></trkpt>
    <trkpt lat="58.1879810" lon="11.9706090"></trkpt>
    <trkpt lat="58.1877690" lon="11.9712850"></trkpt>
    <trkpt lat="58.1876920" lon="11.9715380"></trkpt>
    <trkpt lat="58.1875340" lon="11.9720190"></trkpt>
    <trkpt lat="58.1873530" lon="11.9725360"></trkpt>
    <trkpt lat="58.1871740" lon="11.9729980"></trkpt>
    <trkpt lat="58.1870340" lon="11.9733270"></trkpt>
    <trkpt lat="58.1868360" lon="11.9737970"></trkpt>
    <trkpt lat="58.1866460" lon="11.9741990"></trkpt>
    <trkpt lat="58.1865540" lon="11.9744040"></trkpt>
    <trkpt lat="58.1864090" lon="11.9746950"></trkpt>
    <trkpt lat="58.1862690" lon="11.9749610"></trkpt>
    <trkpt lat="58.1861150" lon="11.9752610"></trkpt>
    <trkpt lat="58.1858850" lon="11.9756780"></trkpt>
    <trkpt lat="58.1856260" lon="11.9761720"></trkpt>
    <trkpt lat="58.1854120" lon="11.9765810"></trkpt>
    <trkpt lat="58.1852870" lon="11.9768210"></trkpt>
    <trkpt lat="58.1851360" lon="11.9770970"></trkpt>
    <trkpt lat="58.1850550" lon="11.9772250"></trkpt>
    <trkpt lat="58.1849960" lon="11.9773230"></trkpt>
    <trkpt lat="58.1848930" lon="11.9774410"></trkpt>
    <trkpt lat="58.1847850" lon="11.9775490"></trkpt>
    <trkpt lat="58.1845510" lon="11.9777360"></trkpt>
    <trkpt lat="58.1843360" lon="11.9779140"></trkpt>
    <trkpt lat="58.1841020" lon="11.9781250"></trkpt>
    <trkpt lat="58.1839080" lon="11.9783200"></trkpt>
    <trkpt lat="58.1837320" lon="11.9785070"></trkpt>
    <trkpt lat="58.1833850" lon="11.9788780"></trkpt>
    <trkpt lat="58.1831170" lon="11.9791750"></trkpt>
    <trkpt lat="58.1829410" lon="11.9793970"></trkpt>
    <trkpt lat="58.1828540" lon="11.9795470"></trkpt>
    <trkpt lat="58.1827630" lon="11.9797360"></trkpt>
    <trkpt lat="58.1827130" lon="11.9798500"></trkpt>
    <trkpt lat="58.1826590" lon="11.9800090"></trkpt>
    <trkpt lat="58.1825860" lon="11.9802780"></trkpt>
    <trkpt lat="58.1825380" lon="11.9805080"></trkpt>
    <trkpt lat="58.1824680" lon="11.9808740"></trkpt>
    <trkpt lat="58.1824450" lon="11.9809950"></trkpt>
    <trkpt lat="58.1824010" lon="11.9812200"></trkpt>
    <trkpt lat="58.1823210" lon="11.9816120"></trkpt>
    <trkpt lat="58.1822460" lon="11.9819280"></trkpt>
    <trkpt lat="58.1821840" lon="11.9821710"></trkpt>
    <trkpt lat="58.1821110" lon="11.9824340"></trkpt>
    <trkpt lat="58.1820680" lon="11.9825830"></trkpt>
    <trkpt lat="58.1820100" lon="11.9827830"></trkpt>
    <trkpt lat="58.1819300" lon="11.9830560"></trkpt>
    <trkpt lat="58.1818540" lon="11.9833240"></trkpt>
    <trkpt lat="58.1815920" lon="11.9842200"></trkpt>
    <trkpt lat="58.1814590" lon="11.9846890"></trkpt>
    <trkpt lat="58.1813370" lon="11.9851730"></trkpt>
    <trkpt lat="58.1811220" lon="11.9860990"></trkpt>
    <trkpt lat="58.1809860" lon="11.9867230"></trkpt>
    <trkpt lat="58.1808710" lon="11.9872410"></trkpt>
    <trkpt lat="58.1808180" lon="11.9874690"></trkpt>
    <trkpt lat="58.1807690" lon="11.9876530"></trkpt>
    <trkpt lat="58.1806930" lon="11.9879070"></trkpt>
    <trkpt lat="58.1806070" lon="11.9881540"></trkpt>
    <trkpt lat="58.1805230" lon="11.9883850"></trkpt>
    <trkpt lat="58.1803440" lon="11.9888430"></trkpt>
    <trkpt lat="58.1802300" lon="11.9891190"></trkpt>
    <trkpt lat="58.1801290" lon="11.9893580"></trkpt>
    <trkpt lat="58.1798650" lon="11.9899320"></trkpt>
    <trkpt lat="58.1797770" lon="11.9901140"></trkpt>
    <trkpt lat="58.1796780" lon="11.9903170"></trkpt>
    <trkpt lat="58.1796010" lon="11.9904570"></trkpt>
    <trkpt lat="58.1794920" lon="11.9906240"></trkpt>
    <trkpt lat="58.1793930" lon="11.9907380"></trkpt>
    <trkpt lat="58.1792240" lon="11.9909030"></trkpt>
    <trkpt lat="58.1791100" lon="11.9909940"></trkpt>
    <trkpt lat="58.1789350" lon="11.9911360"></trkpt>
    <trkpt lat="58.1788240" lon="11.9912380"></trkpt>
    <trkpt lat="58.1787260" lon="11.9913400"></trkpt>
    <trkpt lat="58.1786250" lon="11.9914710"></trkpt>
    <trkpt lat="58.1785190" lon="11.9916340"></trkpt>
    <trkpt lat="58.1783910" lon="11.9918450"></trkpt>
    <trkpt lat="58.1782060" lon="11.9921700"></trkpt>
    <trkpt lat="58.1780650" lon="11.9924140"></trkpt>
    <trkpt lat="58.1778930" lon="11.9927000"></trkpt>
    <trkpt lat="58.1777580" lon="11.9929130"></trkpt>
    <trkpt lat="58.1775170" lon="11.9932390"></trkpt>
    <trkpt lat="58.1772890" lon="11.9935340"></trkpt>
    <trkpt lat="58.1770650" lon="11.9938170"></trkpt>
    <trkpt lat="58.1768430" lon="11.9941070"></trkpt>
    <trkpt lat="58.1767530" lon="11.9942300"></trkpt>
    <trkpt lat="58.1766640" lon="11.9943650"></trkpt>
    <trkpt lat="58.1765750" lon="11.9945210"></trkpt>
    <trkpt lat="58.1765250" lon="11.9946090"></trkpt>
    <trkpt lat="58.1764690" lon="11.9947460"></trkpt>
    <trkpt lat="58.1764080" lon="11.9949230"></trkpt>
    <trkpt lat="58.1763720" lon="11.9950450"></trkpt>
    <trkpt lat="58.1763400" lon="11.9951770"></trkpt>
    <trkpt lat="58.1762900" lon="11.9953980"></trkpt>
    <trkpt lat="58.1762080" lon="11.9958230"></trkpt>
    <trkpt lat="58.1760970" lon="11.9964660"></trkpt>
    <trkpt lat="58.1760500" lon="11.9967990"></trkpt>
    <trkpt lat="58.1760100" lon="11.9971740"></trkpt>
    <trkpt lat="58.1759630" lon="11.9977320"></trkpt>
    <trkpt lat="58.1759350" lon="11.9981300"></trkpt>
    <trkpt lat="58.1759110" lon="11.9985550"></trkpt>
    <trkpt lat="58.1758740" lon="11.9992050"></trkpt>
    <trkpt lat="58.1758460" lon="11.9999010"></trkpt>
    <trkpt lat="58.1758340" lon="12.0002940"></trkpt>
    <trkpt lat="58.1758260" lon="12.0006360"></trkpt>
    <trkpt lat="58.1758140" lon="12.0010090"></trkpt>
    <trkpt lat="58.1757990" lon="12.0013700"></trkpt>
    <trkpt lat="58.1757770" lon="12.0016520"></trkpt>
    <trkpt lat="58.1757510" lon="12.0018470"></trkpt>
    <trkpt lat="58.1757300" lon="12.0019830"></trkpt>
    <trkpt lat="58.1756800" lon="12.0021610"></trkpt>
    <trkpt lat="58.1756280" lon="12.0023420"></trkpt>
    <trkpt lat="58.1755490" lon="12.0025250"></trkpt>
    <trkpt lat="58.1754620" lon="12.0026920"></trkpt>
    <trkpt lat="58.1753130" lon="12.0029500"></trkpt>
    <trkpt lat="58.1751810" lon="12.0031520"></trkpt>
    <trkpt lat="58.1750750" lon="12.0033160"></trkpt>
    <trkpt lat="58.1749790" lon="12.0034790"></trkpt>
    <trkpt lat="58.1748800" lon="12.0036810"></trkpt>
    <trkpt lat="58.1747790" lon="12.0039130"></trkpt>
    <trkpt lat="58.1746810" lon="12.0041770"></trkpt>
    <trkpt lat="58.1745050" lon="12.0046100"></trkpt>
    <trkpt lat="58.1743600" lon="12.0049900"></trkpt>
    <trkpt lat="58.1742760" lon="12.0052120"></trkpt>
    <trkpt lat="58.1742240" lon="12.0053480"></trkpt>
    <trkpt lat="58.1740550" lon="12.0057880"></trkpt>
    <trkpt lat="58.1739250" lon="12.0061600"></trkpt>
    <trkpt lat="58.1738100" lon="12.0065090"></trkpt>
    <trkpt lat="58.1736520" lon="12.0070230"></trkpt>
    <trkpt lat="58.1732560" lon="12.0082950"></trkpt>
    <trkpt lat="58.1730330" lon="12.0090320"></trkpt>
    <trkpt lat="58.1728840" lon="12.0095560"></trkpt>
    <trkpt lat="58.1726910" lon="12.0102210"></trkpt>
    <trkpt lat="58.1725610" lon="12.0106880"></trkpt>
    <trkpt lat="58.1724000" lon="12.0113220"></trkpt>
    <trkpt lat="58.1722880" lon="12.0118530"></trkpt>
    <trkpt lat="58.1720970" lon="12.0127710"></trkpt>
    <trkpt lat="58.1719980" lon="12.0132410"></trkpt>
    <trkpt lat="58.1719380" lon="12.0135770"></trkpt>
    <trkpt lat="58.1719000" lon="12.0138130"></trkpt>
    <trkpt lat="58.1718550" lon="12.0141790"></trkpt>
    <trkpt lat="58.1718030" lon="12.0147170"></trkpt>
    <trkpt lat="58.1717670" lon="12.0152360"></trkpt>
    <trkpt lat="58.1717230" lon="12.0156260"></trkpt>
    <trkpt lat="58.1716830" lon="12.0158490"></trkpt>
    <trkpt lat="58.1716530" lon="12.0159730"></trkpt>
    <trkpt lat="58.1716020" lon="12.0161760"></trkpt>
    <trkpt lat="58.1715340" lon="12.0164040"></trkpt>
    <trkpt lat="58.1714470" lon="12.0166710"></trkpt>
    <trkpt lat="58.1712660" lon="12.0171880"></trkpt>
    <trkpt lat="58.1710260" lon="12.0179000"></trkpt>
    <trkpt lat="58.1708430" lon="12.0184900"></trkpt>
    <trkpt lat="58.1704490" lon="12.0198400"></trkpt>
    <trkpt lat="58.1702200" lon="12.0205090"></trkpt>
    <trkpt lat="58.1700650" lon="12.0210190"></trkpt>
    <trkpt lat="58.1698810" lon="12.0214990"></trkpt>
    <trkpt lat="58.1697570" lon="12.0218360"></trkpt>
    <trkpt lat="58.1696130" lon="12.0221530"></trkpt>
    <trkpt lat="58.1694780" lon="12.0224120"></trkpt>
    <trkpt lat="58.1693120" lon="12.0227190"></trkpt>
    <trkpt lat="58.1691910" lon="12.0229310"></trkpt>
    <trkpt lat="58.1690330" lon="12.0232640"></trkpt>
    <trkpt lat="58.1689670" lon="12.0234240"></trkpt>
    <trkpt lat="58.1688410" lon="12.0237730"></trkpt>
    <trkpt lat="58.1686440" lon="12.0243710"></trkpt>
    <trkpt lat="58.1684750" lon="12.0248810"></trkpt>
    <trkpt lat="58.1683010" lon="12.0253940"></trkpt>
    <trkpt lat="58.1681230" lon="12.0259390"></trkpt>
    <trkpt lat="58.1680130" lon="12.0262720"></trkpt>
    <trkpt lat="58.1678820" lon="12.0266600"></trkpt>
    <trkpt lat="58.1677490" lon="12.0270080"></trkpt>
    <trkpt lat="58.1676590" lon="12.0272390"></trkpt>
    <trkpt lat="58.1675880" lon="12.0274090"></trkpt>
    <trkpt lat="58.1674290" lon="12.0277470"></trkpt>
    <trkpt lat="58.1672190" lon="12.0281700"></trkpt>
    <trkpt lat="58.1670480" lon="12.0284880"></trkpt>
    <trkpt lat="58.1666530" lon="12.0291700"></trkpt>
    <trkpt lat="58.1665330" lon="12.0293740"></trkpt>
    <trkpt lat="58.1661740" lon="12.0299370"></trkpt>
    <trkpt lat="58.1659230" lon="12.0303080"></trkpt>
    <trkpt lat="58.1657480" lon="12.0305460"></trkpt>
    <trkpt lat="58.1654900" lon="12.0308970"></trkpt>
    <trkpt lat="58.1652830" lon="12.0311650"></trkpt>
    <trkpt lat="58.1651150" lon="12.0313650"></trkpt>
    <trkpt lat="58.1648580" lon="12.0316640"></trkpt>
    <trkpt lat="58.1645700" lon="12.0319850"></trkpt>
    <trkpt lat="58.1643200" lon="12.0322490"></trkpt>
    <trkpt lat="58.1640960" lon="12.0324710"></trkpt>
    <trkpt lat="58.1639280" lon="12.0326270"></trkpt>
    <trkpt lat="58.1637590" lon="12.0327560"></trkpt>
    <trkpt lat="58.1636300" lon="12.0328430"></trkpt>
    <trkpt lat="58.1634630" lon="12.0329480"></trkpt>
    <trkpt lat="58.1633020" lon="12.0330410"></trkpt>
    <trkpt lat="58.1632600" lon="12.0330660"></trkpt>
    <trkpt lat="58.1630430" lon="12.0331900"></trkpt>
    <trkpt lat="58.1628130" lon="12.0333150"></trkpt>
    <trkpt lat="58.1626650" lon="12.0334210"></trkpt>
    <trkpt lat="58.1625610" lon="12.0335040"></trkpt>
    <trkpt lat="58.1624330" lon="12.0336180"></trkpt>
    <trkpt lat="58.1622950" lon="12.0337600"></trkpt>
    <trkpt lat="58.1622180" lon="12.0338720"></trkpt>
    <trkpt lat="58.1621390" lon="12.0339820"></trkpt>
    <trkpt lat="58.1620190" lon="12.0341950"></trkpt>
    <trkpt lat="58.1619400" lon="12.0343490"></trkpt>
    <trkpt lat="58.1618160" lon="12.0346190"></trkpt>
    <trkpt lat="58.1617130" lon="12.0348550"></trkpt>
    <trkpt lat="58.1616210" lon="12.0350760"></trkpt>
    <trkpt lat="58.1615470" lon="12.0352670"></trkpt>
    <trkpt lat="58.1614500" lon="12.0355810"></trkpt>
    <trkpt lat="58.1613020" lon="12.0360760"></trkpt>
    <trkpt lat="58.1612440" lon="12.0363230"></trkpt>
    <trkpt lat="58.1611420" lon="12.0367120"></trkpt>
    <trkpt lat="58.1610830" lon="12.0369390"></trkpt>
    <trkpt lat="58.1609690" lon="12.0373080"></trkpt>
    <trkpt lat="58.1608970" lon="12.0374950"></trkpt>
    <trkpt lat="58.1608060" lon="12.0377190"></trkpt>
    <trkpt lat="58.1606720" lon="12.0379890"></trkpt>
    <trkpt lat="58.1605080" lon="12.0382650"></trkpt>
    <trkpt lat="58.1603100" lon="12.0385950"></trkpt>
    <trkpt lat="58.1601020" lon="12.0389480"></trkpt>
    <trkpt lat="58.1598350" lon="12.0394060"></trkpt>
    <trkpt lat="58.1596550" lon="12.0397310"></trkpt>
    <trkpt lat="58.1594850" lon="12.0400730"></trkpt>
    <trkpt lat="58.1593210" lon="12.0404200"></trkpt>
    <trkpt lat="58.1591750" lon="12.0407680"></trkpt>
    <trkpt lat="58.1590040" lon="12.0412070"></trkpt>
    <trkpt lat="58.1588460" lon="12.0415630"></trkpt>
    <trkpt lat="58.1587270" lon="12.0418080"></trkpt>
    <trkpt lat="58.1585960" lon="12.0420600"></trkpt>
    <trkpt lat="58.1584380" lon="12.0423100"></trkpt>
    <trkpt lat="58.1582540" lon="12.0425790"></trkpt>
    <trkpt lat="58.1579860" lon="12.0429630"></trkpt>
    <trkpt lat="58.1578130" lon="12.0432260"></trkpt>
    <trkpt lat="58.1577100" lon="12.0434240"></trkpt>
    <trkpt lat="58.1576230" lon="12.0435970"></trkpt>
    <trkpt lat="58.1575420" lon="12.0438130"></trkpt>
    <trkpt lat="58.1574720" lon="12.0440360"></trkpt>
    <trkpt lat="58.1573150" lon="12.0445920"></trkpt>
    <trkpt lat="58.1571830" lon="12.0451450"></trkpt>
    <trkpt lat="58.1570680" lon="12.0456040"></trkpt>
    <trkpt lat="58.1569840" lon="12.0458440"></trkpt>
    <trkpt lat="58.1568880" lon="12.0460980"></trkpt>
    <trkpt lat="58.1567560" lon="12.0464020"></trkpt>
    <trkpt lat="58.1566300" lon="12.0466500"></trkpt>
    <trkpt lat="58.1564680" lon="12.0469430"></trkpt>
    <trkpt lat="58.1561350" lon="12.0474910"></trkpt>
    <trkpt lat="58.1558040" lon="12.0480030"></trkpt>
    <trkpt lat="58.1556820" lon="12.0481910"></trkpt>
    <trkpt lat="58.1555720" lon="12.0483460"></trkpt>
    <trkpt lat="58.1553260" lon="12.0486470"></trkpt>
    <trkpt lat="58.1551360" lon="12.0488380"></trkpt>
    <trkpt lat="58.1549920" lon="12.0490010"></trkpt>
    <trkpt lat="58.1548650" lon="12.0491630"></trkpt>
    <trkpt lat="58.1546570" lon="12.0494460"></trkpt>
    <trkpt lat="58.1545410" lon="12.0496080"></trkpt>
    <trkpt lat="58.1544040" lon="12.0497700"></trkpt>
    <trkpt lat="58.1542530" lon="12.0499530"></trkpt>
    <trkpt lat="58.1537020" lon="12.0506100"></trkpt>
    <trkpt lat="58.1535550" lon="12.0508350"></trkpt>
    <trkpt lat="58.1534600" lon="12.0510350"></trkpt>
    <trkpt lat="58.1533980" lon="12.0512210"></trkpt>
    <trkpt lat="58.1533460" lon="12.0514530"></trkpt>
    <trkpt lat="58.1533120" lon="12.0516730"></trkpt>
    <trkpt lat="58.1532830" lon="12.0519430"></trkpt>
    <trkpt lat="58.1532540" lon="12.0524180"></trkpt>
    <trkpt lat="58.1532340" lon="12.0528240"></trkpt>
    <trkpt lat="58.1532230" lon="12.0529920"></trkpt>
    <trkpt lat="58.1531960" lon="12.0532170"></trkpt>
    <trkpt lat="58.1531790" lon="12.0533120"></trkpt>
    <trkpt lat="58.1531500" lon="12.0534440"></trkpt>
    <trkpt lat="58.1531040" lon="12.0536170"></trkpt>
    <trkpt lat="58.1530240" lon="12.0538700"></trkpt>
    <trkpt lat="58.1529640" lon="12.0540610"></trkpt>
    <trkpt lat="58.1530000" lon="12.0541010"></trkpt>
    <trkpt lat="58.1532620" lon="12.0544330"></trkpt>
    <trkpt lat="58.1533800" lon="12.0545690"></trkpt>
    <trkpt lat="58.1535810" lon="12.0547870"></trkpt>
    <trkpt lat="58.1537530" lon="12.0549750"></trkpt>
    <trkpt lat="58.1539490" lon="12.0552110"></trkpt>
    <trkpt lat="58.1540330" lon="12.0553510"></trkpt>
    <trkpt lat="58.1540770" lon="12.0554420"></trkpt>
    <trkpt lat="58.1541280" lon="12.0555960"></trkpt>
    <trkpt lat="58.1541730" lon="12.0557640"></trkpt>
    <trkpt lat="58.1542590" lon="12.0560830"></trkpt>
    <trkpt lat="58.1542850" lon="12.0562390"></trkpt>
    <trkpt lat="58.1543010" lon="12.0564460"></trkpt>
    <trkpt lat="58.1543020" lon="12.0566180"></trkpt>
    <trkpt lat="58.1542640" lon="12.0570910"></trkpt>
    <trkpt lat="58.1542520" lon="12.0574290"></trkpt>
    <trkpt lat="58.1542530" lon="12.0576430"></trkpt>
    <trkpt lat="58.1542670" lon="12.0578510"></trkpt>
    <trkpt lat="58.1542900" lon="12.0581900"></trkpt>
    <trkpt lat="58.1543630" lon="12.0587010"></trkpt>
    <trkpt lat="58.1544310" lon="12.0590580"></trkpt>
    <trkpt lat="58.1545290" lon="12.0595890"></trkpt>
    <trkpt lat="58.1546250" lon="12.0599930"></trkpt>
    <trkpt lat="58.1547620" lon="12.0603320"></trkpt>
    <trkpt lat="58.1552530" lon="12.0610800"></trkpt>
    <trkpt lat="58.1553340" lon="12.0612380"></trkpt>
    <trkpt lat="58.1553990" lon="12.0614430"></trkpt>
    <trkpt lat="58.1554770" lon="12.0618420"></trkpt>
    <trkpt lat="58.1555130" lon="12.0622790"></trkpt>
    <trkpt lat="58.1555090" lon="12.0629980"></trkpt>
    <trkpt lat="58.1555390" lon="12.0633950"></trkpt>
    <trkpt lat="58.1556050" lon="12.0637490"></trkpt>
    <trkpt lat="58.1557170" lon="12.0640810"></trkpt>
    <trkpt lat="58.1557730" lon="12.0642200"></trkpt>
    <trkpt lat="58.1558870" lon="12.0644840"></trkpt>
    <trkpt lat="58.1560170" lon="12.0646980"></trkpt>
    <trkpt lat="58.1561310" lon="12.0648260"></trkpt>
    <trkpt lat="58.1564560" lon="12.0650950"></trkpt>
    <trkpt lat="58.1567640" lon="12.0653690"></trkpt>
    <trkpt lat="58.1570510" lon="12.0656360"></trkpt>
    <trkpt lat="58.1573130" lon="12.0658900"></trkpt>
    <trkpt lat="58.1575170" lon="12.0661470"></trkpt>
    <trkpt lat="58.1576050" lon="12.0662840"></trkpt>
    <trkpt lat="58.1577590" lon="12.0665580"></trkpt>
    <trkpt lat="58.1578550" lon="12.0667680"></trkpt>
    <trkpt lat="58.1581040" lon="12.0673210"></trkpt>
    <trkpt lat="58.1582930" lon="12.0677650"></trkpt>
    <trkpt lat="58.1587580" lon="12.0687860"></trkpt>
    <trkpt lat="58.1588480" lon="12.0689440"></trkpt>
    <trkpt lat="58.1589740" lon="12.0691200"></trkpt>
    <trkpt lat="58.1591020" lon="12.0692590"></trkpt>
    <trkpt lat="58.1592240" lon="12.0693220"></trkpt>
    <trkpt lat="58.1593050" lon="12.0693460"></trkpt>
    <trkpt lat="58.1594410" lon="12.0694030"></trkpt>
    <trkpt lat="58.1596390" lon="12.0695310"></trkpt>
    <trkpt lat="58.1597770" lon="12.0696350"></trkpt>
    <trkpt lat="58.1599680" lon="12.0698020"></trkpt>
    <trkpt lat="58.1602520" lon="12.0700850"></trkpt>
    <trkpt lat="58.1606995" lon="12.0704890"></trkpt>
    <trkpt lat="58.1611470" lon="12.0708930"></trkpt>
    <trkpt lat="58.1612690" lon="12.0709770"></trkpt>
    <trkpt lat="58.1613490" lon="12.0710090"></trkpt>
    <trkpt lat="58.1614440" lon="12.0710480"></trkpt>
    <trkpt lat="58.1617660" lon="12.0711170"></trkpt>
    <trkpt lat="58.1620030" lon="12.0711680"></trkpt>
    <trkpt lat="58.1621550" lon="12.0712250"></trkpt>
    <trkpt lat="58.1623330" lon="12.0713230"></trkpt>
    <trkpt lat="58.1624270" lon="12.0713650"></trkpt>
    <trkpt lat="58.1624880" lon="12.0713880"></trkpt>
    <trkpt lat="58.1626170" lon="12.0714120"></trkpt>
    <trkpt lat="58.1627240" lon="12.0714190"></trkpt>
    <trkpt lat="58.1629000" lon="12.0714180"></trkpt>
    <trkpt lat="58.1636590" lon="12.0714245"></trkpt>
    <trkpt lat="58.1644180" lon="12.0714310"></trkpt>
    <trkpt lat="58.1646410" lon="12.0714370"></trkpt>
    <trkpt lat="58.1649170" lon="12.0714810"></trkpt>
    <trkpt lat="58.1650670" lon="12.0715220"></trkpt>
    <trkpt lat="58.1651850" lon="12.0715870"></trkpt>
    <trkpt lat="58.1652850" lon="12.0717000"></trkpt>
    <trkpt lat="58.1653900" lon="12.0718340"></trkpt>
    <trkpt lat="58.1655660" lon="12.0720780"></trkpt>
    <trkpt lat="58.1656660" lon="12.0722800"></trkpt>
    <trkpt lat="58.1657310" lon="12.0724530"></trkpt>
    <trkpt lat="58.1657700" lon="12.0725810"></trkpt>
    <trkpt lat="58.1657830" lon="12.0726240"></trkpt>
    <trkpt lat="58.1659320" lon="12.0732960"></trkpt>
    <trkpt lat="58.1660640" lon="12.0738350"></trkpt>
    <trkpt lat="58.1662320" lon="12.0743970"></trkpt>
    <trkpt lat="58.1664110" lon="12.0750160"></trkpt>
    <trkpt lat="58.1664870" lon="12.0752060"></trkpt>
    <trkpt lat="58.1665650" lon="12.0753600"></trkpt>
    <trkpt lat="58.1666480" lon="12.0754830"></trkpt>
    <trkpt lat="58.1667260" lon="12.0755730"></trkpt>
    <trkpt lat="58.1668960" lon="12.0757690"></trkpt>
    <trkpt lat="58.1676140" lon="12.0765240"></trkpt>
    <trkpt lat="58.1678230" lon="12.0767230"></trkpt>
    <trkpt lat="58.1679570" lon="12.0768290"></trkpt>
    <trkpt lat="58.1681030" lon="12.0769170"></trkpt>
    <trkpt lat="58.1682540" lon="12.0769730"></trkpt>
    <trkpt lat="58.1683440" lon="12.0769980"></trkpt>
    <trkpt lat="58.1684640" lon="12.0769950"></trkpt>
    <trkpt lat="58.1685660" lon="12.0769680"></trkpt>
    <trkpt lat="58.1690210" lon="12.0768180"></trkpt>
    <trkpt lat="58.1692440" lon="12.0767630"></trkpt>
    <trkpt lat="58.1694840" lon="12.0767810"></trkpt>
    <trkpt lat="58.1695640" lon="12.0768200"></trkpt>
    <trkpt lat="58.1696210" lon="12.0768890"></trkpt>
    <trkpt lat="58.1696580" lon="12.0769540"></trkpt>
    <trkpt lat="58.1696900" lon="12.0770570"></trkpt>
    <trkpt lat="58.1697100" lon="12.0772020"></trkpt>
    <trkpt lat="58.1697170" lon="12.0773380"></trkpt>
    <trkpt lat="58.1697160" lon="12.0774960"></trkpt>
    <trkpt lat="58.1696920" lon="12.0777230"></trkpt>
    <trkpt lat="58.1696270" lon="12.0780210"></trkpt>
    <trkpt lat="58.1695590" lon="12.0782370"></trkpt>
    <trkpt lat="58.1695010" lon="12.0784670"></trkpt>
    <trkpt lat="58.1694700" lon="12.0786160"></trkpt>
    <trkpt lat="58.1694760" lon="12.0789340"></trkpt>
    <trkpt lat="58.1695270" lon="12.0794770"></trkpt>
    <trkpt lat="58.1695790" lon="12.0798960"></trkpt>
    <trkpt lat="58.1696310" lon="12.0801570"></trkpt>
    <trkpt lat="58.1696800" lon="12.0803150"></trkpt>
    <trkpt lat="58.1698240" lon="12.0805440"></trkpt>
    <trkpt lat="58.1701290" lon="12.0809300"></trkpt>
    <trkpt lat="58.1703670" lon="12.0811060"></trkpt>
    <trkpt lat="58.1705490" lon="12.0811930"></trkpt>
    <trkpt lat="58.1706860" lon="12.0812590"></trkpt>
    <trkpt lat="58.1708990" lon="12.0813380"></trkpt>
    <trkpt lat="58.1710610" lon="12.0814360"></trkpt>
    <trkpt lat="58.1711240" lon="12.0814750"></trkpt>
    <trkpt lat="58.1712150" lon="12.0815310"></trkpt>
    <trkpt lat="58.1716790" lon="12.0818740"></trkpt>
    <trkpt lat="58.1722790" lon="12.0821740"></trkpt>
    <trkpt lat="58.1725310" lon="12.0824060"></trkpt>
    <trkpt lat="58.1726520" lon="12.0825500"></trkpt>
    <trkpt lat="58.1727970" lon="12.0827540"></trkpt>
    <trkpt lat="58.1729600" lon="12.0830350"></trkpt>
    <trkpt lat="58.1732730" lon="12.0836150"></trkpt>
    <trkpt lat="58.1734630" lon="12.0839770"></trkpt>
    <trkpt lat="58.1736320" lon="12.0843400"></trkpt>
    <trkpt lat="58.1737270" lon="12.0845670"></trkpt>
    <trkpt lat="58.1738260" lon="12.0847760"></trkpt>
    <trkpt lat="58.1739470" lon="12.0850760"></trkpt>
    <trkpt lat="58.1740440" lon="12.0853060"></trkpt>
    <trkpt lat="58.1743700" lon="12.0858780"></trkpt>
    <trkpt lat="58.1745580" lon="12.0862160"></trkpt>
    <trkpt lat="58.1746300" lon="12.0863540"></trkpt>
    <trkpt lat="58.1747150" lon="12.0865600"></trkpt>
    <trkpt lat="58.1748070" lon="12.0868120"></trkpt>
    <trkpt lat="58.1748300" lon="12.0868780"></trkpt>
    <trkpt lat="58.1749010" lon="12.0870910"></trkpt>
    <trkpt lat="58.1750320" lon="12.0875290"></trkpt>
    <trkpt lat="58.1752200" lon="12.0881540"></trkpt>
    <trkpt lat="58.1754850" lon="12.0891120"></trkpt>
    <trkpt lat="58.1756570" lon="12.0898010"></trkpt>
    <trkpt lat="58.1758060" lon="12.0904350"></trkpt>
    <trkpt lat="58.1759780" lon="12.0911890"></trkpt>
    <trkpt lat="58.1761870" lon="12.0919620"></trkpt>
    <trkpt lat="58.1763290" lon="12.0924660"></trkpt>
    <trkpt lat="58.1765870" lon="12.0932220"></trkpt>
    <trkpt lat="58.1766960" lon="12.0935270"></trkpt>
    <trkpt lat="58.1768220" lon="12.0937900"></trkpt>
    <trkpt lat="58.1772310" lon="12.0943390"></trkpt>
    <trkpt lat="58.1773360" lon="12.0945080"></trkpt>
    <trkpt lat="58.1774460" lon="12.0946810"></trkpt>
    <trkpt lat="58.1775370" lon="12.0948840"></trkpt>
    <trkpt lat="58.1776370" lon="12.0950980"></trkpt>
    <trkpt lat="58.1778450" lon="12.0957020"></trkpt>
    <trkpt lat="58.1781080" lon="12.0965230"></trkpt>
    <trkpt lat="58.1782280" lon="12.0968790"></trkpt>
    <trkpt lat="58.1783210" lon="12.0971150"></trkpt>
    <trkpt lat="58.1784440" lon="12.0974320"></trkpt>
    <trkpt lat="58.1785990" lon="12.0977100"></trkpt>
    <trkpt lat="58.1788770" lon="12.0982190"></trkpt>
    <trkpt lat="58.1790460" lon="12.0985630"></trkpt>
    <trkpt lat="58.1791250" lon="12.0987520"></trkpt>
    <trkpt lat="58.1792820" lon="12.0991850"></trkpt>
    <trkpt lat="58.1793200" lon="12.0993000"></trkpt>
    <trkpt lat="58.1793990" lon="12.0995630"></trkpt>
    <trkpt lat="58.1795430" lon="12.1000970"></trkpt>
    <trkpt lat="58.1796380" lon="12.1004650"></trkpt>
    <trkpt lat="58.1797240" lon="12.1008610"></trkpt>
    <trkpt lat="58.1799080" lon="12.1017680"></trkpt>
    <trkpt lat="58.1800300" lon="12.1024720"></trkpt>
    <trkpt lat="58.1802440" lon="12.1036900"></trkpt>
    <trkpt lat="58.1804210" lon="12.1044760"></trkpt>
    <trkpt lat="58.1807520" lon="12.1057700"></trkpt>
    <trkpt lat="58.1808140" lon="12.1059960"></trkpt>
    <trkpt lat="58.1811310" lon="12.1071000"></trkpt>
    <trkpt lat="58.1810890" lon="12.1071500"></trkpt>
    <trkpt lat="58.1809240" lon="12.1073320"></trkpt>
    <trkpt lat="58.1806820" lon="12.1076790"></trkpt>
    <trkpt lat="58.1804930" lon="12.1078670"></trkpt>
    <trkpt lat="58.1801670" lon="12.1080270"></trkpt>
    <trkpt lat="58.1799960" lon="12.1081110"></trkpt>
    <trkpt lat="58.1795750" lon="12.1083180"></trkpt>
    <trkpt lat="58.1796110" lon="12.1086690"></trkpt>
  </trkseg></trk>
</gpx>
