<?xml version="1.0" encoding="UTF-8"?>
<gpx version="1.1" creator="pilegrimsleden-osm-extractor 1.0" xmlns="http://www.topografix.com/GPX/1/1">
  <trk><name>Pilgrimsleden Falköping - Varnhem</name><trkseg>
    <trkpt lat="58.1611585" lon="13.5513119"></trkpt>
    <trkpt lat="58.1612172" lon="13.5511538"></trkpt>
    <trkpt lat="58.1612510" lon="13.5511743"></trkpt>
    <trkpt lat="58.1612710" lon="13.5512147"></trkpt>
    <trkpt lat="58.1613041" lon="13.5512424"></trkpt>
    <trkpt lat="58.1613430" lon="13.5512516"></trkpt>
    <trkpt lat="58.1613877" lon="13.5512571"></trkpt>
    <trkpt lat="58.1614364" lon="13.5512313"></trkpt>
    <trkpt lat="58.1614694" lon="13.5511779"></trkpt>
    <trkpt lat="58.1614889" lon="13.5511041"></trkpt>
    <trkpt lat="58.1615072" lon="13.5508067"></trkpt>
    <trkpt lat="58.1616099" lon="13.5508405"></trkpt>
    <trkpt lat="58.1617741" lon="13.5508967"></trkpt>
    <trkpt lat="58.1619870" lon="13.5509695"></trkpt>
    <trkpt lat="58.1620169" lon="13.5509258"></trkpt>
    <trkpt lat="58.1620732" lon="13.5509332"></trkpt>
    <trkpt lat="58.1621641" lon="13.5509760"></trkpt>
    <trkpt lat="58.1623937" lon="13.5510757"></trkpt>
    <trkpt lat="58.1627574" lon="13.5512228"></trkpt>
    <trkpt lat="58.1627682" lon="13.5511504"></trkpt>
    <trkpt lat="58.1628318" lon="13.5511761"></trkpt>
    <trkpt lat="58.1628785" lon="13.5511959"></trkpt>
    <trkpt lat="58.1628894" lon="13.5512627"></trkpt>
    <trkpt lat="58.1629108" lon="13.5512997"></trkpt>
    <trkpt lat="58.1635102" lon="13.5515779"></trkpt>
    <trkpt lat="58.1641095" lon="13.5518562"></trkpt>
    <trkpt lat="58.1645562" lon="13.5520411"></trkpt>
    <trkpt lat="58.1646554" lon="13.5520849"></trkpt>
    <trkpt lat="58.1648266" lon="13.5521782"></trkpt>
    <trkpt lat="58.1650877" lon="13.5522976"></trkpt>
    <trkpt lat="58.1651697" lon="13.5522915"></trkpt>
    <trkpt lat="58.1652391" lon="13.5521998"></trkpt>
    <trkpt lat="58.1653045" lon="13.5522323"></trkpt>
    <trkpt lat="58.1653901" lon="13.5522710"></trkpt>
    <trkpt lat="58.1654059" lon="13.5523827"></trkpt>
    <trkpt lat="58.1654491" lon="13.5524780"></trkpt>
    <trkpt lat="58.1658910" lon="13.5526841"></trkpt>
    <trkpt lat="58.1663330" lon="13.5528902"></trkpt>
    <trkpt lat="58.1665414" lon="13.5529827"></trkpt>
    <trkpt lat="58.1672582" lon="13.5532858"></trkpt>
    <trkpt lat="58.1674626" lon="13.5533678"></trkpt>
    <trkpt lat="58.1676290" lon="13.5533913"></trkpt>
    <trkpt lat="58.1676772" lon="13.5533945"></trkpt>
    <trkpt lat="58.1677678" lon="13.5533816"></trkpt>
    <trkpt lat="58.1679186" lon="13.5533233"></trkpt>
    <trkpt lat="58.1680349" lon="13.5532804"></trkpt>
    <trkpt lat="58.1687691" lon="13.5530082"></trkpt>
    <trkpt lat="58.1690097" lon="13.5529055"></trkpt>
    <trkpt lat="58.1694109" lon="13.5527568"></trkpt>
    <trkpt lat="58.1697925" lon="13.5526147"></trkpt>
    <trkpt lat="58.1701515" lon="13.5524824"></trkpt>
    <trkpt lat="58.1707810" lon="13.5522334"></trkpt>
    <trkpt lat="58.1708183" lon="13.5521808"></trkpt>
    <trkpt lat="58.1708503" lon="13.5521360"></trkpt>
    <trkpt lat="58.1715247" lon="13.5518786"></trkpt>
    <trkpt lat="58.1719198" lon="13.5517213"></trkpt>
    <trkpt lat="58.1721894" lon="13.5516168"></trkpt>
    <trkpt lat="58.1728236" lon="13.5513712"></trkpt>
    <trkpt lat="58.1729734" lon="13.5512842"></trkpt>
    <trkpt lat="58.1730534" lon="13.5512093"></trkpt>
    <trkpt lat="58.1731530" lon="13.5510604"></trkpt>
    <trkpt lat="58.1732210" lon="13.5509035"></trkpt>
    <trkpt lat="58.1732670" lon="13.5507588"></trkpt>
    <trkpt lat="58.1732664" lon="13.5505934"></trkpt>
    <trkpt lat="58.1733193" lon="13.5504663"></trkpt>
    <trkpt lat="58.1733628" lon="13.5503523"></trkpt>
    <trkpt lat="58.1734060" lon="13.5503121"></trkpt>
    <trkpt lat="58.1734926" lon="13.5502846"></trkpt>
    <trkpt lat="58.1735609" lon="13.5502798"></trkpt>
    <trkpt lat="58.1736320" lon="13.5502899"></trkpt>
    <trkpt lat="58.1737059" lon="13.5504381"></trkpt>
    <trkpt lat="58.1737702" lon="13.5505707"></trkpt>
    <trkpt lat="58.1737636" lon="13.5506531"></trkpt>
    <trkpt lat="58.1737681" lon="13.5507372"></trkpt>
    <trkpt lat="58.1737724" lon="13.5507584"></trkpt>
    <trkpt lat="58.1738198" lon="13.5508595"></trkpt>
    <trkpt lat="58.1738710" lon="13.5509464"></trkpt>
    <trkpt lat="58.1740883" lon="13.5512231"></trkpt>
    <trkpt lat="58.1743918" lon="13.5516156"></trkpt>
    <trkpt lat="58.1744919" lon="13.5517390"></trkpt>
    <trkpt lat="58.1746291" lon="13.5518507"></trkpt>
    <trkpt lat="58.1746715" lon="13.5518852"></trkpt>
    <trkpt lat="58.1749135" lon="13.5522004"></trkpt>
    <trkpt lat="58.1749206" lon="13.5522096"></trkpt>
    <trkpt lat="58.1749925" lon="13.5522667"></trkpt>
    <trkpt lat="58.1750601" lon="13.5523531"></trkpt>
    <trkpt lat="58.1751579" lon="13.5524812"></trkpt>
    <trkpt lat="58.1753201" lon="13.5526996"></trkpt>
    <trkpt lat="58.1755861" lon="13.5530509"></trkpt>
    <trkpt lat="58.1756286" lon="13.5531201"></trkpt>
    <trkpt lat="58.1756628" lon="13.5531641"></trkpt>
    <trkpt lat="58.1757421" lon="13.5532975"></trkpt>
    <trkpt lat="58.1758268" lon="13.5534153"></trkpt>
    <trkpt lat="58.1759786" lon="13.5536025"></trkpt>
    <trkpt lat="58.1761472" lon="13.5538291"></trkpt>
    <trkpt lat="58.1763222" lon="13.5540629"></trkpt>
    <trkpt lat="58.1764601" lon="13.5542856"></trkpt>
    <trkpt lat="58.1765089" lon="13.5543527"></trkpt>
    <trkpt lat="58.1765470" lon="13.5543899"></trkpt>
    <trkpt lat="58.1766389" lon="13.5544233"></trkpt>
    <trkpt lat="58.1766966" lon="13.5546070"></trkpt>
    <trkpt lat="58.1768036" lon="13.5547823"></trkpt>
    <trkpt lat="58.1768632" lon="13.5548831"></trkpt>
    <trkpt lat="58.1769608" lon="13.5550606"></trkpt>
    <trkpt lat="58.1774583" lon="13.5557013"></trkpt>
    <trkpt lat="58.1779557" lon="13.5563420"></trkpt>
    <trkpt lat="58.1780688" lon="13.5564476"></trkpt>
    <trkpt lat="58.1781211" lon="13.5564798"></trkpt>
    <trkpt lat="58.1781671" lon="13.5564704"></trkpt>
    <trkpt lat="58.1782578" lon="13.5566844"></trkpt>
    <trkpt lat="58.1783580" lon="13.5567507"></trkpt>
    <trkpt lat="58.1783775" lon="13.5566175"></trkpt>
    <trkpt lat="58.1784200" lon="13.5564698"></trkpt>
    <trkpt lat="58.1785497" lon="13.5560693"></trkpt>
    <trkpt lat="58.1786312" lon="13.5558237"></trkpt>
    <trkpt lat="58.1787613" lon="13.5554636"></trkpt>
    <trkpt lat="58.1788699" lon="13.5551240"></trkpt>
    <trkpt lat="58.1791774" lon="13.5542014"></trkpt>
    <trkpt lat="58.1794441" lon="13.5534043"></trkpt>
    <trkpt lat="58.1795268" lon="13.5531407"></trkpt>
    <trkpt lat="58.1799829" lon="13.5517743"></trkpt>
    <trkpt lat="58.1804390" lon="13.5504080"></trkpt>
    <trkpt lat="58.1804718" lon="13.5503917"></trkpt>
    <trkpt lat="58.1805077" lon="13.5503959"></trkpt>
    <trkpt lat="58.1805435" lon="13.5504291"></trkpt>
    <trkpt lat="58.1805786" lon="13.5503272"></trkpt>
    <trkpt lat="58.1806133" lon="13.5502276"></trkpt>
    <trkpt lat="58.1804890" lon="13.5500780"></trkpt>
    <trkpt lat="58.1808111" lon="13.5491244"></trkpt>
    <trkpt lat="58.1811331" lon="13.5481708"></trkpt>
    <trkpt lat="58.1812035" lon="13.5481992"></trkpt>
    <trkpt lat="58.1812732" lon="13.5481541"></trkpt>
    <trkpt lat="58.1814553" lon="13.5479882"></trkpt>
    <trkpt lat="58.1815316" lon="13.5479123"></trkpt>
    <trkpt lat="58.1816128" lon="13.5478141"></trkpt>
    <trkpt lat="58.1816615" lon="13.5477724"></trkpt>
    <trkpt lat="58.1817067" lon="13.5477459"></trkpt>
    <trkpt lat="58.1817827" lon="13.5477323"></trkpt>
    <trkpt lat="58.1818412" lon="13.5477378"></trkpt>
    <trkpt lat="58.1819386" lon="13.5477299"></trkpt>
    <trkpt lat="58.1820311" lon="13.5477029"></trkpt>
    <trkpt lat="58.1821153" lon="13.5476676"></trkpt>
    <trkpt lat="58.1821986" lon="13.5476147"></trkpt>
    <trkpt lat="58.1822938" lon="13.5475202"></trkpt>
    <trkpt lat="58.1823810" lon="13.5474037"></trkpt>
    <trkpt lat="58.1824803" lon="13.5472524"></trkpt>
    <trkpt lat="58.1825725" lon="13.5470877"></trkpt>
    <trkpt lat="58.1826931" lon="13.5468259"></trkpt>
    <trkpt lat="58.1827797" lon="13.5465841"></trkpt>
    <trkpt lat="58.1828470" lon="13.5463911"></trkpt>
    <trkpt lat="58.1829043" lon="13.5462448"></trkpt>
    <trkpt lat="58.1828732" lon="13.5461556"></trkpt>
    <trkpt lat="58.1828619" lon="13.5460255"></trkpt>
    <trkpt lat="58.1828622" lon="13.5458568"></trkpt>
    <trkpt lat="58.1828706" lon="13.5457017"></trkpt>
    <trkpt lat="58.1829116" lon="13.5454392"></trkpt>
    <trkpt lat="58.1829657" lon="13.5452185"></trkpt>
    <trkpt lat="58.1830365" lon="13.5450433"></trkpt>
    <trkpt lat="58.1831833" lon="13.5446240"></trkpt>
    <trkpt lat="58.1833001" lon="13.5443670"></trkpt>
    <trkpt lat="58.1833067" lon="13.5443327"></trkpt>
    <trkpt lat="58.1833093" lon="13.5442972"></trkpt>
    <trkpt lat="58.1833128" lon="13.5442443"></trkpt>
    <trkpt lat="58.1833275" lon="13.5441953"></trkpt>
    <trkpt lat="58.1833583" lon="13.5441474"></trkpt>
    <trkpt lat="58.1833953" lon="13.5441079"></trkpt>
    <trkpt lat="58.1834136" lon="13.5440810"></trkpt>
    <trkpt lat="58.1834273" lon="13.5440446"></trkpt>
    <trkpt lat="58.1834931" lon="13.5438880"></trkpt>
    <trkpt lat="58.1835916" lon="13.5436941"></trkpt>
    <trkpt lat="58.1837068" lon="13.5434842"></trkpt>
    <trkpt lat="58.1838076" lon="13.5433322"></trkpt>
    <trkpt lat="58.1839160" lon="13.5434140"></trkpt>
    <trkpt lat="58.1840291" lon="13.5434569"></trkpt>
    <trkpt lat="58.1842809" lon="13.5435842"></trkpt>
    <trkpt lat="58.1843433" lon="13.5435893"></trkpt>
    <trkpt lat="58.1843792" lon="13.5435236"></trkpt>
    <trkpt lat="58.1843529" lon="13.5434284"></trkpt>
    <trkpt lat="58.1840342" lon="13.5429637"></trkpt>
    <trkpt lat="58.1839528" lon="13.5428319"></trkpt>
    <trkpt lat="58.1839335" lon="13.5427234"></trkpt>
    <trkpt lat="58.1839739" lon="13.5426854"></trkpt>
    <trkpt lat="58.1840253" lon="13.5426886"></trkpt>
    <trkpt lat="58.1844615" lon="13.5429854"></trkpt>
    <trkpt lat="58.1845494" lon="13.5430097"></trkpt>
    <trkpt lat="58.1848423" lon="13.5434037"></trkpt>
    <trkpt lat="58.1850111" lon="13.5435400"></trkpt>
    <trkpt lat="58.1853382" lon="13.5437415"></trkpt>
    <trkpt lat="58.1854556" lon="13.5438332"></trkpt>
    <trkpt lat="58.1855437" lon="13.5439993"></trkpt>
    <trkpt lat="58.1856696" lon="13.5442611"></trkpt>
    <trkpt lat="58.1858579" lon="13.5445452"></trkpt>
    <trkpt lat="58.1859781" lon="13.5447065"></trkpt>
    <trkpt lat="58.1860701" lon="13.5448244"></trkpt>
    <trkpt lat="58.1861978" lon="13.5448697"></trkpt>
    <trkpt lat="58.1862934" lon="13.5448986"></trkpt>
    <trkpt lat="58.1864269" lon="13.5450820"></trkpt>
    <trkpt lat="58.1866227" lon="13.5452489"></trkpt>
    <trkpt lat="58.1868634" lon="13.5454113"></trkpt>
    <trkpt lat="58.1870634" lon="13.5454987"></trkpt>
    <trkpt lat="58.1871934" lon="13.5455230"></trkpt>
    <trkpt lat="58.1873203" lon="13.5454775"></trkpt>
    <trkpt lat="58.1874029" lon="13.5454051"></trkpt>
    <trkpt lat="58.1874857" lon="13.5453920"></trkpt>
    <trkpt lat="58.1875137" lon="13.5453451"></trkpt>
    <trkpt lat="58.1876128" lon="13.5453614"></trkpt>
    <trkpt lat="58.1877378" lon="13.5453295"></trkpt>
    <trkpt lat="58.1878187" lon="13.5453419"></trkpt>
    <trkpt lat="58.1878926" lon="13.5453965"></trkpt>
    <trkpt lat="58.1879682" lon="13.5455058"></trkpt>
    <trkpt lat="58.1880994" lon="13.5457142"></trkpt>
    <trkpt lat="58.1882409" lon="13.5458622"></trkpt>
    <trkpt lat="58.1883734" lon="13.5459615"></trkpt>
    <trkpt lat="58.1886314" lon="13.5460371"></trkpt>
    <trkpt lat="58.1887814" lon="13.5461027"></trkpt>
    <trkpt lat="58.1889049" lon="13.5462049"></trkpt>
    <trkpt lat="58.1888422" lon="13.5457422"></trkpt>
    <trkpt lat="58.1888280" lon="13.5455169"></trkpt>
    <trkpt lat="58.1888591" lon="13.5452808"></trkpt>
    <trkpt lat="58.1889326" lon="13.5450823"></trkpt>
    <trkpt lat="58.1890090" lon="13.5447927"></trkpt>
    <trkpt lat="58.1889807" lon="13.5441060"></trkpt>
    <trkpt lat="58.1890005" lon="13.5438861"></trkpt>
    <trkpt lat="58.1890570" lon="13.5436608"></trkpt>
    <trkpt lat="58.1891136" lon="13.5434140"></trkpt>
    <trkpt lat="58.1891645" lon="13.5432101"></trkpt>
    <trkpt lat="58.1891984" lon="13.5430170"></trkpt>
    <trkpt lat="58.1892946" lon="13.5427864"></trkpt>
    <trkpt lat="58.1895292" lon="13.5422660"></trkpt>
    <trkpt lat="58.1896932" lon="13.5417510"></trkpt>
    <trkpt lat="58.1897413" lon="13.5415204"></trkpt>
    <trkpt lat="58.1897854" lon="13.5411491"></trkpt>
    <trkpt lat="58.1901364" lon="13.5415472"></trkpt>
    <trkpt lat="58.1906680" lon="13.5421157"></trkpt>
    <trkpt lat="58.1911622" lon="13.5426845"></trkpt>
    <trkpt lat="58.1917574" lon="13.5431286"></trkpt>
    <trkpt lat="58.1918857" lon="13.5431340"></trkpt>
    <trkpt lat="58.1922231" lon="13.5428238"></trkpt>
    <trkpt lat="58.1924859" lon="13.5424304"></trkpt>
    <trkpt lat="58.1927942" lon="13.5421050"></trkpt>
    <trkpt lat="58.1931018" lon="13.5417944"></trkpt>
    <trkpt lat="58.1933567" lon="13.5412931"></trkpt>
    <trkpt lat="58.1935633" lon="13.5406244"></trkpt>
    <trkpt lat="58.1939744" lon="13.5399305"></trkpt>
    <trkpt lat="58.1942922" lon="13.5390185"></trkpt>
    <trkpt lat="58.1946099" lon="13.5381064"></trkpt>
    <trkpt lat="58.1948782" lon="13.5371338"></trkpt>
    <trkpt lat="58.1951465" lon="13.5361612"></trkpt>
    <trkpt lat="58.1957223" lon="13.5350429"></trkpt>
    <trkpt lat="58.1958306" lon="13.5341462"></trkpt>
    <trkpt lat="58.1962321" lon="13.5330713"></trkpt>
    <trkpt lat="58.1969289" lon="13.5321725"></trkpt>
    <trkpt lat="58.1971820" lon="13.5313547"></trkpt>
    <trkpt lat="58.1977628" lon="13.5302584"></trkpt>
    <trkpt lat="58.1983671" lon="13.5300931"></trkpt>
    <trkpt lat="58.1989715" lon="13.5299278"></trkpt>
    <trkpt lat="58.1990759" lon="13.5297275"></trkpt>
    <trkpt lat="58.1990196" lon="13.5293645"></trkpt>
    <trkpt lat="58.1990448" lon="13.5291213"></trkpt>
    <trkpt lat="58.1991381" lon="13.5289711"></trkpt>
    <trkpt lat="58.1992569" lon="13.5289174"></trkpt>
    <trkpt lat="58.1996280" lon="13.5282934"></trkpt>
    <trkpt lat="58.1999991" lon="13.5276694"></trkpt>
    <trkpt lat="58.2000331" lon="13.5276112"></trkpt>
    <trkpt lat="58.2002946" lon="13.5270614"></trkpt>
    <trkpt lat="58.2009730" lon="13.5264605"></trkpt>
    <trkpt lat="58.2012104" lon="13.5258812"></trkpt>
    <trkpt lat="58.2015836" lon="13.5262030"></trkpt>
    <trkpt lat="58.2018858" lon="13.5255781"></trkpt>
    <trkpt lat="58.2019903" lon="13.5249773"></trkpt>
    <trkpt lat="58.2022464" lon="13.5242746"></trkpt>
    <trkpt lat="58.2022871" lon="13.5237703"></trkpt>
    <trkpt lat="58.2020287" lon="13.5234779"></trkpt>
    <trkpt lat="58.2014130" lon="13.5227671"></trkpt>
    <trkpt lat="58.2007974" lon="13.5220563"></trkpt>
    <trkpt lat="58.2009276" lon="13.5215408"></trkpt>
    <trkpt lat="58.2011464" lon="13.5207173"></trkpt>
    <trkpt lat="58.2013651" lon="13.5198939"></trkpt>
    <trkpt lat="58.2017895" lon="13.5186487"></trkpt>
    <trkpt lat="58.2022138" lon="13.5174036"></trkpt>
    <trkpt lat="58.2026382" lon="13.5161584"></trkpt>
    <trkpt lat="58.2029605" lon="13.5152129"></trkpt>
    <trkpt lat="58.2030051" lon="13.5150819"></trkpt>
    <trkpt lat="58.2038293" lon="13.5151351"></trkpt>
    <trkpt lat="58.2044179" lon="13.5149489"></trkpt>
    <trkpt lat="58.2050066" lon="13.5147627"></trkpt>
    <trkpt lat="58.2055936" lon="13.5149912"></trkpt>
    <trkpt lat="58.2060985" lon="13.5151642"></trkpt>
    <trkpt lat="58.2060209" lon="13.5147902"></trkpt>
    <trkpt lat="58.2060353" lon="13.5143446"></trkpt>
    <trkpt lat="58.2061638" lon="13.5132957"></trkpt>
    <trkpt lat="58.2062923" lon="13.5122468"></trkpt>
    <trkpt lat="58.2063770" lon="13.5111129"></trkpt>
    <trkpt lat="58.2063618" lon="13.5101449"></trkpt>
    <trkpt lat="58.2066793" lon="13.5090048"></trkpt>
    <trkpt lat="58.2073358" lon="13.5095411"></trkpt>
    <trkpt lat="58.2079923" lon="13.5100775"></trkpt>
    <trkpt lat="58.2086488" lon="13.5106138"></trkpt>
    <trkpt lat="58.2087646" lon="13.5106854"></trkpt>
    <trkpt lat="58.2089076" lon="13.5107554"></trkpt>
    <trkpt lat="58.2090529" lon="13.5107817"></trkpt>
    <trkpt lat="58.2092771" lon="13.5108125"></trkpt>
    <trkpt lat="58.2101120" lon="13.5109272"></trkpt>
    <trkpt lat="58.2109468" lon="13.5110419"></trkpt>
    <trkpt lat="58.2117817" lon="13.5111566"></trkpt>
    <trkpt lat="58.2126165" lon="13.5112713"></trkpt>
    <trkpt lat="58.2134514" lon="13.5113860"></trkpt>
    <trkpt lat="58.2138104" lon="13.5114364"></trkpt>
    <trkpt lat="58.2144873" lon="13.5115613"></trkpt>
    <trkpt lat="58.2151642" lon="13.5116862"></trkpt>
    <trkpt lat="58.2153183" lon="13.5117052"></trkpt>
    <trkpt lat="58.2154606" lon="13.5117222"></trkpt>
    <trkpt lat="58.2156206" lon="13.5117060"></trkpt>
    <trkpt lat="58.2156973" lon="13.5116736"></trkpt>
    <trkpt lat="58.2157762" lon="13.5115926"></trkpt>
    <trkpt lat="58.2158616" lon="13.5113942"></trkpt>
    <trkpt lat="58.2159213" lon="13.5111149"></trkpt>
    <trkpt lat="58.2160428" lon="13.5102727"></trkpt>
    <trkpt lat="58.2160897" lon="13.5100095"></trkpt>
    <trkpt lat="58.2161303" lon="13.5098638"></trkpt>
    <trkpt lat="58.2161793" lon="13.5097504"></trkpt>
    <trkpt lat="58.2162390" lon="13.5096775"></trkpt>
    <trkpt lat="58.2163030" lon="13.5096532"></trkpt>
    <trkpt lat="58.2163776" lon="13.5096775"></trkpt>
    <trkpt lat="58.2164608" lon="13.5097909"></trkpt>
    <trkpt lat="58.2168255" lon="13.5103537"></trkpt>
    <trkpt lat="58.2171603" lon="13.5108355"></trkpt>
    <trkpt lat="58.2177382" lon="13.5115400"></trkpt>
    <trkpt lat="58.2182820" lon="13.5121109"></trkpt>
    <trkpt lat="58.2185038" lon="13.5123660"></trkpt>
    <trkpt lat="58.2186978" lon="13.5126656"></trkpt>
    <trkpt lat="58.2185320" lon="13.5132125"></trkpt>
    <trkpt lat="58.2184752" lon="13.5134618"></trkpt>
    <trkpt lat="58.2184575" lon="13.5135607"></trkpt>
    <trkpt lat="58.2184258" lon="13.5137435"></trkpt>
    <trkpt lat="58.2184090" lon="13.5139162"></trkpt>
    <trkpt lat="58.2184019" lon="13.5140721"></trkpt>
    <trkpt lat="58.2183940" lon="13.5150147"></trkpt>
    <trkpt lat="58.2183861" lon="13.5159573"></trkpt>
    <trkpt lat="58.2184683" lon="13.5164676"></trkpt>
    <trkpt lat="58.2186773" lon="13.5169638"></trkpt>
    <trkpt lat="58.2192340" lon="13.5179186"></trkpt>
    <trkpt lat="58.2195583" lon="13.5183813"></trkpt>
    <trkpt lat="58.2197374" lon="13.5188066"></trkpt>
    <trkpt lat="58.2199241" lon="13.5195012"></trkpt>
    <trkpt lat="58.2201630" lon="13.5204651"></trkpt>
    <trkpt lat="58.2203944" lon="13.5212305"></trkpt>
    <trkpt lat="58.2205139" lon="13.5217692"></trkpt>
    <trkpt lat="58.2205288" lon="13.5222086"></trkpt>
    <trkpt lat="58.2206034" lon="13.5226764"></trkpt>
    <trkpt lat="58.2206588" lon="13.5228792"></trkpt>
    <trkpt lat="58.2208907" lon="13.5235812"></trkpt>
    <trkpt lat="58.2211185" lon="13.5241365"></trkpt>
    <trkpt lat="58.2212977" lon="13.5245617"></trkpt>
    <trkpt lat="58.2215329" lon="13.5254477"></trkpt>
    <trkpt lat="58.2217680" lon="13.5263336"></trkpt>
    <trkpt lat="58.2218501" lon="13.5268581"></trkpt>
    <trkpt lat="58.2218725" lon="13.5274535"></trkpt>
    <trkpt lat="58.2220069" lon="13.5280914"></trkpt>
    <trkpt lat="58.2222234" lon="13.5286726"></trkpt>
    <trkpt lat="58.2223709" lon="13.5290158"></trkpt>
    <trkpt lat="58.2224996" lon="13.5292538"></trkpt>
    <trkpt lat="58.2228332" lon="13.5296736"></trkpt>
    <trkpt lat="58.2230863" lon="13.5299453"></trkpt>
    <trkpt lat="58.2232760" lon="13.5301328"></trkpt>
    <trkpt lat="58.2239030" lon="13.5307280"></trkpt>
    <trkpt lat="58.2242538" lon="13.5310398"></trkpt>
    <trkpt lat="58.2244310" lon="13.5311265"></trkpt>
    <trkpt lat="58.2247826" lon="13.5312163"></trkpt>
    <trkpt lat="58.2252018" lon="13.5313233"></trkpt>
    <trkpt lat="58.2254258" lon="13.5314367"></trkpt>
    <trkpt lat="58.2255900" lon="13.5316175"></trkpt>
    <trkpt lat="58.2259707" lon="13.5321030"></trkpt>
    <trkpt lat="58.2262543" lon="13.5321880"></trkpt>
    <trkpt lat="58.2265977" lon="13.5321597"></trkpt>
    <trkpt lat="58.2267858" lon="13.5322257"></trkpt>
    <trkpt lat="58.2269309" lon="13.5323309"></trkpt>
    <trkpt lat="58.2270323" lon="13.5324486"></trkpt>
    <trkpt lat="58.2271594" lon="13.5326411"></trkpt>
    <trkpt lat="58.2274859" lon="13.5332512"></trkpt>
    <trkpt lat="58.2278516" lon="13.5336764"></trkpt>
    <trkpt lat="58.2283218" lon="13.5341584"></trkpt>
    <trkpt lat="58.2287697" lon="13.5348388"></trkpt>
    <trkpt lat="58.2292026" lon="13.5355334"></trkpt>
    <trkpt lat="58.2295683" lon="13.5359587"></trkpt>
    <trkpt lat="58.2299489" lon="13.5363981"></trkpt>
    <trkpt lat="58.2302773" lon="13.5368659"></trkpt>
    <trkpt lat="58.2304890" lon="13.5372613"></trkpt>
    <trkpt lat="58.2306057" lon="13.5375321"></trkpt>
    <trkpt lat="58.2308435" lon="13.5380824"></trkpt>
    <trkpt lat="58.2311799" lon="13.5388988"></trkpt>
    <trkpt lat="58.2315162" lon="13.5397151"></trkpt>
    <trkpt lat="58.2319849" lon="13.5410022"></trkpt>
    <trkpt lat="58.2324535" lon="13.5422893"></trkpt>
    <trkpt lat="58.2329222" lon="13.5435765"></trkpt>
    <trkpt lat="58.2333908" lon="13.5448636"></trkpt>
    <trkpt lat="58.2338595" lon="13.5461507"></trkpt>
    <trkpt lat="58.2340461" lon="13.5464625"></trkpt>
    <trkpt lat="58.2342849" lon="13.5465759"></trkpt>
    <trkpt lat="58.2347849" lon="13.5465901"></trkpt>
    <trkpt lat="58.2352849" lon="13.5466043"></trkpt>
    <trkpt lat="58.2354864" lon="13.5467886"></trkpt>
    <trkpt lat="58.2356580" lon="13.5471146"></trkpt>
    <trkpt lat="58.2357990" lon="13.5474105"></trkpt>
    <trkpt lat="58.2352841" lon="13.5480105"></trkpt>
    <trkpt lat="58.2347993" lon="13.5485725"></trkpt>
    <trkpt lat="58.2348216" lon="13.5486404"></trkpt>
    <trkpt lat="58.2352805" lon="13.5498903"></trkpt>
    <trkpt lat="58.2357262" lon="13.5510700"></trkpt>
    <trkpt lat="58.2361719" lon="13.5522498"></trkpt>
    <trkpt lat="58.2366176" lon="13.5534295"></trkpt>
    <trkpt lat="58.2370118" lon="13.5544585"></trkpt>
    <trkpt lat="58.2374060" lon="13.5554875"></trkpt>
    <trkpt lat="58.2378889" lon="13.5567642"></trkpt>
    <trkpt lat="58.2383719" lon="13.5580409"></trkpt>
    <trkpt lat="58.2385265" lon="13.5578638"></trkpt>
    <trkpt lat="58.2386155" lon="13.5577720"></trkpt>
    <trkpt lat="58.2388565" lon="13.5574883"></trkpt>
    <trkpt lat="58.2391717" lon="13.5570779"></trkpt>
    <trkpt lat="58.2397407" lon="13.5562907"></trkpt>
    <trkpt lat="58.2398409" lon="13.5562102"></trkpt>
    <trkpt lat="58.2399394" lon="13.5561445"></trkpt>
    <trkpt lat="58.2400337" lon="13.5561050"></trkpt>
    <trkpt lat="58.2401205" lon="13.5560641"></trkpt>
    <trkpt lat="58.2402193" lon="13.5559863"></trkpt>
    <trkpt lat="58.2403188" lon="13.5558723"></trkpt>
    <trkpt lat="58.2404564" lon="13.5556821"></trkpt>
    <trkpt lat="58.2408465" lon="13.5552627"></trkpt>
    <trkpt lat="58.2411065" lon="13.5551191"></trkpt>
    <trkpt lat="58.2415715" lon="13.5548647"></trkpt>
    <trkpt lat="58.2420365" lon="13.5546102"></trkpt>
    <trkpt lat="58.2428725" lon="13.5541752"></trkpt>
    <trkpt lat="58.2429547" lon="13.5541174"></trkpt>
    <trkpt lat="58.2432004" lon="13.5541203"></trkpt>
    <trkpt lat="58.2433084" lon="13.5541333"></trkpt>
    <trkpt lat="58.2433954" lon="13.5542218"></trkpt>
    <trkpt lat="58.2434773" lon="13.5542821"></trkpt>
    <trkpt lat="58.2435671" lon="13.5543110"></trkpt>
    <trkpt lat="58.2436629" lon="13.5543558"></trkpt>
    <trkpt lat="58.2437877" lon="13.5543183"></trkpt>
    <trkpt lat="58.2438249" lon="13.5542605"></trkpt>
    <trkpt lat="58.2438622" lon="13.5541766"></trkpt>
    <trkpt lat="58.2439596" lon="13.5540335"></trkpt>
    <trkpt lat="58.2444107" lon="13.5537537"></trkpt>
    <trkpt lat="58.2448618" lon="13.5534739"></trkpt>
    <trkpt lat="58.2452337" lon="13.5531561"></trkpt>
    <trkpt lat="58.2455556" lon="13.5527214"></trkpt>
    <trkpt lat="58.2457585" lon="13.5523712"></trkpt>
    <trkpt lat="58.2459787" lon="13.5519609"></trkpt>
    <trkpt lat="58.2462888" lon="13.5512217"></trkpt>
    <trkpt lat="58.2464919" lon="13.5508114"></trkpt>
    <trkpt lat="58.2466649" lon="13.5505797"></trkpt>
    <trkpt lat="58.2467953" lon="13.5504822"></trkpt>
    <trkpt lat="58.2469359" lon="13.5504217"></trkpt>
    <trkpt lat="58.2471374" lon="13.5504822"></trkpt>
    <trkpt lat="58.2475688" lon="13.5506775"></trkpt>
    <trkpt lat="58.2475980" lon="13.5505642"></trkpt>
    <trkpt lat="58.2477936" lon="13.5502222"></trkpt>
    <trkpt lat="58.2480081" lon="13.5498628"></trkpt>
    <trkpt lat="58.2481577" lon="13.5495409"></trkpt>
    <trkpt lat="58.2481908" lon="13.5493652"></trkpt>
    <trkpt lat="58.2482099" lon="13.5491735"></trkpt>
    <trkpt lat="58.2482206" lon="13.5487555"></trkpt>
    <trkpt lat="58.2482481" lon="13.5485002"></trkpt>
    <trkpt lat="58.2483116" lon="13.5482039"></trkpt>
    <trkpt lat="58.2483849" lon="13.5479290"></trkpt>
    <trkpt lat="58.2485338" lon="13.5473302"></trkpt>
    <trkpt lat="58.2486715" lon="13.5467340"></trkpt>
    <trkpt lat="58.2486897" lon="13.5466756"></trkpt>
    <trkpt lat="58.2487260" lon="13.5466366"></trkpt>
    <trkpt lat="58.2489032" lon="13.5465917"></trkpt>
    <trkpt lat="58.2490011" lon="13.5465487"></trkpt>
    <trkpt lat="58.2490844" lon="13.5464689"></trkpt>
    <trkpt lat="58.2492845" lon="13.5462429"></trkpt>
    <trkpt lat="58.2493751" lon="13.5461526"></trkpt>
    <trkpt lat="58.2494603" lon="13.5461564"></trkpt>
    <trkpt lat="58.2496301" lon="13.5463665"></trkpt>
    <trkpt lat="58.2497856" lon="13.5465705"></trkpt>
    <trkpt lat="58.2498764" lon="13.5466246"></trkpt>
    <trkpt lat="58.2503806" lon="13.5464618"></trkpt>
    <trkpt lat="58.2505132" lon="13.5463312"></trkpt>
    <trkpt lat="58.2506660" lon="13.5461789"></trkpt>
    <trkpt lat="58.2507280" lon="13.5461122"></trkpt>
    <trkpt lat="58.2507820" lon="13.5460657"></trkpt>
    <trkpt lat="58.2509255" lon="13.5450375"></trkpt>
    <trkpt lat="58.2509142" lon="13.5445064"></trkpt>
    <trkpt lat="58.2510457" lon="13.5436393"></trkpt>
    <trkpt lat="58.2510813" lon="13.5431386"></trkpt>
    <trkpt lat="58.2510723" lon="13.5427147"></trkpt>
    <trkpt lat="58.2512981" lon="13.5422695"></trkpt>
    <trkpt lat="58.2512925" lon="13.5412556"></trkpt>
    <trkpt lat="58.2513574" lon="13.5409069"></trkpt>
    <trkpt lat="58.2512840" lon="13.5404241"></trkpt>
    <trkpt lat="58.2512840" lon="13.5397214"></trkpt>
    <trkpt lat="58.2512304" lon="13.5392654"></trkpt>
    <trkpt lat="58.2509848" lon="13.5385734"></trkpt>
    <trkpt lat="58.2506870" lon="13.5380262"></trkpt>
    <trkpt lat="58.2511005" lon="13.5381174"></trkpt>
    <trkpt lat="58.2514788" lon="13.5378921"></trkpt>
    <trkpt lat="58.2520631" lon="13.5379297"></trkpt>
    <trkpt lat="58.2526474" lon="13.5379672"></trkpt>
    <trkpt lat="58.2528619" lon="13.5376668"></trkpt>
    <trkpt lat="58.2529466" lon="13.5371625"></trkpt>
    <trkpt lat="58.2534942" lon="13.5365188"></trkpt>
    <trkpt lat="58.2539458" lon="13.5365510"></trkpt>
    <trkpt lat="58.2546683" lon="13.5369158"></trkpt>
    <trkpt lat="58.2549506" lon="13.5373020"></trkpt>
    <trkpt lat="58.2558255" lon="13.5374093"></trkpt>
    <trkpt lat="58.2562150" lon="13.5370445"></trkpt>
    <trkpt lat="58.2564859" lon="13.5367978"></trkpt>
    <trkpt lat="58.2566891" lon="13.5357678"></trkpt>
    <trkpt lat="58.2566778" lon="13.5351241"></trkpt>
    <trkpt lat="58.2565988" lon="13.5339868"></trkpt>
    <trkpt lat="58.2565537" lon="13.5328066"></trkpt>
    <trkpt lat="58.2567286" lon="13.5316908"></trkpt>
    <trkpt lat="58.2567738" lon="13.5302210"></trkpt>
    <trkpt lat="58.2569657" lon="13.5295987"></trkpt>
    <trkpt lat="58.2570702" lon="13.5287618"></trkpt>
    <trkpt lat="58.2571746" lon="13.5279250"></trkpt>
    <trkpt lat="58.2574116" lon="13.5264444"></trkpt>
    <trkpt lat="58.2573326" lon="13.5256934"></trkpt>
    <trkpt lat="58.2571365" lon="13.5246339"></trkpt>
    <trkpt lat="58.2573256" lon="13.5248539"></trkpt>
    <trkpt lat="58.2575739" lon="13.5251623"></trkpt>
    <trkpt lat="58.2579704" lon="13.5255459"></trkpt>
    <trkpt lat="58.2582428" lon="13.5260019"></trkpt>
    <trkpt lat="58.2584643" lon="13.5264632"></trkpt>
    <trkpt lat="58.2585744" lon="13.5267556"></trkpt>
    <trkpt lat="58.2586534" lon="13.5270962"></trkpt>
    <trkpt lat="58.2587155" lon="13.5275602"></trkpt>
    <trkpt lat="58.2587748" lon="13.5280913"></trkpt>
    <trkpt lat="58.2588425" lon="13.5283783"></trkpt>
    <trkpt lat="58.2590033" lon="13.5289764"></trkpt>
    <trkpt lat="58.2590937" lon="13.5293198"></trkpt>
    <trkpt lat="58.2591656" lon="13.5298213"></trkpt>
    <trkpt lat="58.2592051" lon="13.5302237"></trkpt>
    <trkpt lat="58.2593039" lon="13.5317525"></trkpt>
    <trkpt lat="58.2593871" lon="13.5330078"></trkpt>
    <trkpt lat="58.2594732" lon="13.5336193"></trkpt>
    <trkpt lat="58.2596694" lon="13.5350141"></trkpt>
    <trkpt lat="58.2597512" lon="13.5357544"></trkpt>
    <trkpt lat="58.2598034" lon="13.5367852"></trkpt>
    <trkpt lat="58.2598285" lon="13.5380399"></trkpt>
    <trkpt lat="58.2597908" lon="13.5394500"></trkpt>
    <trkpt lat="58.2597531" lon="13.5408362"></trkpt>
    <trkpt lat="58.2597782" lon="13.5415173"></trkpt>
    <trkpt lat="58.2598851" lon="13.5421626"></trkpt>
    <trkpt lat="58.2600737" lon="13.5429035"></trkpt>
    <trkpt lat="58.2603880" lon="13.5440388"></trkpt>
    <trkpt lat="58.2606394" lon="13.5449948"></trkpt>
    <trkpt lat="58.2608217" lon="13.5458194"></trkpt>
    <trkpt lat="58.2609125" lon="13.5461238"></trkpt>
    <trkpt lat="58.2610244" lon="13.5464325"></trkpt>
    <trkpt lat="58.2610999" lon="13.5466736"></trkpt>
    <trkpt lat="58.2612806" lon="13.5471935"></trkpt>
    <trkpt lat="58.2613590" lon="13.5473873"></trkpt>
    <trkpt lat="58.2614422" lon="13.5475467"></trkpt>
    <trkpt lat="58.2617295" lon="13.5479521"></trkpt>
    <trkpt lat="58.2618334" lon="13.5481205"></trkpt>
    <trkpt lat="58.2618815" lon="13.5482276"></trkpt>
    <trkpt lat="58.2619955" lon="13.5485067"></trkpt>
    <trkpt lat="58.2622179" lon="13.5490405"></trkpt>
    <trkpt lat="58.2623940" lon="13.5495423"></trkpt>
    <trkpt lat="58.2626663" lon="13.5503697"></trkpt>
    <trkpt lat="58.2627495" lon="13.5506232"></trkpt>
    <trkpt lat="58.2628454" lon="13.5509625"></trkpt>
    <trkpt lat="58.2629872" lon="13.5515419"></trkpt>
    <trkpt lat="58.2630662" lon="13.5518248"></trkpt>
    <trkpt lat="58.2631269" lon="13.5520300"></trkpt>
    <trkpt lat="58.2631876" lon="13.5522017"></trkpt>
    <trkpt lat="58.2632405" lon="13.5523224"></trkpt>
    <trkpt lat="58.2633005" lon="13.5524243"></trkpt>
    <trkpt lat="58.2633675" lon="13.5525249"></trkpt>
    <trkpt lat="58.2634796" lon="13.5526724"></trkpt>
    <trkpt lat="58.2637068" lon="13.5529286"></trkpt>
    <trkpt lat="58.2638973" lon="13.5531539"></trkpt>
    <trkpt lat="58.2640983" lon="13.5533524"></trkpt>
    <trkpt lat="58.2642182" lon="13.5534516"></trkpt>
    <trkpt lat="58.2643142" lon="13.5535106"></trkpt>
    <trkpt lat="58.2644270" lon="13.5535508"></trkpt>
    <trkpt lat="58.2646824" lon="13.5536273"></trkpt>
    <trkpt lat="58.2652219" lon="13.5537779"></trkpt>
    <trkpt lat="58.2655173" lon="13.5539811"></trkpt>
    <trkpt lat="58.2657876" lon="13.5543635"></trkpt>
    <trkpt lat="58.2661018" lon="13.5546503"></trkpt>
    <trkpt lat="58.2668184" lon="13.5552597"></trkpt>
    <trkpt lat="58.2669755" lon="13.5554987"></trkpt>
    <trkpt lat="58.2670446" lon="13.5558692"></trkpt>
    <trkpt lat="58.2671640" lon="13.5569686"></trkpt>
    <trkpt lat="58.2672520" lon="13.5573032"></trkpt>
    <trkpt lat="58.2673386" lon="13.5574638"></trkpt>
    <trkpt lat="58.2674343" lon="13.5575780"></trkpt>
    <trkpt lat="58.2677297" lon="13.5578290"></trkpt>
    <trkpt lat="58.2680440" lon="13.5580919"></trkpt>
    <trkpt lat="58.2683205" lon="13.5585938"></trkpt>
    <trkpt lat="58.2686693" lon="13.5592391"></trkpt>
    <trkpt lat="58.2690181" lon="13.5598843"></trkpt>
    <trkpt lat="58.2692507" lon="13.5603623"></trkpt>
    <trkpt lat="58.2694706" lon="13.5609120"></trkpt>
    <trkpt lat="58.2695869" lon="13.5611976"></trkpt>
    <trkpt lat="58.2699226" lon="13.5618800"></trkpt>
    <trkpt lat="58.2701152" lon="13.5623916"></trkpt>
    <trkpt lat="58.2702734" lon="13.5630132"></trkpt>
    <trkpt lat="58.2705387" lon="13.5640944"></trkpt>
    <trkpt lat="58.2707751" lon="13.5650174"></trkpt>
    <trkpt lat="58.2709138" lon="13.5655497"></trkpt>
    <trkpt lat="58.2709978" lon="13.5658713"></trkpt>
    <trkpt lat="58.2710983" lon="13.5661103"></trkpt>
    <trkpt lat="58.2712492" lon="13.5662417"></trkpt>
    <trkpt lat="58.2714943" lon="13.5663015"></trkpt>
    <trkpt lat="58.2722358" lon="13.5661700"></trkpt>
    <trkpt lat="58.2726569" lon="13.5660027"></trkpt>
    <trkpt lat="58.2729836" lon="13.5659908"></trkpt>
    <trkpt lat="58.2734549" lon="13.5660505"></trkpt>
    <trkpt lat="58.2738760" lon="13.5660625"></trkpt>
    <trkpt lat="58.2742090" lon="13.5658713"></trkpt>
    <trkpt lat="58.2745798" lon="13.5654769"></trkpt>
    <trkpt lat="58.2748731" lon="13.5650669"></trkpt>
    <trkpt lat="58.2751013" lon="13.5647480"></trkpt>
    <trkpt lat="58.2752465" lon="13.5645814"></trkpt>
    <trkpt lat="58.2753643" lon="13.5644741"></trkpt>
    <trkpt lat="58.2754898" lon="13.5643977"></trkpt>
    <trkpt lat="58.2756090" lon="13.5643387"></trkpt>
    <trkpt lat="58.2757486" lon="13.5643052"></trkpt>
    <trkpt lat="58.2758742" lon="13.5642864"></trkpt>
    <trkpt lat="58.2760081" lon="13.5642944"></trkpt>
    <trkpt lat="58.2761351" lon="13.5643373"></trkpt>
    <trkpt lat="58.2764447" lon="13.5645157"></trkpt>
    <trkpt lat="58.2769046" lon="13.5647259"></trkpt>
    <trkpt lat="58.2771936" lon="13.5648014"></trkpt>
    <trkpt lat="58.2773141" lon="13.5648161"></trkpt>
    <trkpt lat="58.2773889" lon="13.5648121"></trkpt>
    <trkpt lat="58.2777499" lon="13.5647316"></trkpt>
    <trkpt lat="58.2782340" lon="13.5646197"></trkpt>
    <trkpt lat="58.2787181" lon="13.5645077"></trkpt>
    <trkpt lat="58.2789233" lon="13.5644996"></trkpt>
    <trkpt lat="58.2790460" lon="13.5645144"></trkpt>
    <trkpt lat="58.2791849" lon="13.5645828"></trkpt>
    <trkpt lat="58.2793499" lon="13.5647236"></trkpt>
    <trkpt lat="58.2795382" lon="13.5649355"></trkpt>
    <trkpt lat="58.2796721" lon="13.5651071"></trkpt>
    <trkpt lat="58.2799206" lon="13.5655725"></trkpt>
    <trkpt lat="58.2803363" lon="13.5666803"></trkpt>
    <trkpt lat="58.2806106" lon="13.5674299"></trkpt>
    <trkpt lat="58.2808172" lon="13.5681072"></trkpt>
    <trkpt lat="58.2810908" lon="13.5690862"></trkpt>
    <trkpt lat="58.2811937" lon="13.5694174"></trkpt>
    <trkpt lat="58.2812424" lon="13.5696830"></trkpt>
    <trkpt lat="58.2813370" lon="13.5700242"></trkpt>
    <trkpt lat="58.2812833" lon="13.5701275"></trkpt>
    <trkpt lat="58.2811285" lon="13.5703739"></trkpt>
    <trkpt lat="58.2810113" lon="13.5706428"></trkpt>
    <trkpt lat="58.2807119" lon="13.5715916"></trkpt>
    <trkpt lat="58.2804125" lon="13.5725404"></trkpt>
    <trkpt lat="58.2801427" lon="13.5734135"></trkpt>
    <trkpt lat="58.2798728" lon="13.5742867"></trkpt>
    <trkpt lat="58.2797212" lon="13.5747959"></trkpt>
    <trkpt lat="58.2795943" lon="13.5753050"></trkpt>
    <trkpt lat="58.2794545" lon="13.5760678"></trkpt>
    <trkpt lat="58.2792761" lon="13.5773294"></trkpt>
    <trkpt lat="58.2791159" lon="13.5786463"></trkpt>
    <trkpt lat="58.2789890" lon="13.5797424"></trkpt>
    <trkpt lat="58.2789428" lon="13.5801534"></trkpt>
    <trkpt lat="58.2788535" lon="13.5809039"></trkpt>
    <trkpt lat="58.2787557" lon="13.5814253"></trkpt>
    <trkpt lat="58.2786589" lon="13.5818506"></trkpt>
    <trkpt lat="58.2784858" lon="13.5823782"></trkpt>
    <trkpt lat="58.2783589" lon="13.5827953"></trkpt>
    <trkpt lat="58.2782579" lon="13.5833454"></trkpt>
    <trkpt lat="58.2781633" lon="13.5840611"></trkpt>
    <trkpt lat="58.2781536" lon="13.5846675"></trkpt>
    <trkpt lat="58.2781782" lon="13.5853930"></trkpt>
    <trkpt lat="58.2782063" lon="13.5860794"></trkpt>
    <trkpt lat="58.2782380" lon="13.5872798"></trkpt>
    <trkpt lat="58.2782697" lon="13.5884801"></trkpt>
    <trkpt lat="58.2782912" lon="13.5887438"></trkpt>
    <trkpt lat="58.2783235" lon="13.5889115"></trkpt>
    <trkpt lat="58.2783858" lon="13.5890792"></trkpt>
    <trkpt lat="58.2785019" lon="13.5893205"></trkpt>
    <trkpt lat="58.2790621" lon="13.5902100"></trkpt>
    <trkpt lat="58.2791847" lon="13.5904329"></trkpt>
    <trkpt lat="58.2792793" lon="13.5906824"></trkpt>
    <trkpt lat="58.2793685" lon="13.5909922"></trkpt>
    <trkpt lat="58.2794180" lon="13.5912283"></trkpt>
    <trkpt lat="58.2794685" lon="13.5915749"></trkpt>
    <trkpt lat="58.2795104" lon="13.5919256"></trkpt>
    <trkpt lat="58.2795416" lon="13.5924594"></trkpt>
    <trkpt lat="58.2795454" lon="13.5930432"></trkpt>
    <trkpt lat="58.2794846" lon="13.5935073"></trkpt>
    <trkpt lat="58.2793798" lon="13.5940666"></trkpt>
    <trkpt lat="58.2792594" lon="13.5947056"></trkpt>
    <trkpt lat="58.2790019" lon="13.5960501"></trkpt>
    <trkpt lat="58.2787890" lon="13.5972065"></trkpt>
    <trkpt lat="58.2785675" lon="13.5984201"></trkpt>
    <trkpt lat="58.2784627" lon="13.5988771"></trkpt>
    <trkpt lat="58.2782917" lon="13.5995202"></trkpt>
    <trkpt lat="58.2782337" lon="13.5997677"></trkpt>
    <trkpt lat="58.2781401" lon="13.6002636"></trkpt>
    <trkpt lat="58.2780907" lon="13.6006326"></trkpt>
    <trkpt lat="58.2778837" lon="13.6022133"></trkpt>
    <trkpt lat="58.2777396" lon="13.6033544"></trkpt>
    <trkpt lat="58.2775644" lon="13.6046907"></trkpt>
    <trkpt lat="58.2774596" lon="13.6056160"></trkpt>
    <trkpt lat="58.2774581" lon="13.6057645"></trkpt>
    <trkpt lat="58.2775472" lon="13.6057509"></trkpt>
    <trkpt lat="58.2778601" lon="13.6057111"></trkpt>
    <trkpt lat="58.2782075" lon="13.6056329"></trkpt>
    <trkpt lat="58.2786541" lon="13.6055403"></trkpt>
    <trkpt lat="58.2791251" lon="13.6054020"></trkpt>
    <trkpt lat="58.2793857" lon="13.6053225"></trkpt>
    <trkpt lat="58.2800738" lon="13.6050547"></trkpt>
    <trkpt lat="58.2805882" lon="13.6048461"></trkpt>
    <trkpt lat="58.2806737" lon="13.6048083"></trkpt>
    <trkpt lat="58.2806951" lon="13.6038246"></trkpt>
    <trkpt lat="58.2807166" lon="13.6028410"></trkpt>
    <trkpt lat="58.2812953" lon="13.6027015"></trkpt>
    <trkpt lat="58.2816295" lon="13.6030581"></trkpt>
    <trkpt lat="58.2821675" lon="13.6030736"></trkpt>
    <trkpt lat="58.2825506" lon="13.6024844"></trkpt>
    <trkpt lat="58.2831048" lon="13.6019573"></trkpt>
    <trkpt lat="58.2832597" lon="13.6017403"></trkpt>
    <trkpt lat="58.2834635" lon="13.6015852"></trkpt>
    <trkpt lat="58.2838791" lon="13.6010271"></trkpt>
    <trkpt lat="58.2839993" lon="13.6007689"></trkpt>
    <trkpt lat="58.2844468" lon="13.5996088"></trkpt>
    <trkpt lat="58.2848942" lon="13.5984487"></trkpt>
    <trkpt lat="58.2853417" lon="13.5972886"></trkpt>
    <trkpt lat="58.2856869" lon="13.5963997"></trkpt>
    <trkpt lat="58.2860357" lon="13.5955018"></trkpt>
    <trkpt lat="58.2865018" lon="13.5943283"></trkpt>
    <trkpt lat="58.2867401" lon="13.5937149"></trkpt>
    <trkpt lat="58.2871397" lon="13.5922348"></trkpt>
    <trkpt lat="58.2873850" lon="13.5912614"></trkpt>
    <trkpt lat="58.2876128" lon="13.5901146"></trkpt>
    <trkpt lat="58.2878669" lon="13.5888378"></trkpt>
    <trkpt lat="58.2881210" lon="13.5875610"></trkpt>
    <trkpt lat="58.2881806" lon="13.5872476"></trkpt>
    <trkpt lat="58.2882857" lon="13.5871276"></trkpt>
    <trkpt lat="58.2889095" lon="13.5867809"></trkpt>
    <trkpt lat="58.2891198" lon="13.5866543"></trkpt>
    <trkpt lat="58.2893259" lon="13.5865054"></trkpt>
    <trkpt lat="58.2895322" lon="13.5867358"></trkpt>
    <trkpt lat="58.2899781" lon="13.5870585"></trkpt>
    <trkpt lat="58.2907444" lon="13.5874528"></trkpt>
    <trkpt lat="58.2910648" lon="13.5877157"></trkpt>
    <trkpt lat="58.2914291" lon="13.5881698"></trkpt>
    <trkpt lat="58.2920107" lon="13.5893274"></trkpt>
    <trkpt lat="58.2924372" lon="13.5899232"></trkpt>
    <trkpt lat="58.2924905" lon="13.5895006"></trkpt>
    <trkpt lat="58.2924960" lon="13.5892587"></trkpt>
    <trkpt lat="58.2924769" lon="13.5890522"></trkpt>
    <trkpt lat="58.2923860" lon="13.5886197"></trkpt>
    <trkpt lat="58.2923784" lon="13.5885136"></trkpt>
    <trkpt lat="58.2923839" lon="13.5883945"></trkpt>
    <trkpt lat="58.2924115" lon="13.5882092"></trkpt>
    <trkpt lat="58.2924633" lon="13.5880519"></trkpt>
    <trkpt lat="58.2928059" lon="13.5872714"></trkpt>
    <trkpt lat="58.2931461" lon="13.5864743"></trkpt>
    <trkpt lat="58.2932165" lon="13.5863155"></trkpt>
    <trkpt lat="58.2932921" lon="13.5861899"></trkpt>
    <trkpt lat="58.2933586" lon="13.5861250"></trkpt>
    <trkpt lat="58.2934207" lon="13.5861117"></trkpt>
    <trkpt lat="58.2935232" lon="13.5861575"></trkpt>
    <trkpt lat="58.2936582" lon="13.5862713"></trkpt>
    <trkpt lat="58.2937410" lon="13.5863011"></trkpt>
    <trkpt lat="58.2938450" lon="13.5862673"></trkpt>
    <trkpt lat="58.2940019" lon="13.5860332"></trkpt>
    <trkpt lat="58.2943063" lon="13.5855181"></trkpt>
    <trkpt lat="58.2944695" lon="13.5852450"></trkpt>
    <trkpt lat="58.2945627" lon="13.5851642"></trkpt>
    <trkpt lat="58.2950256" lon="13.5849001"></trkpt>
    <trkpt lat="58.2956183" lon="13.5845726"></trkpt>
    <trkpt lat="58.2962109" lon="13.5842450"></trkpt>
    <trkpt lat="58.2969539" lon="13.5837780"></trkpt>
    <trkpt lat="58.2970205" lon="13.5836767"></trkpt>
    <trkpt lat="58.2975266" lon="13.5826768"></trkpt>
    <trkpt lat="58.2980327" lon="13.5816769"></trkpt>
    <trkpt lat="58.2981188" lon="13.5815129"></trkpt>
    <trkpt lat="58.2981907" lon="13.5812634"></trkpt>
    <trkpt lat="58.2982386" lon="13.5810032"></trkpt>
    <trkpt lat="58.2983105" lon="13.5798284"></trkpt>
    <trkpt lat="58.2983641" lon="13.5793617"></trkpt>
    <trkpt lat="58.2984685" lon="13.5785059"></trkpt>
    <trkpt lat="58.2985421" lon="13.5781555"></trkpt>
    <trkpt lat="58.2986680" lon="13.5776592"></trkpt>
    <trkpt lat="58.2990914" lon="13.5761992"></trkpt>
    <trkpt lat="58.2995149" lon="13.5747393"></trkpt>
    <trkpt lat="58.2996653" lon="13.5742955"></trkpt>
    <trkpt lat="58.3000719" lon="13.5732137"></trkpt>
    <trkpt lat="58.3004784" lon="13.5721319"></trkpt>
    <trkpt lat="58.3008850" lon="13.5710501"></trkpt>
    <trkpt lat="58.3012916" lon="13.5699683"></trkpt>
    <trkpt lat="58.3014389" lon="13.5696880"></trkpt>
    <trkpt lat="58.3015831" lon="13.5694894"></trkpt>
    <trkpt lat="58.3017887" lon="13.5693084"></trkpt>
    <trkpt lat="58.3022034" lon="13.5689602"></trkpt>
    <trkpt lat="58.3026181" lon="13.5686119"></trkpt>
    <trkpt lat="58.3027959" lon="13.5685055"></trkpt>
    <trkpt lat="58.3030250" lon="13.5684076"></trkpt>
    <trkpt lat="58.3032420" lon="13.5683177"></trkpt>
    <trkpt lat="58.3035344" lon="13.5681233"></trkpt>
    <trkpt lat="58.3039248" lon="13.5678242"></trkpt>
    <trkpt lat="58.3042038" lon="13.5676016"></trkpt>
    <trkpt lat="58.3045688" lon="13.5673548"></trkpt>
    <trkpt lat="58.3047182" lon="13.5672301"></trkpt>
    <trkpt lat="58.3049028" lon="13.5670222"></trkpt>
    <trkpt lat="58.3051508" lon="13.5666682"></trkpt>
    <trkpt lat="58.3053264" lon="13.5663769"></trkpt>
    <trkpt lat="58.3054869" lon="13.5661384"></trkpt>
    <trkpt lat="58.3056617" lon="13.5659212"></trkpt>
    <trkpt lat="58.3061204" lon="13.5653633"></trkpt>
    <trkpt lat="58.3064357" lon="13.5648736"></trkpt>
    <trkpt lat="58.3064797" lon="13.5650314"></trkpt>
    <trkpt lat="58.3066717" lon="13.5655404"></trkpt>
    <trkpt lat="58.3066055" lon="13.5656600"></trkpt>
    <trkpt lat="58.3065517" lon="13.5657626"></trkpt>
    <trkpt lat="58.3065165" lon="13.5658602"></trkpt>
    <trkpt lat="58.3064394" lon="13.5661163"></trkpt>
    <trkpt lat="58.3063495" lon="13.5664184"></trkpt>
    <trkpt lat="58.3060471" lon="13.5674252"></trkpt>
    <trkpt lat="58.3059685" lon="13.5676780"></trkpt>
    <trkpt lat="58.3058019" lon="13.5682829"></trkpt>
    <trkpt lat="58.3056448" lon="13.5689199"></trkpt>
    <trkpt lat="58.3052516" lon="13.5699002"></trkpt>
    <trkpt lat="58.3049521" lon="13.5708645"></trkpt>
    <trkpt lat="58.3048387" lon="13.5712668"></trkpt>
    <trkpt lat="58.3047111" lon="13.5717416"></trkpt>
    <trkpt lat="58.3046026" lon="13.5721573"></trkpt>
    <trkpt lat="58.3045744" lon="13.5722284"></trkpt>
    <trkpt lat="58.3045420" lon="13.5723571"></trkpt>
    <trkpt lat="58.3045674" lon="13.5725476"></trkpt>
    <trkpt lat="58.3045907" lon="13.5732543"></trkpt>
    <trkpt lat="58.3045935" lon="13.5749227"></trkpt>
    <trkpt lat="58.3045963" lon="13.5765910"></trkpt>
    <trkpt lat="58.3041481" lon="13.5766232"></trkpt>
    <trkpt lat="58.3039339" lon="13.5770202"></trkpt>
    <trkpt lat="58.3037254" lon="13.5776854"></trkpt>
    <trkpt lat="58.3037042" lon="13.5786134"></trkpt>
    <trkpt lat="58.3036831" lon="13.5795414"></trkpt>
    <trkpt lat="58.3034323" lon="13.5802978"></trkpt>
    <trkpt lat="58.3031814" lon="13.5810542"></trkpt>
    <trkpt lat="58.3027981" lon="13.5821164"></trkpt>
    <trkpt lat="58.3030348" lon="13.5825455"></trkpt>
    <trkpt lat="58.3030123" lon="13.5827923"></trkpt>
    <trkpt lat="58.3033900" lon="13.5829747"></trkpt>
    <trkpt lat="58.3041115" lon="13.5827869"></trkpt>
    <trkpt lat="58.3048330" lon="13.5825992"></trkpt>
    <trkpt lat="58.3055715" lon="13.5826099"></trkpt>
    <trkpt lat="58.3061070" lon="13.5831571"></trkpt>
    <trkpt lat="58.3065805" lon="13.5834682"></trkpt>
    <trkpt lat="58.3068961" lon="13.5835111"></trkpt>
    <trkpt lat="58.3073358" lon="13.5831463"></trkpt>
    <trkpt lat="58.3080121" lon="13.5830927"></trkpt>
    <trkpt lat="58.3084030" lon="13.5835038"></trkpt>
    <trkpt lat="58.3084113" lon="13.5834168"></trkpt>
    <trkpt lat="58.3085759" lon="13.5837023"></trkpt>
    <trkpt lat="58.3088169" lon="13.5839523"></trkpt>
    <trkpt lat="58.3089805" lon="13.5840466"></trkpt>
    <trkpt lat="58.3095910" lon="13.5841012"></trkpt>
    <trkpt lat="58.3100591" lon="13.5846458"></trkpt>
    <trkpt lat="58.3104231" lon="13.5850559"></trkpt>
    <trkpt lat="58.3106720" lon="13.5855650"></trkpt>
    <trkpt lat="58.3109729" lon="13.5866682"></trkpt>
    <trkpt lat="58.3110769" lon="13.5869228"></trkpt>
    <trkpt lat="58.3112404" lon="13.5867106"></trkpt>
    <trkpt lat="58.3114892" lon="13.5865480"></trkpt>
    <trkpt lat="58.3117901" lon="13.5864985"></trkpt>
    <trkpt lat="58.3119313" lon="13.5863571"></trkpt>
    <trkpt lat="58.3123510" lon="13.5860954"></trkpt>
    <trkpt lat="58.3128599" lon="13.5858055"></trkpt>
    <trkpt lat="58.3129948" lon="13.5855494"></trkpt>
    <trkpt lat="58.3132054" lon="13.5854165"></trkpt>
    <trkpt lat="58.3135132" lon="13.5852000"></trkpt>
    <trkpt lat="58.3136372" lon="13.5851792"></trkpt>
    <trkpt lat="58.3139037" lon="13.5846104"></trkpt>
    <trkpt lat="58.3141265" lon="13.5842497"></trkpt>
    <trkpt lat="58.3142910" lon="13.5841493"></trkpt>
    <trkpt lat="58.3146230" lon="13.5841978"></trkpt>
    <trkpt lat="58.3148917" lon="13.5844336"></trkpt>
    <trkpt lat="58.3151071" lon="13.5847023"></trkpt>
    <trkpt lat="58.3157683" lon="13.5855863"></trkpt>
    <trkpt lat="58.3160765" lon="13.5861308"></trkpt>
    <trkpt lat="58.3162808" lon="13.5862651"></trkpt>
    <trkpt lat="58.3166857" lon="13.5862439"></trkpt>
    <trkpt lat="58.3170571" lon="13.5861166"></trkpt>
    <trkpt lat="58.3178296" lon="13.5857843"></trkpt>
    <trkpt lat="58.3182915" lon="13.5855415"></trkpt>
    <trkpt lat="58.3186355" lon="13.5853052"></trkpt>
    <trkpt lat="58.3188918" lon="13.5852115"></trkpt>
    <trkpt lat="58.3195974" lon="13.5847730"></trkpt>
    <trkpt lat="58.3200765" lon="13.5846175"></trkpt>
    <trkpt lat="58.3203847" lon="13.5845609"></trkpt>
    <trkpt lat="58.3205816" lon="13.5846387"></trkpt>
    <trkpt lat="58.3207672" lon="13.5847306"></trkpt>
    <trkpt lat="58.3209901" lon="13.5850276"></trkpt>
    <trkpt lat="58.3211869" lon="13.5854165"></trkpt>
    <trkpt lat="58.3214134" lon="13.5857489"></trkpt>
    <trkpt lat="58.3218256" lon="13.5861732"></trkpt>
    <trkpt lat="58.3222118" lon="13.5865480"></trkpt>
    <trkpt lat="58.3224962" lon="13.5867780"></trkpt>
    <trkpt lat="58.3226765" lon="13.5870784"></trkpt>
    <trkpt lat="58.3227863" lon="13.5873172"></trkpt>
    <trkpt lat="58.3229272" lon="13.5875210"></trkpt>
    <trkpt lat="58.3231159" lon="13.5876980"></trkpt>
    <trkpt lat="58.3233441" lon="13.5878402"></trkpt>
    <trkpt lat="58.3235188" lon="13.5879341"></trkpt>
    <trkpt lat="58.3236878" lon="13.5879555"></trkpt>
    <trkpt lat="58.3240389" lon="13.5879139"></trkpt>
    <trkpt lat="58.3240414" lon="13.5879696"></trkpt>
    <trkpt lat="58.3240420" lon="13.5879941"></trkpt>
    <trkpt lat="58.3240552" lon="13.5879929"></trkpt>
    <trkpt lat="58.3240570" lon="13.5880365"></trkpt>
    <trkpt lat="58.3241582" lon="13.5883968"></trkpt>
    <trkpt lat="58.3241545" lon="13.5884857"></trkpt>
    <trkpt lat="58.3241364" lon="13.5885778"></trkpt>
    <trkpt lat="58.3240512" lon="13.5889278"></trkpt>
    <trkpt lat="58.3239939" lon="13.5891609"></trkpt>
    <trkpt lat="58.3237399" lon="13.5901954"></trkpt>
    <trkpt lat="58.3236671" lon="13.5904963"></trkpt>
    <trkpt lat="58.3240099" lon="13.5907789"></trkpt>
    <trkpt lat="58.3239763" lon="13.5909262"></trkpt>
    <trkpt lat="58.3240688" lon="13.5909334"></trkpt>
    <trkpt lat="58.3241323" lon="13.5909135"></trkpt>
    <trkpt lat="58.3243478" lon="13.5909623"></trkpt>
    <trkpt lat="58.3245138" lon="13.5910586"></trkpt>
    <trkpt lat="58.3248821" lon="13.5912511"></trkpt>
    <trkpt lat="58.3248893" lon="13.5912511"></trkpt>
    <trkpt lat="58.3253874" lon="13.5916910"></trkpt>
    <trkpt lat="58.3256433" lon="13.5919124"></trkpt>
    <trkpt lat="58.3258423" lon="13.5920760"></trkpt>
    <trkpt lat="58.3262033" lon="13.5923923"></trkpt>
    <trkpt lat="58.3264126" lon="13.5926260"></trkpt>
    <trkpt lat="58.3266076" lon="13.5927910"></trkpt>
    <trkpt lat="58.3267664" lon="13.5926260"></trkpt>
    <trkpt lat="58.3268458" lon="13.5927360"></trkpt>
    <trkpt lat="58.3269809" lon="13.5929463"></trkpt>
    <trkpt lat="58.3272033" lon="13.5931796"></trkpt>
    <trkpt lat="58.3274941" lon="13.5935127"></trkpt>
    <trkpt lat="58.3278838" lon="13.5939631"></trkpt>
    <trkpt lat="58.3278409" lon="13.5941285"></trkpt>
    <trkpt lat="58.3276503" lon="13.5946935"></trkpt>
    <trkpt lat="58.3275750" lon="13.5949497"></trkpt>
    <trkpt lat="58.3272699" lon="13.5956035"></trkpt>
    <trkpt lat="58.3272260" lon="13.5955871"></trkpt>
    <trkpt lat="58.3271125" lon="13.5957007"></trkpt>
    <trkpt lat="58.3271383" lon="13.5959031"></trkpt>
    <trkpt lat="58.3269032" lon="13.5972332"></trkpt>
    <trkpt lat="58.3266681" lon="13.5985633"></trkpt>
    <trkpt lat="58.3268099" lon="13.5986183"></trkpt>
    <trkpt lat="58.3267986" lon="13.5987329"></trkpt>
    <trkpt lat="58.3272663" lon="13.5990325"></trkpt>
    <trkpt lat="58.3280088" lon="13.5995010"></trkpt>
    <trkpt lat="58.3283214" lon="13.5997408"></trkpt>
    <trkpt lat="58.3281677" lon="13.6004089"></trkpt>
    <trkpt lat="58.3279854" lon="13.6009894"></trkpt>
    <trkpt lat="58.3279792" lon="13.6011570"></trkpt>
    <trkpt lat="58.3281080" lon="13.6013844"></trkpt>
    <trkpt lat="58.3283185" lon="13.6015520"></trkpt>
    <trkpt lat="58.3284128" lon="13.6017615"></trkpt>
    <trkpt lat="58.3286013" lon="13.6021265"></trkpt>
    <trkpt lat="58.3288056" lon="13.6022762"></trkpt>
    <trkpt lat="58.3291041" lon="13.6026352"></trkpt>
    <trkpt lat="58.3291890" lon="13.6031679"></trkpt>
    <trkpt lat="58.3291890" lon="13.6035031"></trkpt>
    <trkpt lat="58.3290004" lon="13.6038083"></trkpt>
    <trkpt lat="58.3288182" lon="13.6040596"></trkpt>
    <trkpt lat="58.3286642" lon="13.6043529"></trkpt>
    <trkpt lat="58.3285814" lon="13.6044611"></trkpt>
    <trkpt lat="58.3286257" lon="13.6055829"></trkpt>
    <trkpt lat="58.3285253" lon="13.6064681"></trkpt>
    <trkpt lat="58.3284249" lon="13.6073534"></trkpt>
    <trkpt lat="58.3280562" lon="13.6085476"></trkpt>
    <trkpt lat="58.3280470" lon="13.6087565"></trkpt>
    <trkpt lat="58.3280316" lon="13.6089904"></trkpt>
    <trkpt lat="58.3282809" lon="13.6094751"></trkpt>
    <trkpt lat="58.3286080" lon="13.6100282"></trkpt>
    <trkpt lat="58.3282967" lon="13.6112536"></trkpt>
    <trkpt lat="58.3281739" lon="13.6116981"></trkpt>
    <trkpt lat="58.3282000" lon="13.6118011"></trkpt>
    <trkpt lat="58.3281263" lon="13.6118822"></trkpt>
    <trkpt lat="58.3279827" lon="13.6119680"></trkpt>
    <trkpt lat="58.3278559" lon="13.6121987"></trkpt>
    <trkpt lat="58.3277983" lon="13.6123564"></trkpt>
    <trkpt lat="58.3277427" lon="13.6123793"></trkpt>
    <trkpt lat="58.3276885" lon="13.6124353"></trkpt>
    <trkpt lat="58.3276343" lon="13.6125496"></trkpt>
    <trkpt lat="58.3275691" lon="13.6127575"></trkpt>
    <trkpt lat="58.3274587" lon="13.6131958"></trkpt>
    <trkpt lat="58.3274317" lon="13.6133928"></trkpt>
    <trkpt lat="58.3274194" lon="13.6135948"></trkpt>
    <trkpt lat="58.3274092" lon="13.6138360"></trkpt>
    <trkpt lat="58.3273867" lon="13.6140406"></trkpt>
    <trkpt lat="58.3273565" lon="13.6142002"></trkpt>
    <trkpt lat="58.3278276" lon="13.6145535"></trkpt>
    <trkpt lat="58.3286170" lon="13.6150334"></trkpt>
    <trkpt lat="58.3294065" lon="13.6155132"></trkpt>
    <trkpt lat="58.3299949" lon="13.6158709"></trkpt>
    <trkpt lat="58.3307737" lon="13.6163665"></trkpt>
    <trkpt lat="58.3310847" lon="13.6165819"></trkpt>
    <trkpt lat="58.3312287" lon="13.6167048"></trkpt>
    <trkpt lat="58.3313131" lon="13.6167871"></trkpt>
    <trkpt lat="58.3315758" lon="13.6170807"></trkpt>
    <trkpt lat="58.3316519" lon="13.6171822"></trkpt>
    <trkpt lat="58.3318800" lon="13.6175054"></trkpt>
    <trkpt lat="58.3321475" lon="13.6179078"></trkpt>
    <trkpt lat="58.3323404" lon="13.6181679"></trkpt>
    <trkpt lat="58.3325988" lon="13.6184791"></trkpt>
    <trkpt lat="58.3327593" lon="13.6186400"></trkpt>
    <trkpt lat="58.3328333" lon="13.6187071"></trkpt>
    <trkpt lat="58.3330290" lon="13.6188962"></trkpt>
    <trkpt lat="58.3334430" lon="13.6192274"></trkpt>
    <trkpt lat="58.3337218" lon="13.6193830"></trkpt>
    <trkpt lat="58.3338478" lon="13.6194447"></trkpt>
    <trkpt lat="58.3339703" lon="13.6195037"></trkpt>
    <trkpt lat="58.3340731" lon="13.6195479"></trkpt>
    <trkpt lat="58.3342488" lon="13.6196030"></trkpt>
    <trkpt lat="58.3347616" lon="13.6197853"></trkpt>
    <trkpt lat="58.3353058" lon="13.6199140"></trkpt>
    <trkpt lat="58.3357494" lon="13.6199892"></trkpt>
    <trkpt lat="58.3362323" lon="13.6200106"></trkpt>
    <trkpt lat="58.3370081" lon="13.6200415"></trkpt>
    <trkpt lat="58.3373601" lon="13.6200404"></trkpt>
    <trkpt lat="58.3381147" lon="13.6200535"></trkpt>
    <trkpt lat="58.3385185" lon="13.6200082"></trkpt>
    <trkpt lat="58.3390145" lon="13.6198364"></trkpt>
    <trkpt lat="58.3390334" lon="13.6202366"></trkpt>
    <trkpt lat="58.3390982" lon="13.6213746"></trkpt>
    <trkpt lat="58.3392134" lon="13.6226378"></trkpt>
    <trkpt lat="58.3392755" lon="13.6233879"></trkpt>
    <trkpt lat="58.3392542" lon="13.6242803"></trkpt>
    <trkpt lat="58.3392330" lon="13.6251728"></trkpt>
    <trkpt lat="58.3392585" lon="13.6264266"></trkpt>
    <trkpt lat="58.3392839" lon="13.6276804"></trkpt>
    <trkpt lat="58.3391692" lon="13.6282128"></trkpt>
    <trkpt lat="58.3392002" lon="13.6282463"></trkpt>
    <trkpt lat="58.3392241" lon="13.6283094"></trkpt>
    <trkpt lat="58.3395718" lon="13.6291730"></trkpt>
    <trkpt lat="58.3399196" lon="13.6300367"></trkpt>
    <trkpt lat="58.3406038" lon="13.6306912"></trkpt>
    <trkpt lat="58.3408685" lon="13.6307019"></trkpt>
    <trkpt lat="58.3410177" lon="13.6306912"></trkpt>
    <trkpt lat="58.3412289" lon="13.6308038"></trkpt>
    <trkpt lat="58.3413668" lon="13.6308789"></trkpt>
    <trkpt lat="58.3415442" lon="13.6308843"></trkpt>
    <trkpt lat="58.3416399" lon="13.6308145"></trkpt>
    <trkpt lat="58.3418708" lon="13.6306214"></trkpt>
    <trkpt lat="58.3423551" lon="13.6304068"></trkpt>
    <trkpt lat="58.3423438" lon="13.6297309"></trkpt>
    <trkpt lat="58.3424170" lon="13.6292374"></trkpt>
    <trkpt lat="58.3425972" lon="13.6288404"></trkpt>
    <trkpt lat="58.3430533" lon="13.6285186"></trkpt>
    <trkpt lat="58.3437177" lon="13.6286580"></trkpt>
    <trkpt lat="58.3439768" lon="13.6285615"></trkpt>
    <trkpt lat="58.3445173" lon="13.6289102"></trkpt>
    <trkpt lat="58.3450578" lon="13.6292589"></trkpt>
    <trkpt lat="58.3454294" lon="13.6292374"></trkpt>
    <trkpt lat="58.3462571" lon="13.6297524"></trkpt>
    <trkpt lat="58.3466681" lon="13.6302030"></trkpt>
    <trkpt lat="58.3470172" lon="13.6302352"></trkpt>
    <trkpt lat="58.3470707" lon="13.6306268"></trkpt>
    <trkpt lat="58.3473856" lon="13.6305544"></trkpt>
    <trkpt lat="58.3477716" lon="13.6310130"></trkpt>
    <trkpt lat="58.3478589" lon="13.6313939"></trkpt>
    <trkpt lat="58.3481883" lon="13.6317104"></trkpt>
    <trkpt lat="58.3486017" lon="13.6317721"></trkpt>
    <trkpt lat="58.3487766" lon="13.6312383"></trkpt>
    <trkpt lat="58.3494630" lon="13.6313645"></trkpt>
    <trkpt lat="58.3498575" lon="13.6320215"></trkpt>
    <trkpt lat="58.3500855" lon="13.6321557"></trkpt>
    <trkpt lat="58.3505753" lon="13.6326438"></trkpt>
    <trkpt lat="58.3506706" lon="13.6330542"></trkpt>
    <trkpt lat="58.3511716" lon="13.6331884"></trkpt>
    <trkpt lat="58.3516727" lon="13.6333225"></trkpt>
    <trkpt lat="58.3524045" lon="13.6338789"></trkpt>
    <trkpt lat="58.3529224" lon="13.6344368"></trkpt>
    <trkpt lat="58.3534403" lon="13.6349947"></trkpt>
    <trkpt lat="58.3538231" lon="13.6357242"></trkpt>
    <trkpt lat="58.3542058" lon="13.6364538"></trkpt>
    <trkpt lat="58.3547602" lon="13.6373175"></trkpt>
    <trkpt lat="58.3553147" lon="13.6381811"></trkpt>
    <trkpt lat="58.3557861" lon="13.6382785"></trkpt>
    <trkpt lat="58.3562575" lon="13.6383758"></trkpt>
    <trkpt lat="58.3568373" lon="13.6388586"></trkpt>
    <trkpt lat="58.3574002" lon="13.6398993"></trkpt>
    <trkpt lat="58.3579630" lon="13.6409400"></trkpt>
    <trkpt lat="58.3584921" lon="13.6417017"></trkpt>
    <trkpt lat="58.3590212" lon="13.6424635"></trkpt>
    <trkpt lat="58.3595652" lon="13.6431072"></trkpt>
    <trkpt lat="58.3601093" lon="13.6437509"></trkpt>
    <trkpt lat="58.3606533" lon="13.6443946"></trkpt>
    <trkpt lat="58.3612387" lon="13.6453388"></trkpt>
    <trkpt lat="58.3618240" lon="13.6462829"></trkpt>
    <trkpt lat="58.3621785" lon="13.6472378"></trkpt>
    <trkpt lat="58.3625331" lon="13.6481927"></trkpt>
    <trkpt lat="58.3629783" lon="13.6488678"></trkpt>
    <trkpt lat="58.3634236" lon="13.6495428"></trkpt>
    <trkpt lat="58.3636487" lon="13.6504440"></trkpt>
    <trkpt lat="58.3639413" lon="13.6510877"></trkpt>
    <trkpt lat="58.3642790" lon="13.6521177"></trkpt>
    <trkpt lat="58.3646391" lon="13.6528043"></trkpt>
    <trkpt lat="58.3648868" lon="13.6534910"></trkpt>
    <trkpt lat="58.3650430" lon="13.6537888"></trkpt>
    <trkpt lat="58.3652244" lon="13.6541347"></trkpt>
    <trkpt lat="58.3655845" lon="13.6548214"></trkpt>
    <trkpt lat="58.3656296" lon="13.6553793"></trkpt>
    <trkpt lat="58.3659897" lon="13.6557655"></trkpt>
    <trkpt lat="58.3661473" lon="13.6565380"></trkpt>
    <trkpt lat="58.3664624" lon="13.6570959"></trkpt>
    <trkpt lat="58.3668675" lon="13.6573105"></trkpt>
    <trkpt lat="58.3670251" lon="13.6581258"></trkpt>
    <trkpt lat="58.3671826" lon="13.6591558"></trkpt>
    <trkpt lat="58.3673627" lon="13.6596708"></trkpt>
    <trkpt lat="58.3677678" lon="13.6604004"></trkpt>
    <trkpt lat="58.3681055" lon="13.6608295"></trkpt>
    <trkpt lat="58.3682630" lon="13.6613445"></trkpt>
    <trkpt lat="58.3686681" lon="13.6615162"></trkpt>
    <trkpt lat="58.3686106" lon="13.6626954"></trkpt>
    <trkpt lat="58.3687230" lon="13.6626632"></trkpt>
    <trkpt lat="58.3690044" lon="13.6626203"></trkpt>
    <trkpt lat="58.3692182" lon="13.6624701"></trkpt>
    <trkpt lat="58.3695108" lon="13.6622984"></trkpt>
    <trkpt lat="58.3698371" lon="13.6621697"></trkpt>
    <trkpt lat="58.3701860" lon="13.6620624"></trkpt>
    <trkpt lat="58.3705011" lon="13.6619336"></trkpt>
    <trkpt lat="58.3706698" lon="13.6619122"></trkpt>
    <trkpt lat="58.3710299" lon="13.6618263"></trkpt>
    <trkpt lat="58.3713422" lon="13.6624835"></trkpt>
    <trkpt lat="58.3715166" lon="13.6631165"></trkpt>
    <trkpt lat="58.3717529" lon="13.6641035"></trkpt>
    <trkpt lat="58.3719554" lon="13.6647472"></trkpt>
    <trkpt lat="58.3724843" lon="13.6653266"></trkpt>
    <trkpt lat="58.3730132" lon="13.6659060"></trkpt>
    <trkpt lat="58.3734407" lon="13.6663351"></trkpt>
    <trkpt lat="58.3738458" lon="13.6673651"></trkpt>
    <trkpt lat="58.3739515" lon="13.6674526"></trkpt>
    <trkpt lat="58.3740603" lon="13.6675160"></trkpt>
    <trkpt lat="58.3741861" lon="13.6674815"></trkpt>
    <trkpt lat="58.3745104" lon="13.6673627"></trkpt>
    <trkpt lat="58.3744819" lon="13.6671400"></trkpt>
    <trkpt lat="58.3744368" lon="13.6667874"></trkpt>
    <trkpt lat="58.3744228" lon="13.6665299"></trkpt>
    <trkpt lat="58.3743271" lon="13.6662832"></trkpt>
    <trkpt lat="58.3741837" lon="13.6659613"></trkpt>
    <trkpt lat="58.3740458" lon="13.6656770"></trkpt>
    <trkpt lat="58.3738152" lon="13.6653659"></trkpt>
    <trkpt lat="58.3736154" lon="13.6650011"></trkpt>
    <trkpt lat="58.3735339" lon="13.6646899"></trkpt>
    <trkpt lat="58.3734888" lon="13.6644056"></trkpt>
    <trkpt lat="58.3735142" lon="13.6642232"></trkpt>
    <trkpt lat="58.3735901" lon="13.6640730"></trkpt>
    <trkpt lat="58.3736633" lon="13.6640301"></trkpt>
    <trkpt lat="58.3738461" lon="13.6639818"></trkpt>
    <trkpt lat="58.3739924" lon="13.6638638"></trkpt>
    <trkpt lat="58.3740768" lon="13.6636332"></trkpt>
    <trkpt lat="58.3741809" lon="13.6629684"></trkpt>
    <trkpt lat="58.3744312" lon="13.6623672"></trkpt>
    <trkpt lat="58.3745521" lon="13.6618522"></trkpt>
    <trkpt lat="58.3746000" lon="13.6619326"></trkpt>
    <trkpt lat="58.3746450" lon="13.6622706"></trkpt>
    <trkpt lat="58.3746815" lon="13.6624101"></trkpt>
    <trkpt lat="58.3747547" lon="13.6625764"></trkpt>
    <trkpt lat="58.3748039" lon="13.6626193"></trkpt>
    <trkpt lat="58.3748531" lon="13.6626622"></trkpt>
    <trkpt lat="58.3749628" lon="13.6626407"></trkpt>
    <trkpt lat="58.3750782" lon="13.6625764"></trkpt>
    <trkpt lat="58.3751211" lon="13.6625027"></trkpt>
    <trkpt lat="58.3751679" lon="13.6624891"></trkpt>
    <trkpt lat="58.3753623" lon="13.6624262"></trkpt>
    <trkpt lat="58.3753960" lon="13.6623672"></trkpt>
    <trkpt lat="58.3754945" lon="13.6623028"></trkpt>
    <trkpt lat="58.3756042" lon="13.6622974"></trkpt>
    <trkpt lat="58.3757392" lon="13.6623081"></trkpt>
    <trkpt lat="58.3757786" lon="13.6622384"></trkpt>
    <trkpt lat="58.3758376" lon="13.6620185"></trkpt>
    <trkpt lat="58.3759192" lon="13.6619541"></trkpt>
    <trkpt lat="58.3760542" lon="13.6619541"></trkpt>
    <trkpt lat="58.3762089" lon="13.6619702"></trkpt>
    <trkpt lat="58.3762736" lon="13.6620185"></trkpt>
    <trkpt lat="58.3763383" lon="13.6619809"></trkpt>
    <trkpt lat="58.3764002" lon="13.6617878"></trkpt>
    <trkpt lat="58.3764705" lon="13.6614498"></trkpt>
    <trkpt lat="58.3765999" lon="13.6605915"></trkpt>
    <trkpt lat="58.3766393" lon="13.6603394"></trkpt>
    <trkpt lat="58.3766899" lon="13.6602214"></trkpt>
    <trkpt lat="58.3768165" lon="13.6600658"></trkpt>
    <trkpt lat="58.3769909" lon="13.6598298"></trkpt>
    <trkpt lat="58.3771343" lon="13.6595991"></trkpt>
    <trkpt lat="58.3772102" lon="13.6594596"></trkpt>
    <trkpt lat="58.3772637" lon="13.6592236"></trkpt>
    <trkpt lat="58.3773340" lon="13.6591592"></trkpt>
    <trkpt lat="58.3774437" lon="13.6591914"></trkpt>
    <trkpt lat="58.3775140" lon="13.6593309"></trkpt>
    <trkpt lat="58.3775951" lon="13.6594343"></trkpt>
    <trkpt lat="58.3776761" lon="13.6595377"></trkpt>
    <trkpt lat="58.3778290" lon="13.6596474"></trkpt>
    <trkpt lat="58.3778709" lon="13.6595872"></trkpt>
    <trkpt lat="58.3779128" lon="13.6595269"></trkpt>
    <trkpt lat="58.3779662" lon="13.6594298"></trkpt>
    <trkpt lat="58.3780839" lon="13.6592164"></trkpt>
    <trkpt lat="58.3781659" lon="13.6589963"></trkpt>
    <trkpt lat="58.3782748" lon="13.6587039"></trkpt>
    <trkpt lat="58.3783766" lon="13.6584209"></trkpt>
    <trkpt lat="58.3785012" lon="13.6583546"></trkpt>
    <trkpt lat="58.3786222" lon="13.6583438"></trkpt>
    <trkpt lat="58.3788528" lon="13.6583492"></trkpt>
    <trkpt lat="58.3789968" lon="13.6583813"></trkpt>
    <trkpt lat="58.3790464" lon="13.6579675"></trkpt>
    <trkpt lat="58.3790170" lon="13.6577714"></trkpt>
    <trkpt lat="58.3790840" lon="13.6575049"></trkpt>
    <trkpt lat="58.3791286" lon="13.6573275"></trkpt>
    <trkpt lat="58.3791540" lon="13.6570751"></trkpt>
    <trkpt lat="58.3791933" lon="13.6566226"></trkpt>
    <trkpt lat="58.3793304" lon="13.6560902"></trkpt>
    <trkpt lat="58.3794180" lon="13.6557805"></trkpt>
    <trkpt lat="58.3794642" lon="13.6555732"></trkpt>
    <trkpt lat="58.3794822" lon="13.6554924"></trkpt>
    <trkpt lat="58.3795052" lon="13.6553167"></trkpt>
    <trkpt lat="58.3795263" lon="13.6551562"></trkpt>
    <trkpt lat="58.3795850" lon="13.6549134"></trkpt>
    <trkpt lat="58.3795915" lon="13.6547006"></trkpt>
    <trkpt lat="58.3796683" lon="13.6545211"></trkpt>
    <trkpt lat="58.3797368" lon="13.6542689"></trkpt>
    <trkpt lat="58.3798348" lon="13.6539233"></trkpt>
    <trkpt lat="58.3799131" lon="13.6537459"></trkpt>
    <trkpt lat="58.3800698" lon="13.6538112"></trkpt>
    <trkpt lat="58.3802755" lon="13.6541848"></trkpt>
    <trkpt lat="58.3803881" lon="13.6543530"></trkpt>
    <trkpt lat="58.3804665" lon="13.6542689"></trkpt>
    <trkpt lat="58.3805595" lon="13.6543343"></trkpt>
    <trkpt lat="58.3806574" lon="13.6545211"></trkpt>
    <trkpt lat="58.3807911" lon="13.6547475"></trkpt>
    <trkpt lat="58.3808709" lon="13.6548439"></trkpt>
    <trkpt lat="58.3809856" lon="13.6549004"></trkpt>
    <trkpt lat="58.3811788" lon="13.6549874"></trkpt>
    <trkpt lat="58.3813736" lon="13.6550550"></trkpt>
    <trkpt lat="58.3815417" lon="13.6552225"></trkpt>
    <trkpt lat="58.3816682" lon="13.6554196"></trkpt>
    <trkpt lat="58.3818197" lon="13.6556803"></trkpt>
    <trkpt lat="58.3820073" lon="13.6556947"></trkpt>
    <trkpt lat="58.3823862" lon="13.6555976"></trkpt>
    <trkpt lat="58.3827056" lon="13.6554492"></trkpt>
    <trkpt lat="58.3830430" lon="13.6558690"></trkpt>
    <trkpt lat="58.3830721" lon="13.6559848"></trkpt>
    <trkpt lat="58.3831333" lon="13.6562848"></trkpt>
    <trkpt lat="58.3832511" lon="13.6564665"></trkpt>
    <trkpt lat="58.3834315" lon="13.6566576"></trkpt>
    <trkpt lat="58.3838103" lon="13.6568903"></trkpt>
    <trkpt lat="58.3840846" lon="13.6569440"></trkpt>
    <trkpt lat="58.3843509" lon="13.6569626"></trkpt>
    <trkpt lat="58.3845506" lon="13.6570158"></trkpt>
    <trkpt lat="58.3846720" lon="13.6566288"></trkpt>
    <trkpt lat="58.3847731" lon="13.6563972"></trkpt>
    <trkpt lat="58.3847995" lon="13.6563316"></trkpt>
    <trkpt lat="58.3848258" lon="13.6562765"></trkpt>
    <trkpt lat="58.3848711" lon="13.6560507"></trkpt>
    <trkpt lat="58.3850071" lon="13.6559669"></trkpt>
    <trkpt lat="58.3850754" lon="13.6551207"></trkpt>
    <trkpt lat="58.3852018" lon="13.6542664"></trkpt>
    <trkpt lat="58.3851485" lon="13.6542514"></trkpt>
    <trkpt lat="58.3850811" lon="13.6542474"></trkpt>
    <trkpt lat="58.3850877" lon="13.6539888"></trkpt>
    <trkpt lat="58.3851441" lon="13.6536768"></trkpt>
    <trkpt lat="58.3851707" lon="13.6534569"></trkpt>
    <trkpt lat="58.3852022" lon="13.6532926"></trkpt>
    <trkpt lat="58.3852752" lon="13.6531362"></trkpt>
  </trkseg></trk>
</gpx>
